{
"type": "FeatureCollection",
"name": "transects_choiseul",
"crs": { "type": "name", "properties": { "name": "urn:ogc:def:crs:OGC:1.3:CRS84" } },
"features": [
{ "type": "Feature", "properties": { "uid": "rqz91q6ksf", "rate_time": 0.002, "sig_time": 0.99, "se_time": 0.153, "sce": 15.09, "nsm": -2.14, "valid_obs": 16, "valid_span": 25, "significant": false }, "geometry": { "type": "Point", "coordinates": [ 156.855104455889432, -6.820348615708917 ] } },
{ "type": "Feature", "properties": { "uid": "rqz91q6pqd", "rate_time": 0.679, "sig_time": 0.002, "se_time": 0.185, "sce": 20.3, "nsm": 10.24, "valid_obs": 16, "valid_span": 25, "significant": true }, "geometry": { "type": "Point", "coordinates": [ 156.854840965990434, -6.819877466975535 ] } },
{ "type": "Feature", "properties": { "uid": "rqz91qd41e", "rate_time": -0.677, "sig_time": 0.05, "se_time": 0.317, "sce": 45.13, "nsm": -2.83, "valid_obs": 17, "valid_span": 25, "significant": false }, "geometry": { "type": "Point", "coordinates": [ 156.85461811497342, -6.819399480961573 ] } },
{ "type": "Feature", "properties": { "uid": "rqz91qdhxv", "rate_time": 0.374, "sig_time": 0.001, "se_time": 0.09, "sce": 11.2, "nsm": 11.2, "valid_obs": 17, "valid_span": 25, "significant": true }, "geometry": { "type": "Point", "coordinates": [ 156.854893684072835, -6.81896227592078 ] } },
{ "type": "Feature", "properties": { "uid": "rqz91qdq4c", "rate_time": 0.26, "sig_time": 0.0, "se_time": 0.055, "sce": 6.92, "nsm": 6.92, "valid_obs": 17, "valid_span": 25, "significant": true }, "geometry": { "type": "Point", "coordinates": [ 156.855019823868673, -6.818724536283935 ] } },
{ "type": "Feature", "properties": { "uid": "rqz91qdree", "rate_time": 0.228, "sig_time": 0.0, "se_time": 0.049, "sce": 6.24, "nsm": 4.33, "valid_obs": 16, "valid_span": 25, "significant": true }, "geometry": { "type": "Point", "coordinates": [ 156.855052956482723, -6.818459614137181 ] } },
{ "type": "Feature", "properties": { "uid": "rqz91qf35j", "rate_time": 0.242, "sig_time": 0.001, "se_time": 0.06, "sce": 8.84, "nsm": 1.87, "valid_obs": 16, "valid_span": 25, "significant": true }, "geometry": { "type": "Point", "coordinates": [ 156.855030840093804, -6.818189824975413 ] } },
{ "type": "Feature", "properties": { "uid": "rqz91qj6c3", "rate_time": 0.011, "sig_time": 0.903, "se_time": 0.085, "sce": 8.26, "nsm": -2.6, "valid_obs": 16, "valid_span": 25, "significant": false }, "geometry": { "type": "Point", "coordinates": [ 156.859077479560852, -6.822029129761557 ] } },
{ "type": "Feature", "properties": { "uid": "rqz91qjhn5", "rate_time": 0.111, "sig_time": 0.188, "se_time": 0.08, "sce": 7.83, "nsm": -0.22, "valid_obs": 16, "valid_span": 25, "significant": false }, "geometry": { "type": "Point", "coordinates": [ 156.858934715063782, -6.821802191686219 ] } },
{ "type": "Feature", "properties": { "uid": "rqz91q7e08", "rate_time": -0.471, "sig_time": 0.01, "se_time": 0.157, "sce": 14.67, "nsm": -10.12, "valid_obs": 16, "valid_span": 25, "significant": true }, "geometry": { "type": "Point", "coordinates": [ 156.856637270382009, -6.820616552555818 ] } },
{ "type": "Feature", "properties": { "uid": "rqz91q7enu", "rate_time": -0.324, "sig_time": 0.075, "se_time": 0.168, "sce": 14.67, "nsm": -5.14, "valid_obs": 16, "valid_span": 25, "significant": false }, "geometry": { "type": "Point", "coordinates": [ 156.856906883299558, -6.820594690445018 ] } },
{ "type": "Feature", "properties": { "uid": "rqz91q774m", "rate_time": -0.465, "sig_time": 0.02, "se_time": 0.178, "sce": 17.07, "nsm": -12.85, "valid_obs": 16, "valid_span": 25, "significant": true }, "geometry": { "type": "Point", "coordinates": [ 156.856368064504466, -6.820592122988525 ] } },
{ "type": "Feature", "properties": { "uid": "rqz91q6er9", "rate_time": -0.16, "sig_time": 0.449, "se_time": 0.206, "sce": 19.48, "nsm": -3.34, "valid_obs": 16, "valid_span": 25, "significant": false }, "geometry": { "type": "Point", "coordinates": [ 156.855569557033306, -6.820569461453291 ] } },
{ "type": "Feature", "properties": { "uid": "rqz91q75s0", "rate_time": -0.221, "sig_time": 0.293, "se_time": 0.203, "sce": 18.37, "nsm": -7.94, "valid_obs": 16, "valid_span": 25, "significant": false }, "geometry": { "type": "Point", "coordinates": [ 156.856103057202745, -6.820535589265911 ] } },
{ "type": "Feature", "properties": { "uid": "rqz91q6gtc", "rate_time": -0.071, "sig_time": 0.693, "se_time": 0.175, "sce": 17.74, "nsm": -1.97, "valid_obs": 16, "valid_span": 25, "significant": false }, "geometry": { "type": "Point", "coordinates": [ 156.855835795798555, -6.820526153058571 ] } },
{ "type": "Feature", "properties": { "uid": "rqz91sf0j7", "rate_time": -0.008, "sig_time": 0.959, "se_time": 0.153, "sce": 14.4, "nsm": 6.32, "valid_obs": 15, "valid_span": 25, "significant": false }, "geometry": { "type": "Point", "coordinates": [ 156.865767456675002, -6.829356446919139 ] } },
{ "type": "Feature", "properties": { "uid": "rqz91sf31x", "rate_time": 0.006, "sig_time": 0.964, "se_time": 0.128, "sce": 12.54, "nsm": 3.14, "valid_obs": 15, "valid_span": 25, "significant": false }, "geometry": { "type": "Point", "coordinates": [ 156.865957290116029, -6.82916587799874 ] } },
{ "type": "Feature", "properties": { "uid": "rqz91sf6nx", "rate_time": 0.054, "sig_time": 0.72, "se_time": 0.147, "sce": 14.29, "nsm": 2.19, "valid_obs": 15, "valid_span": 25, "significant": false }, "geometry": { "type": "Point", "coordinates": [ 156.866164171048325, -6.828990787466898 ] } },
{ "type": "Feature", "properties": { "uid": "rqz91sfe6x", "rate_time": 0.034, "sig_time": 0.761, "se_time": 0.108, "sce": 10.01, "nsm": 0.05, "valid_obs": 15, "valid_span": 25, "significant": false }, "geometry": { "type": "Point", "coordinates": [ 156.866334864637167, -6.828780152797814 ] } },
{ "type": "Feature", "properties": { "uid": "rqz91sft4b", "rate_time": 0.0, "sig_time": 0.999, "se_time": 0.177, "sce": 16.23, "nsm": -4.63, "valid_obs": 15, "valid_span": 25, "significant": false }, "geometry": { "type": "Point", "coordinates": [ 156.866354312730493, -6.828517462144153 ] } },
{ "type": "Feature", "properties": { "uid": "rqz91swg66", "rate_time": -0.235, "sig_time": 0.104, "se_time": 0.134, "sce": 15.34, "nsm": -12.08, "valid_obs": 15, "valid_span": 25, "significant": false }, "geometry": { "type": "Point", "coordinates": [ 156.872165342300491, -6.830176233788666 ] } },
{ "type": "Feature", "properties": { "uid": "rqz91swuq5", "rate_time": 0.006, "sig_time": 0.979, "se_time": 0.214, "sce": 17.88, "nsm": -9.45, "valid_obs": 15, "valid_span": 25, "significant": false }, "geometry": { "type": "Point", "coordinates": [ 156.872327908670002, -6.830001637759202 ] } },
{ "type": "Feature", "properties": { "uid": "rqz91srhgv", "rate_time": -1.191, "sig_time": 0.0, "se_time": 0.228, "sce": 34.16, "nsm": -31.15, "valid_obs": 15, "valid_span": 25, "significant": true }, "geometry": { "type": "Point", "coordinates": [ 156.872575147523037, -6.831276118978963 ] } },
{ "type": "Feature", "properties": { "uid": "rqz91srnqc", "rate_time": -0.856, "sig_time": 0.003, "se_time": 0.239, "sce": 33.08, "nsm": -31.03, "valid_obs": 15, "valid_span": 25, "significant": true }, "geometry": { "type": "Point", "coordinates": [ 156.872702479054851, -6.831041312209378 ] } },
{ "type": "Feature", "properties": { "uid": "rqz943fmhk", "rate_time": -0.423, "sig_time": 0.0, "se_time": 0.073, "sce": 12.31, "nsm": -6.85, "valid_obs": 15, "valid_span": 25, "significant": true }, "geometry": { "type": "Point", "coordinates": [ 156.899030278500021, -6.844971292205946 ] } },
{ "type": "Feature", "properties": { "uid": "rqz943ftdp", "rate_time": -0.47, "sig_time": 0.074, "se_time": 0.243, "sce": 29.04, "nsm": -9.48, "valid_obs": 16, "valid_span": 25, "significant": false }, "geometry": { "type": "Point", "coordinates": [ 156.899281401394859, -6.844869994490449 ] } },
{ "type": "Feature", "properties": { "uid": "rqz943fwrz", "rate_time": -0.834, "sig_time": 0.004, "se_time": 0.243, "sce": 36.41, "nsm": -9.05, "valid_obs": 16, "valid_span": 25, "significant": true }, "geometry": { "type": "Point", "coordinates": [ 156.899521454555753, -6.844743627986842 ] } },
{ "type": "Feature", "properties": { "uid": "rqz943fzjt", "rate_time": -0.793, "sig_time": 0.0, "se_time": 0.164, "sce": 22.05, "nsm": -14.88, "valid_obs": 15, "valid_span": 25, "significant": true }, "geometry": { "type": "Point", "coordinates": [ 156.899766227965983, -6.844626643278518 ] } },
{ "type": "Feature", "properties": { "uid": "rqz946504c", "rate_time": -0.879, "sig_time": 0.0, "se_time": 0.153, "sce": 23.66, "nsm": -17.51, "valid_obs": 15, "valid_span": 25, "significant": true }, "geometry": { "type": "Point", "coordinates": [ 156.899991800664452, -6.844475911274889 ] } },
{ "type": "Feature", "properties": { "uid": "rqz94650zz", "rate_time": -0.896, "sig_time": 0.0, "se_time": 0.163, "sce": 24.99, "nsm": -19.08, "valid_obs": 15, "valid_span": 25, "significant": true }, "geometry": { "type": "Point", "coordinates": [ 156.900210212177853, -6.844315117996437 ] } },
{ "type": "Feature", "properties": { "uid": "rqz94653uy", "rate_time": -0.841, "sig_time": 0.0, "se_time": 0.181, "sce": 25.24, "nsm": -18.66, "valid_obs": 15, "valid_span": 25, "significant": true }, "geometry": { "type": "Point", "coordinates": [ 156.900421373203727, -6.844144866989676 ] } },
{ "type": "Feature", "properties": { "uid": "rqz9465dcx", "rate_time": -0.864, "sig_time": 0.0, "se_time": 0.182, "sce": 24.22, "nsm": -16.67, "valid_obs": 15, "valid_span": 25, "significant": true }, "geometry": { "type": "Point", "coordinates": [ 156.900629072344117, -6.843970370510602 ] } },
{ "type": "Feature", "properties": { "uid": "rqz9465sn3", "rate_time": -1.137, "sig_time": 0.01, "se_time": 0.379, "sce": 49.33, "nsm": -16.83, "valid_obs": 15, "valid_span": 25, "significant": true }, "geometry": { "type": "Point", "coordinates": [ 156.900830925683977, -6.843789403528291 ] } },
{ "type": "Feature", "properties": { "uid": "rqz949s8bs", "rate_time": -0.154, "sig_time": 0.174, "se_time": 0.108, "sce": 10.2, "nsm": 4.2, "valid_obs": 16, "valid_span": 25, "significant": false }, "geometry": { "type": "Point", "coordinates": [ 156.912948959461431, -6.847078192443116 ] } },
{ "type": "Feature", "properties": { "uid": "rqz949s9w2", "rate_time": 0.08, "sig_time": 0.531, "se_time": 0.125, "sce": 13.07, "nsm": 8.79, "valid_obs": 16, "valid_span": 25, "significant": false }, "geometry": { "type": "Point", "coordinates": [ 156.913196171501653, -6.846968267440392 ] } },
{ "type": "Feature", "properties": { "uid": "rqz949t16y", "rate_time": 0.592, "sig_time": 0.315, "se_time": 0.568, "sce": 65.01, "nsm": 1.5, "valid_obs": 16, "valid_span": 25, "significant": false }, "geometry": { "type": "Point", "coordinates": [ 156.913725304508858, -6.846980443722334 ] } },
{ "type": "Feature", "properties": { "uid": "rqz949t38y", "rate_time": 0.415, "sig_time": 0.216, "se_time": 0.32, "sce": 29.08, "nsm": 2.81, "valid_obs": 15, "valid_span": 25, "significant": false }, "geometry": { "type": "Point", "coordinates": [ 156.913986526311106, -6.846934763745084 ] } },
{ "type": "Feature", "properties": { "uid": "rqz94cgug0", "rate_time": 0.22, "sig_time": 0.294, "se_time": 0.201, "sce": 24.44, "nsm": 2.94, "valid_obs": 15, "valid_span": 25, "significant": false }, "geometry": { "type": "Point", "coordinates": [ 156.923012534077202, -6.845035808872151 ] } },
{ "type": "Feature", "properties": { "uid": "rqz94cgyjp", "rate_time": 0.63, "sig_time": 0.195, "se_time": 0.461, "sce": 55.24, "nsm": 3.25, "valid_obs": 15, "valid_span": 25, "significant": false }, "geometry": { "type": "Point", "coordinates": [ 156.923098128656022, -6.844786581156469 ] } },
{ "type": "Feature", "properties": { "uid": "rqz94cs1k1", "rate_time": 0.367, "sig_time": 0.167, "se_time": 0.251, "sce": 24.72, "nsm": 4.98, "valid_obs": 15, "valid_span": 25, "significant": false }, "geometry": { "type": "Point", "coordinates": [ 156.923391339495026, -6.847004498547613 ] } },
{ "type": "Feature", "properties": { "uid": "rqz94cs62f", "rate_time": 0.189, "sig_time": 0.279, "se_time": 0.167, "sce": 16.9, "nsm": 9.6, "valid_obs": 15, "valid_span": 25, "significant": false }, "geometry": { "type": "Point", "coordinates": [ 156.923598463537729, -6.846829603602846 ] } },
{ "type": "Feature", "properties": { "uid": "rqz94csqmn", "rate_time": 0.229, "sig_time": 0.022, "se_time": 0.088, "sce": 10.64, "nsm": 7.51, "valid_obs": 15, "valid_span": 25, "significant": true }, "geometry": { "type": "Point", "coordinates": [ 156.923778519293023, -6.846120844445987 ] } },
{ "type": "Feature", "properties": { "uid": "rqz94cs7t0", "rate_time": 0.282, "sig_time": 0.113, "se_time": 0.166, "sce": 18.5, "nsm": 11.86, "valid_obs": 15, "valid_span": 25, "significant": false }, "geometry": { "type": "Point", "coordinates": [ 156.923778658685109, -6.846627284325285 ] } },
{ "type": "Feature", "properties": { "uid": "rqz94cskzp", "rate_time": 0.331, "sig_time": 0.032, "se_time": 0.138, "sce": 16.32, "nsm": 12.02, "valid_obs": 15, "valid_span": 25, "significant": true }, "geometry": { "type": "Point", "coordinates": [ 156.923870471660365, -6.846372076682687 ] } },
{ "type": "Feature", "properties": { "uid": "rqz94ctsqh", "rate_time": 0.225, "sig_time": 0.258, "se_time": 0.191, "sce": 15.4, "nsm": 9.64, "valid_obs": 15, "valid_span": 25, "significant": false }, "geometry": { "type": "Point", "coordinates": [ 156.925538608835922, -6.846476983712509 ] } },
{ "type": "Feature", "properties": { "uid": "rqz94cttys", "rate_time": 0.357, "sig_time": 0.048, "se_time": 0.163, "sce": 15.68, "nsm": 11.61, "valid_obs": 15, "valid_span": 25, "significant": true }, "geometry": { "type": "Point", "coordinates": [ 156.925557354459471, -6.846215786115045 ] } },
{ "type": "Feature", "properties": { "uid": "rqz94cv9p8", "rate_time": 0.445, "sig_time": 0.019, "se_time": 0.165, "sce": 16.81, "nsm": 11.77, "valid_obs": 15, "valid_span": 25, "significant": true }, "geometry": { "type": "Point", "coordinates": [ 156.925609826844834, -6.84568305399365 ] } },
{ "type": "Feature", "properties": { "uid": "rqz94ctxry", "rate_time": 0.416, "sig_time": 0.015, "se_time": 0.149, "sce": 16.02, "nsm": 11.8, "valid_obs": 15, "valid_span": 25, "significant": true }, "geometry": { "type": "Point", "coordinates": [ 156.925613696903554, -6.84595122600756 ] } },
{ "type": "Feature", "properties": { "uid": "rqz94cwdf2", "rate_time": 0.04, "sig_time": 0.818, "se_time": 0.168, "sce": 12.7, "nsm": 5.21, "valid_obs": 15, "valid_span": 25, "significant": false }, "geometry": { "type": "Point", "coordinates": [ 156.926754404004981, -6.846752505757864 ] } },
{ "type": "Feature", "properties": { "uid": "rqz94cxckv", "rate_time": -0.28, "sig_time": 0.484, "se_time": 0.389, "sce": 40.12, "nsm": 2.1, "valid_obs": 16, "valid_span": 25, "significant": false }, "geometry": { "type": "Point", "coordinates": [ 156.928573468739643, -6.846982375229852 ] } },
{ "type": "Feature", "properties": { "uid": "rqz951844m", "rate_time": -0.044, "sig_time": 0.785, "se_time": 0.16, "sce": 15.25, "nsm": 1.38, "valid_obs": 16, "valid_span": 25, "significant": false }, "geometry": { "type": "Point", "coordinates": [ 156.928810384584096, -6.846858534182553 ] } },
{ "type": "Feature", "properties": { "uid": "rqz95185qh", "rate_time": 0.014, "sig_time": 0.927, "se_time": 0.153, "sce": 17.01, "nsm": 2.82, "valid_obs": 16, "valid_span": 25, "significant": false }, "geometry": { "type": "Point", "coordinates": [ 156.928976844384579, -6.846645484303655 ] } },
{ "type": "Feature", "properties": { "uid": "rqz9518nw3", "rate_time": 0.137, "sig_time": 0.361, "se_time": 0.145, "sce": 17.48, "nsm": 8.2, "valid_obs": 16, "valid_span": 25, "significant": false }, "geometry": { "type": "Point", "coordinates": [ 156.928986997991842, -6.846105137298979 ] } },
{ "type": "Feature", "properties": { "uid": "rqz9518hyz", "rate_time": 0.112, "sig_time": 0.544, "se_time": 0.18, "sce": 21.18, "nsm": 6.34, "valid_obs": 16, "valid_span": 25, "significant": false }, "geometry": { "type": "Point", "coordinates": [ 156.9290028401565, -6.846375584597569 ] } },
{ "type": "Feature", "properties": { "uid": "rqz951b209", "rate_time": -0.227, "sig_time": 0.251, "se_time": 0.189, "sce": 20.88, "nsm": 5.23, "valid_obs": 16, "valid_span": 25, "significant": false }, "geometry": { "type": "Point", "coordinates": [ 156.929077811580157, -6.845849602790894 ] } },
{ "type": "Feature", "properties": { "uid": "rqz951b3k3", "rate_time": -0.023, "sig_time": 0.853, "se_time": 0.123, "sce": 10.11, "nsm": 4.11, "valid_obs": 15, "valid_span": 25, "significant": false }, "geometry": { "type": "Point", "coordinates": [ 156.929242032992931, -6.84563431999571 ] } },
{ "type": "Feature", "properties": { "uid": "rqz951bd19", "rate_time": -0.014, "sig_time": 0.888, "se_time": 0.1, "sce": 7.97, "nsm": 2.98, "valid_obs": 15, "valid_span": 25, "significant": false }, "geometry": { "type": "Point", "coordinates": [ 156.929465867587851, -6.845502742498542 ] } },
{ "type": "Feature", "properties": { "uid": "rqz951bdrb", "rate_time": -0.018, "sig_time": 0.852, "se_time": 0.097, "sce": 7.22, "nsm": 1.06, "valid_obs": 15, "valid_span": 25, "significant": false }, "geometry": { "type": "Point", "coordinates": [ 156.929732779819915, -6.845465275642431 ] } },
{ "type": "Feature", "properties": { "uid": "rqz951bfqh", "rate_time": -0.12, "sig_time": 0.334, "se_time": 0.12, "sce": 9.19, "nsm": -0.63, "valid_obs": 15, "valid_span": 25, "significant": false }, "geometry": { "type": "Point", "coordinates": [ 156.930002944490241, -6.845446244501113 ] } },
{ "type": "Feature", "properties": { "uid": "rqz951c4sm", "rate_time": -0.177, "sig_time": 0.16, "se_time": 0.119, "sce": 8.26, "nsm": -0.87, "valid_obs": 15, "valid_span": 25, "significant": false }, "geometry": { "type": "Point", "coordinates": [ 156.930269223822506, -6.845396160467574 ] } },
{ "type": "Feature", "properties": { "uid": "rqz9513r2x", "rate_time": 0.605, "sig_time": 0.099, "se_time": 0.342, "sce": 42.08, "nsm": 9.2, "valid_obs": 16, "valid_span": 25, "significant": false }, "geometry": { "type": "Point", "coordinates": [ 156.930455879761723, -6.847317904833159 ] } },
{ "type": "Feature", "properties": { "uid": "rqz95192u0", "rate_time": 0.403, "sig_time": 0.09, "se_time": 0.221, "sce": 23.14, "nsm": 8.85, "valid_obs": 16, "valid_span": 25, "significant": false }, "geometry": { "type": "Point", "coordinates": [ 156.930606194764977, -6.847099591741453 ] } },
{ "type": "Feature", "properties": { "uid": "rqz95199bn", "rate_time": 0.435, "sig_time": 0.094, "se_time": 0.242, "sce": 25.8, "nsm": 9.66, "valid_obs": 16, "valid_span": 25, "significant": false }, "geometry": { "type": "Point", "coordinates": [ 156.930776232445027, -6.84689239075897 ] } },
{ "type": "Feature", "properties": { "uid": "rqz9519e6n", "rate_time": 0.287, "sig_time": 0.211, "se_time": 0.219, "sce": 24.24, "nsm": 8.01, "valid_obs": 16, "valid_span": 25, "significant": false }, "geometry": { "type": "Point", "coordinates": [ 156.930858544723577, -6.846634787455828 ] } },
{ "type": "Feature", "properties": { "uid": "rqz9519t49", "rate_time": 0.41, "sig_time": 0.125, "se_time": 0.251, "sce": 32.85, "nsm": 6.6, "valid_obs": 16, "valid_span": 25, "significant": false }, "geometry": { "type": "Point", "coordinates": [ 156.930880060681346, -6.84636465977169 ] } },
{ "type": "Feature", "properties": { "uid": "rqz9519wef", "rate_time": 0.239, "sig_time": 0.34, "se_time": 0.241, "sce": 23.08, "nsm": 8.58, "valid_obs": 15, "valid_span": 25, "significant": false }, "geometry": { "type": "Point", "coordinates": [ 156.930939453333878, -6.846100267101336 ] } },
{ "type": "Feature", "properties": { "uid": "rqz95139jj", "rate_time": 0.174, "sig_time": 0.225, "se_time": 0.137, "sce": 16.54, "nsm": 6.4, "valid_obs": 16, "valid_span": 25, "significant": false }, "geometry": { "type": "Point", "coordinates": [ 156.930986369662349, -6.848402470981559 ] } },
{ "type": "Feature", "properties": { "uid": "rqz951c8n1", "rate_time": 0.459, "sig_time": 0.069, "se_time": 0.232, "sce": 24.58, "nsm": 13.14, "valid_obs": 15, "valid_span": 25, "significant": false }, "geometry": { "type": "Point", "coordinates": [ 156.931034034829764, -6.845846110777136 ] } },
{ "type": "Feature", "properties": { "uid": "rqz9513c5q", "rate_time": 0.295, "sig_time": 0.047, "se_time": 0.135, "sce": 16.39, "nsm": 8.2, "valid_obs": 16, "valid_span": 25, "significant": true }, "geometry": { "type": "Point", "coordinates": [ 156.931257649533961, -6.848396634021116 ] } },
{ "type": "Feature", "properties": { "uid": "rqz95151qs", "rate_time": 0.0, "sig_time": 1.0, "se_time": 0.125, "sce": 11.05, "nsm": 3.34, "valid_obs": 16, "valid_span": 25, "significant": false }, "geometry": { "type": "Point", "coordinates": [ 156.93311936607023, -6.849738933332714 ] } },
{ "type": "Feature", "properties": { "uid": "rqz95153t1", "rate_time": 0.038, "sig_time": 0.762, "se_time": 0.122, "sce": 9.76, "nsm": 2.69, "valid_obs": 16, "valid_span": 25, "significant": false }, "geometry": { "type": "Point", "coordinates": [ 156.933389413455615, -6.849712373282619 ] } },
{ "type": "Feature", "properties": { "uid": "rqz95159g2", "rate_time": 0.127, "sig_time": 0.515, "se_time": 0.191, "sce": 16.02, "nsm": 3.82, "valid_obs": 16, "valid_span": 25, "significant": false }, "geometry": { "type": "Point", "coordinates": [ 156.933657725272042, -6.849671887227281 ] } },
{ "type": "Feature", "properties": { "uid": "rqz9515ccs", "rate_time": 0.132, "sig_time": 0.584, "se_time": 0.236, "sce": 21.82, "nsm": 4.77, "valid_obs": 16, "valid_span": 25, "significant": false }, "geometry": { "type": "Point", "coordinates": [ 156.933928359097848, -6.849652373650365 ] } },
{ "type": "Feature", "properties": { "uid": "rqz9515czg", "rate_time": 0.133, "sig_time": 0.644, "se_time": 0.281, "sce": 25.4, "nsm": 3.87, "valid_obs": 16, "valid_span": 25, "significant": false }, "geometry": { "type": "Point", "coordinates": [ 156.934199680433437, -6.849655051910616 ] } },
{ "type": "Feature", "properties": { "uid": "rqz951h9dy", "rate_time": 0.2, "sig_time": 0.307, "se_time": 0.189, "sce": 17.62, "nsm": 3.99, "valid_obs": 16, "valid_span": 25, "significant": false }, "geometry": { "type": "Point", "coordinates": [ 156.935009452682635, -6.849685044806388 ] } },
{ "type": "Feature", "properties": { "uid": "rqz951hf0x", "rate_time": 0.472, "sig_time": 0.048, "se_time": 0.218, "sce": 25.63, "nsm": 8.34, "valid_obs": 16, "valid_span": 25, "significant": true }, "geometry": { "type": "Point", "coordinates": [ 156.935263947352524, -6.84959171426836 ] } },
{ "type": "Feature", "properties": { "uid": "rqz951j90f", "rate_time": -0.061, "sig_time": 0.686, "se_time": 0.149, "sce": 12.6, "nsm": 4.78, "valid_obs": 15, "valid_span": 25, "significant": false }, "geometry": { "type": "Point", "coordinates": [ 156.936303423333783, -6.849789184833354 ] } },
{ "type": "Feature", "properties": { "uid": "rqz951j9rj", "rate_time": -0.078, "sig_time": 0.562, "se_time": 0.131, "sce": 10.89, "nsm": 3.7, "valid_obs": 15, "valid_span": 25, "significant": false }, "geometry": { "type": "Point", "coordinates": [ 156.936567171683265, -6.849732024330194 ] } },
{ "type": "Feature", "properties": { "uid": "rqz951jcv4", "rate_time": -0.12, "sig_time": 0.52, "se_time": 0.181, "sce": 13.49, "nsm": 4.4, "valid_obs": 15, "valid_span": 25, "significant": false }, "geometry": { "type": "Point", "coordinates": [ 156.936829193689817, -6.849661549988102 ] } },
{ "type": "Feature", "properties": { "uid": "rqz951n452", "rate_time": -0.175, "sig_time": 0.432, "se_time": 0.215, "sce": 17.63, "nsm": 2.63, "valid_obs": 15, "valid_span": 25, "significant": false }, "geometry": { "type": "Point", "coordinates": [ 156.937097394285189, -6.849628684174427 ] } },
{ "type": "Feature", "properties": { "uid": "rqz951nfh8", "rate_time": -0.106, "sig_time": 0.604, "se_time": 0.2, "sce": 18.42, "nsm": 1.74, "valid_obs": 15, "valid_span": 25, "significant": false }, "geometry": { "type": "Point", "coordinates": [ 156.938179281290275, -6.849628562604329 ] } },
{ "type": "Feature", "properties": { "uid": "rqz951p46b", "rate_time": 0.104, "sig_time": 0.507, "se_time": 0.153, "sce": 14.53, "nsm": 4.22, "valid_obs": 15, "valid_span": 25, "significant": false }, "geometry": { "type": "Point", "coordinates": [ 156.93844718354012, -6.849585463769022 ] } },
{ "type": "Feature", "properties": { "uid": "rqz952d1f3", "rate_time": 0.349, "sig_time": 0.287, "se_time": 0.314, "sce": 34.63, "nsm": 10.84, "valid_obs": 15, "valid_span": 25, "significant": false }, "geometry": { "type": "Point", "coordinates": [ 156.942543731962786, -6.852415029258681 ] } },
{ "type": "Feature", "properties": { "uid": "rqz9526zcw", "rate_time": 0.113, "sig_time": 0.567, "se_time": 0.192, "sce": 20.31, "nsm": 4.42, "valid_obs": 15, "valid_span": 25, "significant": false }, "geometry": { "type": "Point", "coordinates": [ 156.943545028221649, -6.852729383718069 ] } },
{ "type": "Feature", "properties": { "uid": "rqz8grgf83", "rate_time": -1.122, "sig_time": 0.001, "se_time": 0.247, "sce": 31.3, "nsm": -20.24, "valid_obs": 15, "valid_span": 25, "significant": true }, "geometry": { "type": "Point", "coordinates": [ 156.944859801956937, -6.856403791815909 ] } },
{ "type": "Feature", "properties": { "uid": "rqz8gru4uu", "rate_time": -2.789, "sig_time": 0.006, "se_time": 0.858, "sce": 90.25, "nsm": -33.1, "valid_obs": 15, "valid_span": 25, "significant": true }, "geometry": { "type": "Point", "coordinates": [ 156.945395565164716, -6.856347744092736 ] } },
{ "type": "Feature", "properties": { "uid": "rqz8grgmpg", "rate_time": -0.75, "sig_time": 0.252, "se_time": 0.625, "sce": 51.43, "nsm": 2.19, "valid_obs": 15, "valid_span": 25, "significant": false }, "geometry": { "type": "Point", "coordinates": [ 156.944498988266872, -6.855964511070813 ] } },
{ "type": "Feature", "properties": { "uid": "rqz8gx4ewu", "rate_time": 0.158, "sig_time": 0.269, "se_time": 0.137, "sce": 14.88, "nsm": 1.93, "valid_obs": 16, "valid_span": 25, "significant": false }, "geometry": { "type": "Point", "coordinates": [ 156.954407298943494, -6.860334435199698 ] } },
{ "type": "Feature", "properties": { "uid": "rqz8gx48x2", "rate_time": -0.037, "sig_time": 0.883, "se_time": 0.245, "sce": 21.62, "nsm": -1.58, "valid_obs": 16, "valid_span": 25, "significant": false }, "geometry": { "type": "Point", "coordinates": [ 156.954433184713594, -6.860875474819088 ] } },
{ "type": "Feature", "properties": { "uid": "rqz8gx4dp6", "rate_time": 0.086, "sig_time": 0.685, "se_time": 0.208, "sce": 18.25, "nsm": 0.23, "valid_obs": 16, "valid_span": 25, "significant": false }, "geometry": { "type": "Point", "coordinates": [ 156.954433205928069, -6.860604351976056 ] } },
{ "type": "Feature", "properties": { "uid": "rqz95b4p14", "rate_time": -0.097, "sig_time": 0.09, "se_time": 0.053, "sce": 4.22, "nsm": 0.36, "valid_obs": 15, "valid_span": 25, "significant": false }, "geometry": { "type": "Point", "coordinates": [ 156.964469568084411, -6.854254285146719 ] } },
{ "type": "Feature", "properties": { "uid": "rqz95b4prm", "rate_time": -0.013, "sig_time": 0.829, "se_time": 0.058, "sce": 4.93, "nsm": 4.08, "valid_obs": 15, "valid_span": 25, "significant": false }, "geometry": { "type": "Point", "coordinates": [ 156.964733857171183, -6.854193447211833 ] } },
{ "type": "Feature", "properties": { "uid": "rqz95b4rv7", "rate_time": 0.144, "sig_time": 0.04, "se_time": 0.063, "sce": 8.7, "nsm": 8.7, "valid_obs": 15, "valid_span": 25, "significant": true }, "geometry": { "type": "Point", "coordinates": [ 156.964994057845445, -6.854118825092637 ] } },
{ "type": "Feature", "properties": { "uid": "rqz95b687k", "rate_time": -0.02, "sig_time": 0.939, "se_time": 0.253, "sce": 27.66, "nsm": 6.73, "valid_obs": 16, "valid_span": 25, "significant": false }, "geometry": { "type": "Point", "coordinates": [ 156.965250010562215, -6.854028738350387 ] } },
{ "type": "Feature", "properties": { "uid": "rqz95b6bcr", "rate_time": -0.057, "sig_time": 0.301, "se_time": 0.053, "sce": 4.21, "nsm": 1.55, "valid_obs": 16, "valid_span": 25, "significant": false }, "geometry": { "type": "Point", "coordinates": [ 156.965500426327083, -6.853925465564515 ] } },
{ "type": "Feature", "properties": { "uid": "rqz95b6cy8", "rate_time": -0.182, "sig_time": 0.008, "se_time": 0.059, "sce": 7.04, "nsm": -1.01, "valid_obs": 16, "valid_span": 25, "significant": true }, "geometry": { "type": "Point", "coordinates": [ 156.965735687075153, -6.853791796530546 ] } },
{ "type": "Feature", "properties": { "uid": "rqz95b74ey", "rate_time": -0.233, "sig_time": 0.001, "se_time": 0.054, "sce": 7.23, "nsm": -1.85, "valid_obs": 16, "valid_span": 25, "significant": true }, "geometry": { "type": "Point", "coordinates": [ 156.965952604829852, -6.853629918981732 ] } },
{ "type": "Feature", "properties": { "uid": "rqz95b7hp1", "rate_time": -0.057, "sig_time": 0.251, "se_time": 0.048, "sce": 3.96, "nsm": 1.33, "valid_obs": 16, "valid_span": 25, "significant": false }, "geometry": { "type": "Point", "coordinates": [ 156.966096117139955, -6.853400745471892 ] } },
{ "type": "Feature", "properties": { "uid": "rqz95b7m6e", "rate_time": -0.067, "sig_time": 0.339, "se_time": 0.068, "sce": 5.61, "nsm": 3.93, "valid_obs": 16, "valid_span": 25, "significant": false }, "geometry": { "type": "Point", "coordinates": [ 156.966242853172105, -6.853172916936932 ] } },
{ "type": "Feature", "properties": { "uid": "rqz95b7qwd", "rate_time": -0.001, "sig_time": 0.981, "se_time": 0.049, "sce": 4.01, "nsm": 3.81, "valid_obs": 16, "valid_span": 25, "significant": false }, "geometry": { "type": "Point", "coordinates": [ 156.966418769515371, -6.852967554821956 ] } },
{ "type": "Feature", "properties": { "uid": "rqz95b7xe8", "rate_time": 0.032, "sig_time": 0.551, "se_time": 0.053, "sce": 4.47, "nsm": 3.12, "valid_obs": 16, "valid_span": 25, "significant": false }, "geometry": { "type": "Point", "coordinates": [ 156.966633492856772, -6.852803145753462 ] } },
{ "type": "Feature", "properties": { "uid": "rqz95beb13", "rate_time": 0.095, "sig_time": 0.096, "se_time": 0.053, "sce": 6.5, "nsm": 2.84, "valid_obs": 16, "valid_span": 25, "significant": false }, "geometry": { "type": "Point", "coordinates": [ 156.966884003390817, -6.852712578782007 ] } },
{ "type": "Feature", "properties": { "uid": "rqz95b1y7w", "rate_time": 0.586, "sig_time": 0.082, "se_time": 0.311, "sce": 26.07, "nsm": -0.41, "valid_obs": 15, "valid_span": 25, "significant": false }, "geometry": { "type": "Point", "coordinates": [ 156.964224289652634, -6.854359429181182 ] } },
{ "type": "Feature", "properties": { "uid": "rqz8gzhhxr", "rate_time": 0.072, "sig_time": 0.528, "se_time": 0.111, "sce": 9.5, "nsm": 5.04, "valid_obs": 15, "valid_span": 25, "significant": false }, "geometry": { "type": "Point", "coordinates": [ 156.967479415780588, -6.86014986765864 ] } },
{ "type": "Feature", "properties": { "uid": "rqz8gzhmm2", "rate_time": 0.021, "sig_time": 0.844, "se_time": 0.103, "sce": 7.85, "nsm": 4.18, "valid_obs": 15, "valid_span": 25, "significant": false }, "geometry": { "type": "Point", "coordinates": [ 156.96773349992597, -6.860055350990343 ] } },
{ "type": "Feature", "properties": { "uid": "rqz8gzvjvy", "rate_time": 0.568, "sig_time": 0.005, "se_time": 0.17, "sce": 22.56, "nsm": 7.6, "valid_obs": 15, "valid_span": 25, "significant": true }, "geometry": { "type": "Point", "coordinates": [ 156.968791066274918, -6.855820732496043 ] } },
{ "type": "Feature", "properties": { "uid": "rqz8gzvr1v", "rate_time": 0.561, "sig_time": 0.0, "se_time": 0.043, "sce": 12.02, "nsm": 11.34, "valid_obs": 15, "valid_span": 25, "significant": true }, "geometry": { "type": "Point", "coordinates": [ 156.968958179401255, -6.855612216803689 ] } },
{ "type": "Feature", "properties": { "uid": "rqz95bj2nr", "rate_time": 0.562, "sig_time": 0.0, "se_time": 0.057, "sce": 11.56, "nsm": 10.74, "valid_obs": 15, "valid_span": 25, "significant": true }, "geometry": { "type": "Point", "coordinates": [ 156.969158294538147, -6.855429502731689 ] } },
{ "type": "Feature", "properties": { "uid": "rqz95bj96p", "rate_time": 0.437, "sig_time": 0.0, "se_time": 0.074, "sce": 10.88, "nsm": 7.58, "valid_obs": 15, "valid_span": 25, "significant": true }, "geometry": { "type": "Point", "coordinates": [ 156.969312829436547, -6.855211724244842 ] } },
{ "type": "Feature", "properties": { "uid": "rqz8gyy07f", "rate_time": 0.209, "sig_time": 0.033, "se_time": 0.087, "sce": 8.99, "nsm": 4.31, "valid_obs": 15, "valid_span": 25, "significant": true }, "geometry": { "type": "Point", "coordinates": [ 156.970073426093819, -6.86227733644349 ] } },
{ "type": "Feature", "properties": { "uid": "rqz8gyy1gv", "rate_time": 0.131, "sig_time": 0.122, "se_time": 0.079, "sce": 7.44, "nsm": 2.09, "valid_obs": 15, "valid_span": 25, "significant": false }, "geometry": { "type": "Point", "coordinates": [ 156.970075301940312, -6.862006178777024 ] } },
{ "type": "Feature", "properties": { "uid": "rqz8gyy5kx", "rate_time": -0.411, "sig_time": 0.113, "se_time": 0.244, "sce": 23.54, "nsm": -0.64, "valid_obs": 16, "valid_span": 25, "significant": false }, "geometry": { "type": "Point", "coordinates": [ 156.970106465917581, -6.861736803612618 ] } },
{ "type": "Feature", "properties": { "uid": "rqz8gyyjjb", "rate_time": 0.109, "sig_time": 0.261, "se_time": 0.093, "sce": 9.47, "nsm": 0.53, "valid_obs": 15, "valid_span": 25, "significant": false }, "geometry": { "type": "Point", "coordinates": [ 156.970167145860103, -6.861472459494186 ] } },
{ "type": "Feature", "properties": { "uid": "rqz8gygtm8", "rate_time": -0.669, "sig_time": 0.133, "se_time": 0.417, "sce": 42.67, "nsm": -6.15, "valid_obs": 15, "valid_span": 25, "significant": false }, "geometry": { "type": "Point", "coordinates": [ 156.966718418513011, -6.861433580213405 ] } },
{ "type": "Feature", "properties": { "uid": "rqz8gyyq4p", "rate_time": 0.269, "sig_time": 0.019, "se_time": 0.101, "sce": 11.23, "nsm": 3.32, "valid_obs": 15, "valid_span": 25, "significant": true }, "geometry": { "type": "Point", "coordinates": [ 156.970340431376457, -6.861264091289911 ] } },
{ "type": "Feature", "properties": { "uid": "rqz8gyyrt4", "rate_time": 0.427, "sig_time": 0.007, "se_time": 0.133, "sce": 14.82, "nsm": 7.34, "valid_obs": 15, "valid_span": 25, "significant": true }, "geometry": { "type": "Point", "coordinates": [ 156.97047528136585, -6.861031759858927 ] } },
{ "type": "Feature", "properties": { "uid": "rqz8gzn3hc", "rate_time": 0.436, "sig_time": 0.011, "se_time": 0.147, "sce": 15.86, "nsm": 8.01, "valid_obs": 15, "valid_span": 25, "significant": true }, "geometry": { "type": "Point", "coordinates": [ 156.970465183319135, -6.860780254045807 ] } },
{ "type": "Feature", "properties": { "uid": "rqz8gz5cck", "rate_time": -0.025, "sig_time": 0.672, "se_time": 0.058, "sce": 5.52, "nsm": -1.53, "valid_obs": 15, "valid_span": 25, "significant": false }, "geometry": { "type": "Point", "coordinates": [ 156.966874299997812, -6.860637157637997 ] } },
{ "type": "Feature", "properties": { "uid": "rqz8gz5gk1", "rate_time": -0.175, "sig_time": 0.347, "se_time": 0.179, "sce": 17.34, "nsm": -1.1, "valid_obs": 15, "valid_span": 25, "significant": false }, "geometry": { "type": "Point", "coordinates": [ 156.966997972444915, -6.860396163210109 ] } },
{ "type": "Feature", "properties": { "uid": "rqz8gzjgbw", "rate_time": 0.175, "sig_time": 0.11, "se_time": 0.102, "sce": 9.35, "nsm": 7.42, "valid_obs": 15, "valid_span": 25, "significant": false }, "geometry": { "type": "Point", "coordinates": [ 156.969590113281072, -6.860283531709998 ] } },
{ "type": "Feature", "properties": { "uid": "rqz8gzhh19", "rate_time": 0.017, "sig_time": 0.853, "se_time": 0.088, "sce": 8.45, "nsm": 1.35, "valid_obs": 15, "valid_span": 25, "significant": false }, "geometry": { "type": "Point", "coordinates": [ 156.967233714923594, -6.860264947673673 ] } },
{ "type": "Feature", "properties": { "uid": "rqz8gwkvpv", "rate_time": -0.962, "sig_time": 0.0, "se_time": 0.1, "sce": 22.71, "nsm": -22.71, "valid_obs": 15, "valid_span": 25, "significant": true }, "geometry": { "type": "Point", "coordinates": [ 156.957545213859078, -6.864191398095591 ] } },
{ "type": "Feature", "properties": { "uid": "rqz8gwmjv6", "rate_time": -0.88, "sig_time": 0.0, "se_time": 0.075, "sce": 19.48, "nsm": -19.48, "valid_obs": 15, "valid_span": 25, "significant": true }, "geometry": { "type": "Point", "coordinates": [ 156.957778901228238, -6.864080384591847 ] } },
{ "type": "Feature", "properties": { "uid": "rqz8gwmr0q", "rate_time": -0.448, "sig_time": 0.0, "se_time": 0.082, "sce": 10.3, "nsm": -9.21, "valid_obs": 15, "valid_span": 25, "significant": true }, "geometry": { "type": "Point", "coordinates": [ 156.957911495737108, -6.863844405045691 ] } },
{ "type": "Feature", "properties": { "uid": "rqz8gwt2dp", "rate_time": -0.117, "sig_time": 0.35, "se_time": 0.121, "sce": 10.3, "nsm": 0.37, "valid_obs": 15, "valid_span": 25, "significant": false }, "geometry": { "type": "Point", "coordinates": [ 156.957983213675959, -6.863582886422652 ] } },
{ "type": "Feature", "properties": { "uid": "rqz8gwt6hq", "rate_time": -0.487, "sig_time": 0.026, "se_time": 0.193, "sce": 19.61, "nsm": 0.33, "valid_obs": 15, "valid_span": 25, "significant": true }, "geometry": { "type": "Point", "coordinates": [ 156.958083985594044, -6.863331075801046 ] } },
{ "type": "Feature", "properties": { "uid": "rqz8gwt7x5", "rate_time": -0.314, "sig_time": 0.436, "se_time": 0.391, "sce": 43.78, "nsm": -0.64, "valid_obs": 16, "valid_span": 25, "significant": false }, "geometry": { "type": "Point", "coordinates": [ 156.958203472843223, -6.863087608918726 ] } },
{ "type": "Feature", "properties": { "uid": "rqz8gwwm7n", "rate_time": 0.17, "sig_time": 0.159, "se_time": 0.115, "sce": 12.72, "nsm": 2.12, "valid_obs": 16, "valid_span": 25, "significant": false }, "geometry": { "type": "Point", "coordinates": [ 156.959395836420811, -6.862771802986336 ] } },
{ "type": "Feature", "properties": { "uid": "rqz8gwqy28", "rate_time": 0.463, "sig_time": 0.011, "se_time": 0.156, "sce": 21.25, "nsm": 2.99, "valid_obs": 15, "valid_span": 25, "significant": true }, "geometry": { "type": "Point", "coordinates": [ 156.95998262271678, -6.864005060569425 ] } },
{ "type": "Feature", "properties": { "uid": "rqz8gwqzej", "rate_time": 0.335, "sig_time": 0.004, "se_time": 0.094, "sce": 10.89, "nsm": 3.69, "valid_obs": 15, "valid_span": 25, "significant": true }, "geometry": { "type": "Point", "coordinates": [ 156.960092654109928, -6.863766717470975 ] } },
{ "type": "Feature", "properties": { "uid": "rqz8gwwbz7", "rate_time": 0.359, "sig_time": 0.004, "se_time": 0.103, "sce": 10.51, "nsm": 5.38, "valid_obs": 15, "valid_span": 25, "significant": true }, "geometry": { "type": "Point", "coordinates": [ 156.96026656537984, -6.863558746990805 ] } },
{ "type": "Feature", "properties": { "uid": "rqz8gwx4ey", "rate_time": 0.672, "sig_time": 0.063, "se_time": 0.332, "sce": 39.03, "nsm": 11.12, "valid_obs": 16, "valid_span": 25, "significant": false }, "geometry": { "type": "Point", "coordinates": [ 156.960464940514271, -6.863243737993985 ] } },
{ "type": "Feature", "properties": { "uid": "rqz8gwxhhx", "rate_time": 0.621, "sig_time": 0.001, "se_time": 0.151, "sce": 16.47, "nsm": 12.95, "valid_obs": 16, "valid_span": 25, "significant": true }, "geometry": { "type": "Point", "coordinates": [ 156.960496034049868, -6.862982905014324 ] } },
{ "type": "Feature", "properties": { "uid": "rqz8tf4jfx", "rate_time": 1.002, "sig_time": 0.035, "se_time": 0.435, "sce": 48.06, "nsm": 10.67, "valid_obs": 18, "valid_span": 25, "significant": true }, "geometry": { "type": "Point", "coordinates": [ 157.052421869593672, -6.931345977475809 ] } },
{ "type": "Feature", "properties": { "uid": "rqz8tf457s", "rate_time": -0.005, "sig_time": 0.988, "se_time": 0.286, "sce": 24.67, "nsm": 1.93, "valid_obs": 18, "valid_span": 25, "significant": false }, "geometry": { "type": "Point", "coordinates": [ 157.052464218879464, -6.93179282813901 ] } },
{ "type": "Feature", "properties": { "uid": "rqz8tf4pnw", "rate_time": 0.862, "sig_time": 0.038, "se_time": 0.379, "sce": 50.29, "nsm": 8.8, "valid_obs": 17, "valid_span": 25, "significant": true }, "geometry": { "type": "Point", "coordinates": [ 157.05258829852113, -6.931134668726751 ] } },
{ "type": "Feature", "properties": { "uid": "rqz8tf4k2q", "rate_time": -0.15, "sig_time": 0.521, "se_time": 0.229, "sce": 20.92, "nsm": -0.06, "valid_obs": 18, "valid_span": 25, "significant": false }, "geometry": { "type": "Point", "coordinates": [ 157.052663248961835, -6.93160843941302 ] } },
{ "type": "Feature", "properties": { "uid": "rqz8tf6271", "rate_time": 0.239, "sig_time": 0.162, "se_time": 0.162, "sce": 12.91, "nsm": 6.18, "valid_obs": 16, "valid_span": 25, "significant": false }, "geometry": { "type": "Point", "coordinates": [ 157.052785965690902, -6.930950421776306 ] } },
{ "type": "Feature", "properties": { "uid": "rqz8tf4mmn", "rate_time": -0.342, "sig_time": 0.357, "se_time": 0.361, "sce": 42.54, "nsm": -0.75, "valid_obs": 18, "valid_span": 25, "significant": false }, "geometry": { "type": "Point", "coordinates": [ 157.052874056083084, -6.931438238880001 ] } },
{ "type": "Feature", "properties": { "uid": "rqz8tf690s", "rate_time": -0.339, "sig_time": 0.089, "se_time": 0.185, "sce": 16.93, "nsm": -4.69, "valid_obs": 16, "valid_span": 25, "significant": false }, "geometry": { "type": "Point", "coordinates": [ 157.053015290817342, -6.930805345926901 ] } },
{ "type": "Feature", "properties": { "uid": "rqz8tf4w4u", "rate_time": 0.314, "sig_time": 0.305, "se_time": 0.296, "sce": 35.84, "nsm": -0.5, "valid_obs": 17, "valid_span": 25, "significant": false }, "geometry": { "type": "Point", "coordinates": [ 157.053112567637157, -6.931319377763098 ] } },
{ "type": "Feature", "properties": { "uid": "rqz8tf6dj7", "rate_time": -0.105, "sig_time": 0.844, "se_time": 0.524, "sce": 55.28, "nsm": -18.54, "valid_obs": 16, "valid_span": 25, "significant": false }, "geometry": { "type": "Point", "coordinates": [ 157.053227423783795, -6.930639372690096 ] } },
{ "type": "Feature", "properties": { "uid": "rqz8tfhtcv", "rate_time": -1.091, "sig_time": 0.0, "se_time": 0.186, "sce": 31.43, "nsm": -31.43, "valid_obs": 15, "valid_span": 25, "significant": true }, "geometry": { "type": "Point", "coordinates": [ 157.055815873457618, -6.931355248463608 ] } },
{ "type": "Feature", "properties": { "uid": "rqz8tfhwrc", "rate_time": -1.202, "sig_time": 0.001, "se_time": 0.27, "sce": 40.23, "nsm": -27.92, "valid_obs": 15, "valid_span": 25, "significant": true }, "geometry": { "type": "Point", "coordinates": [ 157.056077999588922, -6.931293819578578 ] } },
{ "type": "Feature", "properties": { "uid": "rqz8tfhzj2", "rate_time": -1.109, "sig_time": 0.05, "se_time": 0.513, "sce": 62.31, "nsm": -22.04, "valid_obs": 15, "valid_span": 25, "significant": false }, "geometry": { "type": "Point", "coordinates": [ 157.05631750180325, -6.931167237658956 ] } },
{ "type": "Feature", "properties": { "uid": "rqz8tfjpff", "rate_time": -1.476, "sig_time": 0.131, "se_time": 0.925, "sce": 80.46, "nsm": -34.03, "valid_obs": 17, "valid_span": 25, "significant": false }, "geometry": { "type": "Point", "coordinates": [ 157.056551735585202, -6.931030260055965 ] } },
{ "type": "Feature", "properties": { "uid": "rqz8tfm3nk", "rate_time": -2.219, "sig_time": 0.214, "se_time": 1.715, "sce": 209.48, "nsm": -71.35, "valid_obs": 18, "valid_span": 25, "significant": false }, "geometry": { "type": "Point", "coordinates": [ 157.05703925513231, -6.930803981415287 ] } },
{ "type": "Feature", "properties": { "uid": "rqz8tfm9sk", "rate_time": -2.23, "sig_time": 0.159, "se_time": 1.509, "sce": 179.63, "nsm": -91.55, "valid_obs": 18, "valid_span": 25, "significant": false }, "geometry": { "type": "Point", "coordinates": [ 157.057297426967466, -6.930720596891102 ] } },
{ "type": "Feature", "properties": { "uid": "rqz8tfqu08", "rate_time": -0.632, "sig_time": 0.389, "se_time": 0.714, "sce": 70.02, "nsm": -16.15, "valid_obs": 18, "valid_span": 25, "significant": false }, "geometry": { "type": "Point", "coordinates": [ 157.058861879848848, -6.930310351989186 ] } },
{ "type": "Feature", "properties": { "uid": "rqz8tfqgzp", "rate_time": -0.352, "sig_time": 0.656, "se_time": 0.776, "sce": 78.75, "nsm": -15.07, "valid_obs": 18, "valid_span": 25, "significant": false }, "geometry": { "type": "Point", "coordinates": [ 157.059132477561349, -6.930314517503603 ] } },
{ "type": "Feature", "properties": { "uid": "rqz8tfr5t1", "rate_time": -0.238, "sig_time": 0.766, "se_time": 0.788, "sce": 77.25, "nsm": -20.8, "valid_obs": 18, "valid_span": 25, "significant": false }, "geometry": { "type": "Point", "coordinates": [ 157.059389058618365, -6.930389516427557 ] } },
{ "type": "Feature", "properties": { "uid": "rqz8tsj169", "rate_time": 0.791, "sig_time": 0.008, "se_time": 0.258, "sce": 26.75, "nsm": 17.93, "valid_obs": 16, "valid_span": 25, "significant": true }, "geometry": { "type": "Point", "coordinates": [ 157.045549687972425, -6.921164014683336 ] } },
{ "type": "Feature", "properties": { "uid": "rqz8tsj4g7", "rate_time": 1.021, "sig_time": 0.06, "se_time": 0.499, "sce": 60.24, "nsm": 18.96, "valid_obs": 16, "valid_span": 25, "significant": false }, "geometry": { "type": "Point", "coordinates": [ 157.045586416696779, -6.920896300281647 ] } },
{ "type": "Feature", "properties": { "uid": "rqz8tsjhq0", "rate_time": 1.084, "sig_time": 0.001, "se_time": 0.267, "sce": 39.29, "nsm": 26.19, "valid_obs": 15, "valid_span": 25, "significant": true }, "geometry": { "type": "Point", "coordinates": [ 157.045706196226263, -6.920652918298464 ] } },
{ "type": "Feature", "properties": { "uid": "rqz8tsjm9e", "rate_time": 1.919, "sig_time": 0.0, "se_time": 0.416, "sce": 83.12, "nsm": 40.4, "valid_obs": 16, "valid_span": 25, "significant": true }, "geometry": { "type": "Point", "coordinates": [ 157.045852043306382, -6.920424276915321 ] } },
{ "type": "Feature", "properties": { "uid": "rqz8tse5h9", "rate_time": -0.441, "sig_time": 0.002, "se_time": 0.115, "sce": 14.72, "nsm": -7.26, "valid_obs": 15, "valid_span": 25, "significant": true }, "geometry": { "type": "Point", "coordinates": [ 157.042889491267289, -6.918118155948583 ] } },
{ "type": "Feature", "properties": { "uid": "rqz8tse74b", "rate_time": -0.474, "sig_time": 0.002, "se_time": 0.118, "sce": 15.8, "nsm": -7.92, "valid_obs": 15, "valid_span": 25, "significant": true }, "geometry": { "type": "Point", "coordinates": [ 157.043159199764091, -6.918120803594617 ] } },
{ "type": "Feature", "properties": { "uid": "rqz8tsee1n", "rate_time": -0.25, "sig_time": 0.099, "se_time": 0.141, "sce": 12.28, "nsm": -3.33, "valid_obs": 15, "valid_span": 25, "significant": false }, "geometry": { "type": "Point", "coordinates": [ 157.043428732004202, -6.918089531185417 ] } },
{ "type": "Feature", "properties": { "uid": "rqz8tseerk", "rate_time": 0.125, "sig_time": 0.567, "se_time": 0.213, "sce": 18.57, "nsm": 4.42, "valid_obs": 15, "valid_span": 25, "significant": false }, "geometry": { "type": "Point", "coordinates": [ 157.043698413645018, -6.918059667918284 ] } },
{ "type": "Feature", "properties": { "uid": "rqz8tsegt9", "rate_time": 0.713, "sig_time": 0.042, "se_time": 0.317, "sce": 36.77, "nsm": 16.81, "valid_obs": 15, "valid_span": 25, "significant": true }, "geometry": { "type": "Point", "coordinates": [ 157.043968435407663, -6.918032460031128 ] } },
{ "type": "Feature", "properties": { "uid": "rqz8tmxn3v", "rate_time": -0.441, "sig_time": 0.0, "se_time": 0.097, "sce": 13.88, "nsm": -13.88, "valid_obs": 16, "valid_span": 25, "significant": true }, "geometry": { "type": "Point", "coordinates": [ 157.037277757287626, -6.912046047139626 ] } },
{ "type": "Feature", "properties": { "uid": "rqz8tmx532", "rate_time": 0.018, "sig_time": 0.842, "se_time": 0.089, "sce": 6.98, "nsm": -4.59, "valid_obs": 16, "valid_span": 25, "significant": false }, "geometry": { "type": "Point", "coordinates": [ 157.037258952082368, -6.912584118769852 ] } },
{ "type": "Feature", "properties": { "uid": "rqz8tmxhc5", "rate_time": -0.204, "sig_time": 0.087, "se_time": 0.111, "sce": 10.13, "nsm": -9.87, "valid_obs": 16, "valid_span": 25, "significant": false }, "geometry": { "type": "Point", "coordinates": [ 157.037244810753606, -6.912314158869068 ] } },
{ "type": "Feature", "properties": { "uid": "rqz8tqkc1n", "rate_time": 0.533, "sig_time": 0.0, "se_time": 0.101, "sce": 16.91, "nsm": 16.91, "valid_obs": 16, "valid_span": 25, "significant": true }, "geometry": { "type": "Point", "coordinates": [ 157.034162791162686, -6.90881919521492 ] } },
{ "type": "Feature", "properties": { "uid": "rqz8tqj4qh", "rate_time": 1.137, "sig_time": 0.0, "se_time": 0.206, "sce": 29.25, "nsm": 19.1, "valid_obs": 16, "valid_span": 25, "significant": true }, "geometry": { "type": "Point", "coordinates": [ 157.0347203426806, -6.909991944974054 ] } },
{ "type": "Feature", "properties": { "uid": "rqz8tqj5zn", "rate_time": 0.892, "sig_time": 0.0, "se_time": 0.152, "sce": 21.61, "nsm": 14.38, "valid_obs": 16, "valid_span": 25, "significant": true }, "geometry": { "type": "Point", "coordinates": [ 157.034760388984182, -6.909723889261318 ] } },
{ "type": "Feature", "properties": { "uid": "rqz8tqjm2w", "rate_time": 0.498, "sig_time": 0.0, "se_time": 0.057, "sce": 11.44, "nsm": 9.63, "valid_obs": 16, "valid_span": 25, "significant": true }, "geometry": { "type": "Point", "coordinates": [ 157.034828625436717, -6.909461763465995 ] } },
{ "type": "Feature", "properties": { "uid": "rqz8tmyd2v", "rate_time": 0.036, "sig_time": 0.674, "se_time": 0.084, "sce": 6.63, "nsm": 3.06, "valid_obs": 15, "valid_span": 25, "significant": false }, "geometry": { "type": "Point", "coordinates": [ 157.036548249724945, -6.911359440998038 ] } },
{ "type": "Feature", "properties": { "uid": "rqz8tmydyc", "rate_time": -0.043, "sig_time": 0.565, "se_time": 0.073, "sce": 5.72, "nsm": 0.86, "valid_obs": 15, "valid_span": 25, "significant": false }, "geometry": { "type": "Point", "coordinates": [ 157.03680650562481, -6.911290896024719 ] } },
{ "type": "Feature", "properties": { "uid": "rqz8tmyu1v", "rate_time": 0.077, "sig_time": 0.534, "se_time": 0.121, "sce": 10.34, "nsm": 2.67, "valid_obs": 15, "valid_span": 25, "significant": false }, "geometry": { "type": "Point", "coordinates": [ 157.03694107158563, -6.911060147213983 ] } },
{ "type": "Feature", "properties": { "uid": "rqz8tmyvem", "rate_time": 0.385, "sig_time": 0.05, "se_time": 0.178, "sce": 20.33, "nsm": 5.52, "valid_obs": 15, "valid_span": 25, "significant": false }, "geometry": { "type": "Point", "coordinates": [ 157.037002043283053, -6.910797753561755 ] } },
{ "type": "Feature", "properties": { "uid": "rqz8tmxpgu", "rate_time": -0.445, "sig_time": 0.0, "se_time": 0.086, "sce": 13.23, "nsm": -13.19, "valid_obs": 16, "valid_span": 25, "significant": true }, "geometry": { "type": "Point", "coordinates": [ 157.037364277130024, -6.911791146990281 ] } },
{ "type": "Feature", "properties": { "uid": "rqz8tmz1ps", "rate_time": -0.389, "sig_time": 0.063, "se_time": 0.193, "sce": 21.66, "nsm": -7.5, "valid_obs": 16, "valid_span": 25, "significant": false }, "geometry": { "type": "Point", "coordinates": [ 157.03752559406675, -6.911576920099093 ] } },
{ "type": "Feature", "properties": { "uid": "rqz8tmz6h9", "rate_time": -0.005, "sig_time": 0.967, "se_time": 0.113, "sce": 8.41, "nsm": -4.86, "valid_obs": 15, "valid_span": 25, "significant": false }, "geometry": { "type": "Point", "coordinates": [ 157.037746664222055, -6.911423266855046 ] } },
{ "type": "Feature", "properties": { "uid": "rqz8tmzf8f", "rate_time": 0.722, "sig_time": 0.01, "se_time": 0.244, "sce": 35.86, "nsm": 3.9, "valid_obs": 16, "valid_span": 25, "significant": true }, "geometry": { "type": "Point", "coordinates": [ 157.038273704686958, -6.911333628297178 ] } },
{ "type": "Feature", "properties": { "uid": "rqz8tmzgnb", "rate_time": 0.386, "sig_time": 0.006, "se_time": 0.119, "sce": 16.78, "nsm": 4.47, "valid_obs": 16, "valid_span": 25, "significant": true }, "geometry": { "type": "Point", "coordinates": [ 157.038525890475512, -6.911255332119449 ] } },
{ "type": "Feature", "properties": { "uid": "rqz8ttb5gx", "rate_time": 0.737, "sig_time": 0.051, "se_time": 0.346, "sce": 42.14, "nsm": 6.92, "valid_obs": 16, "valid_span": 25, "significant": false }, "geometry": { "type": "Point", "coordinates": [ 157.038730252904202, -6.911087849902317 ] } },
{ "type": "Feature", "properties": { "uid": "rqz8tq9c61", "rate_time": 0.068, "sig_time": 0.658, "se_time": 0.152, "sce": 13.1, "nsm": 12.9, "valid_obs": 17, "valid_span": 25, "significant": false }, "geometry": { "type": "Point", "coordinates": [ 157.030087548506913, -6.907431104546703 ] } },
{ "type": "Feature", "properties": { "uid": "rqz8tpk0m7", "rate_time": 0.139, "sig_time": 0.064, "se_time": 0.069, "sce": 6.62, "nsm": 2.67, "valid_obs": 15, "valid_span": 25, "significant": false }, "geometry": { "type": "Point", "coordinates": [ 157.02232534234102, -6.903472427406852 ] } },
{ "type": "Feature", "properties": { "uid": "rqz8tpk2g5", "rate_time": 0.0, "sig_time": 0.998, "se_time": 0.052, "sce": 4.27, "nsm": 0.8, "valid_obs": 15, "valid_span": 25, "significant": false }, "geometry": { "type": "Point", "coordinates": [ 157.02257407886168, -6.903385154131222 ] } },
{ "type": "Feature", "properties": { "uid": "rqz8tpk98t", "rate_time": 0.171, "sig_time": 0.334, "se_time": 0.17, "sce": 15.94, "nsm": 1.89, "valid_obs": 15, "valid_span": 25, "significant": false }, "geometry": { "type": "Point", "coordinates": [ 157.022806061711407, -6.903244414916855 ] } },
{ "type": "Feature", "properties": { "uid": "rqz8ubw5t3", "rate_time": 0.149, "sig_time": 0.543, "se_time": 0.238, "sce": 26.85, "nsm": 9.8, "valid_obs": 15, "valid_span": 25, "significant": false }, "geometry": { "type": "Point", "coordinates": [ 157.01408059132595, -6.896060185134236 ] } },
{ "type": "Feature", "properties": { "uid": "rqz8ubwk6t", "rate_time": 0.475, "sig_time": 0.011, "se_time": 0.159, "sce": 20.69, "nsm": 13.96, "valid_obs": 15, "valid_span": 25, "significant": true }, "geometry": { "type": "Point", "coordinates": [ 157.014306238226283, -6.895909493204214 ] } },
{ "type": "Feature", "properties": { "uid": "rqz8ubwsbq", "rate_time": 0.514, "sig_time": 0.023, "se_time": 0.2, "sce": 24.85, "nsm": 16.05, "valid_obs": 15, "valid_span": 25, "significant": true }, "geometry": { "type": "Point", "coordinates": [ 157.014559981960616, -6.895816446673075 ] } },
{ "type": "Feature", "properties": { "uid": "rqz8ubtw9d", "rate_time": 0.397, "sig_time": 0.053, "se_time": 0.187, "sce": 22.46, "nsm": 7.89, "valid_obs": 15, "valid_span": 25, "significant": false }, "geometry": { "type": "Point", "coordinates": [ 157.013239683742427, -6.895540725874324 ] } },
{ "type": "Feature", "properties": { "uid": "rqz8ubv80g", "rate_time": 0.19, "sig_time": 0.287, "se_time": 0.171, "sce": 18.86, "nsm": 4.13, "valid_obs": 15, "valid_span": 25, "significant": false }, "geometry": { "type": "Point", "coordinates": [ 157.013210368627568, -6.895273221816367 ] } },
{ "type": "Feature", "properties": { "uid": "rqz8ubv9s0", "rate_time": 0.175, "sig_time": 0.28, "se_time": 0.155, "sce": 16.55, "nsm": 4.94, "valid_obs": 15, "valid_span": 25, "significant": false }, "geometry": { "type": "Point", "coordinates": [ 157.013341631308748, -6.895035889428846 ] } },
{ "type": "Feature", "properties": { "uid": "rqz8ubvejb", "rate_time": -0.105, "sig_time": 0.596, "se_time": 0.194, "sce": 16.93, "nsm": 4.72, "valid_obs": 15, "valid_span": 25, "significant": false }, "geometry": { "type": "Point", "coordinates": [ 157.01342245652063, -6.894777667463555 ] } },
{ "type": "Feature", "properties": { "uid": "rqz8u87wcg", "rate_time": -0.221, "sig_time": 0.544, "se_time": 0.355, "sce": 39.72, "nsm": 10.64, "valid_obs": 15, "valid_span": 25, "significant": false }, "geometry": { "type": "Point", "coordinates": [ 156.999511066697551, -6.89686154259964 ] } },
{ "type": "Feature", "properties": { "uid": "rqz8u87xxj", "rate_time": 0.137, "sig_time": 0.28, "se_time": 0.122, "sce": 12.49, "nsm": 6.8, "valid_obs": 15, "valid_span": 25, "significant": false }, "geometry": { "type": "Point", "coordinates": [ 156.999740119545748, -6.896723820017752 ] } },
{ "type": "Feature", "properties": { "uid": "rqz8u8ebg8", "rate_time": 0.043, "sig_time": 0.707, "se_time": 0.113, "sce": 10.1, "nsm": 4.96, "valid_obs": 15, "valid_span": 25, "significant": false }, "geometry": { "type": "Point", "coordinates": [ 156.999936557696088, -6.896536995942971 ] } },
{ "type": "Feature", "properties": { "uid": "rqz8u8eczv", "rate_time": 0.007, "sig_time": 0.958, "se_time": 0.131, "sce": 10.99, "nsm": 6.42, "valid_obs": 15, "valid_span": 25, "significant": false }, "geometry": { "type": "Point", "coordinates": [ 157.000118641372296, -6.896336087021679 ] } },
{ "type": "Feature", "properties": { "uid": "rqz8u8s55u", "rate_time": 0.075, "sig_time": 0.586, "se_time": 0.134, "sce": 11.89, "nsm": 9.98, "valid_obs": 15, "valid_span": 25, "significant": false }, "geometry": { "type": "Point", "coordinates": [ 157.000291586758777, -6.896127323924915 ] } },
{ "type": "Feature", "properties": { "uid": "rqz8u8shru", "rate_time": 0.106, "sig_time": 0.476, "se_time": 0.145, "sce": 14.03, "nsm": 12.57, "valid_obs": 15, "valid_span": 25, "significant": false }, "geometry": { "type": "Point", "coordinates": [ 157.000457704423951, -6.895912862830867 ] } },
{ "type": "Feature", "properties": { "uid": "rqz8u8smeg", "rate_time": 0.296, "sig_time": 0.327, "se_time": 0.291, "sce": 33.24, "nsm": 8.3, "valid_obs": 15, "valid_span": 25, "significant": false }, "geometry": { "type": "Point", "coordinates": [ 157.000632763009946, -6.895705705987359 ] } },
{ "type": "Feature", "properties": { "uid": "rqz8u8u9w2", "rate_time": -0.664, "sig_time": 0.006, "se_time": 0.203, "sce": 23.08, "nsm": -4.44, "valid_obs": 15, "valid_span": 25, "significant": true }, "geometry": { "type": "Point", "coordinates": [ 157.001081214894583, -6.895032462490586 ] } },
{ "type": "Feature", "properties": { "uid": "rqz8u8ug01", "rate_time": -0.51, "sig_time": 0.04, "se_time": 0.225, "sce": 24.79, "nsm": -4.83, "valid_obs": 16, "valid_span": 25, "significant": true }, "geometry": { "type": "Point", "coordinates": [ 157.001159673648488, -6.894773351789447 ] } },
{ "type": "Feature", "properties": { "uid": "rqz8u8uud1", "rate_time": -0.541, "sig_time": 0.001, "se_time": 0.132, "sce": 15.83, "nsm": -7.42, "valid_obs": 16, "valid_span": 25, "significant": true }, "geometry": { "type": "Point", "coordinates": [ 157.001245493779891, -6.894516337636989 ] } },
{ "type": "Feature", "properties": { "uid": "rqz8u8uyh2", "rate_time": -0.89, "sig_time": 0.014, "se_time": 0.314, "sce": 37.52, "nsm": -10.39, "valid_obs": 15, "valid_span": 25, "significant": true }, "geometry": { "type": "Point", "coordinates": [ 157.001337659740614, -6.894261334943689 ] } },
{ "type": "Feature", "properties": { "uid": "rqz8u9kunt", "rate_time": -0.126, "sig_time": 0.074, "se_time": 0.065, "sce": 5.63, "nsm": -2.07, "valid_obs": 15, "valid_span": 25, "significant": false }, "geometry": { "type": "Point", "coordinates": [ 157.001434951712383, -6.89183024818085 ] } },
{ "type": "Feature", "properties": { "uid": "rqz8u9kvy8", "rate_time": 0.082, "sig_time": 0.258, "se_time": 0.069, "sce": 5.67, "nsm": 1.86, "valid_obs": 15, "valid_span": 25, "significant": false }, "geometry": { "type": "Point", "coordinates": [ 157.001441509660197, -6.891559227241361 ] } },
{ "type": "Feature", "properties": { "uid": "rqz8u9kzqf", "rate_time": 0.28, "sig_time": 0.001, "se_time": 0.069, "sce": 7.75, "nsm": 7.29, "valid_obs": 15, "valid_span": 25, "significant": true }, "geometry": { "type": "Point", "coordinates": [ 157.00144693463227, -6.891288119152653 ] } },
{ "type": "Feature", "properties": { "uid": "rqz8u9sbzm", "rate_time": 0.735, "sig_time": 0.02, "se_time": 0.276, "sce": 32.37, "nsm": 12.54, "valid_obs": 15, "valid_span": 25, "significant": true }, "geometry": { "type": "Point", "coordinates": [ 157.001467387766724, -6.89101782950593 ] } },
{ "type": "Feature", "properties": { "uid": "rqz8u51073", "rate_time": 0.256, "sig_time": 0.004, "se_time": 0.075, "sce": 7.74, "nsm": 6.26, "valid_obs": 15, "valid_span": 25, "significant": true }, "geometry": { "type": "Point", "coordinates": [ 156.974176876882012, -6.882882354802033 ] } }
]
}
