{
"type": "FeatureCollection",
"name": "transects_kayangel",
"crs": { "type": "name", "properties": { "name": "urn:ogc:def:crs:OGC:1.3:CRS84" } },
"features": [
{ "type": "Feature", "properties": { "uid": "wcrv9p8c9g", "rate_time": 0.0, "sig_time": 1.0, "se_time": 0.556, "sce": 69.67, "nsm": 12.14, "valid_obs": 21, "valid_span": 25, "significant": false }, "geometry": { "type": "Point", "coordinates": [ 134.69349288404419, 8.039520724859981 ] } },
{ "type": "Feature", "properties": { "uid": "wcrv9p8u7c", "rate_time": -0.115, "sig_time": 0.667, "se_time": 0.262, "sce": 35.46, "nsm": 11.73, "valid_obs": 20, "valid_span": 25, "significant": false }, "geometry": { "type": "Point", "coordinates": [ 134.693581398892491, 8.03998362498081 ] } },
{ "type": "Feature", "properties": { "uid": "wcrv9p8cpe", "rate_time": -0.316, "sig_time": 0.566, "se_time": 0.541, "sce": 66.38, "nsm": -1.01, "valid_obs": 21, "valid_span": 25, "significant": false }, "geometry": { "type": "Point", "coordinates": [ 134.693741904361502, 8.039436625463209 ] } },
{ "type": "Feature", "properties": { "uid": "wcrv9p9j2d", "rate_time": -0.252, "sig_time": 0.282, "se_time": 0.228, "sce": 27.53, "nsm": 9.19, "valid_obs": 20, "valid_span": 25, "significant": false }, "geometry": { "type": "Point", "coordinates": [ 134.693786996477201, 8.040161485019476 ] } },
{ "type": "Feature", "properties": { "uid": "wcrv9p9nme", "rate_time": -0.21, "sig_time": 0.34, "se_time": 0.214, "sce": 27.92, "nsm": 8.72, "valid_obs": 20, "valid_span": 25, "significant": false }, "geometry": { "type": "Point", "coordinates": [ 134.693994225792522, 8.040337425141296 ] } },
{ "type": "Feature", "properties": { "uid": "wcrv9p91mb", "rate_time": -0.558, "sig_time": 0.297, "se_time": 0.52, "sce": 74.76, "nsm": -7.94, "valid_obs": 21, "valid_span": 25, "significant": false }, "geometry": { "type": "Point", "coordinates": [ 134.694009318051258, 8.039464200971407 ] } },
{ "type": "Feature", "properties": { "uid": "wcrv9p9r6n", "rate_time": 0.252, "sig_time": 0.189, "se_time": 0.185, "sce": 23.23, "nsm": 17.09, "valid_obs": 20, "valid_span": 25, "significant": false }, "geometry": { "type": "Point", "coordinates": [ 134.694191676063468, 8.040523977597267 ] } },
{ "type": "Feature", "properties": { "uid": "wcrv9p93gf", "rate_time": -0.559, "sig_time": 0.186, "se_time": 0.406, "sce": 44.33, "nsm": -12.02, "valid_obs": 20, "valid_span": 25, "significant": false }, "geometry": { "type": "Point", "coordinates": [ 134.694263943985305, 8.039557062414518 ] } },
{ "type": "Feature", "properties": { "uid": "wcrv9p9db8", "rate_time": -0.678, "sig_time": 0.072, "se_time": 0.354, "sce": 44.28, "nsm": -18.13, "valid_obs": 20, "valid_span": 25, "significant": false }, "geometry": { "type": "Point", "coordinates": [ 134.694465018019372, 8.039717860699605 ] } },
{ "type": "Feature", "properties": { "uid": "wcrv9p9eur", "rate_time": -0.638, "sig_time": 0.066, "se_time": 0.325, "sce": 49.46, "nsm": -19.78, "valid_obs": 20, "valid_span": 25, "significant": false }, "geometry": { "type": "Point", "coordinates": [ 134.694634576216856, 8.039929001116429 ] } },
{ "type": "Feature", "properties": { "uid": "wcrv9p9y12", "rate_time": -0.786, "sig_time": 0.097, "se_time": 0.449, "sce": 64.22, "nsm": -18.85, "valid_obs": 20, "valid_span": 25, "significant": false }, "geometry": { "type": "Point", "coordinates": [ 134.694844945625277, 8.040280813244129 ] } },
{ "type": "Feature", "properties": { "uid": "wcrv9p9zk7", "rate_time": -0.448, "sig_time": 0.439, "se_time": 0.566, "sce": 73.72, "nsm": 11.6, "valid_obs": 20, "valid_span": 25, "significant": false }, "geometry": { "type": "Point", "coordinates": [ 134.694976072415528, 8.040511253676058 ] } },
{ "type": "Feature", "properties": { "uid": "wcrvc05cq0", "rate_time": -1.251, "sig_time": 0.031, "se_time": 0.537, "sce": 67.06, "nsm": -35.15, "valid_obs": 21, "valid_span": 25, "significant": true }, "geometry": { "type": "Point", "coordinates": [ 134.697792788259761, 8.04220958556458 ] } },
{ "type": "Feature", "properties": { "uid": "wcrvc05fxr", "rate_time": -0.814, "sig_time": 0.057, "se_time": 0.402, "sce": 55.0, "nsm": -6.81, "valid_obs": 21, "valid_span": 25, "significant": false }, "geometry": { "type": "Point", "coordinates": [ 134.697854459936252, 8.042459386011002 ] } },
{ "type": "Feature", "properties": { "uid": "wcrvc0h5cv", "rate_time": -0.599, "sig_time": 0.059, "se_time": 0.298, "sce": 41.29, "nsm": 2.75, "valid_obs": 21, "valid_span": 25, "significant": false }, "geometry": { "type": "Point", "coordinates": [ 134.697957558448195, 8.042664145521886 ] } },
{ "type": "Feature", "properties": { "uid": "wcrv9pcbuk", "rate_time": 0.3, "sig_time": 0.615, "se_time": 0.585, "sce": 62.94, "nsm": 24.38, "valid_obs": 20, "valid_span": 25, "significant": false }, "geometry": { "type": "Point", "coordinates": [ 134.69497485095269, 8.040770066921722 ] } },
{ "type": "Feature", "properties": { "uid": "wcrv9pc2m9", "rate_time": 0.814, "sig_time": 0.0, "se_time": 0.143, "sce": 28.08, "nsm": 26.5, "valid_obs": 20, "valid_span": 25, "significant": true }, "geometry": { "type": "Point", "coordinates": [ 134.69433752577126, 8.040670475470758 ] } },
{ "type": "Feature", "properties": { "uid": "wcrvc0hjkc", "rate_time": -0.448, "sig_time": 0.087, "se_time": 0.248, "sce": 32.83, "nsm": 9.7, "valid_obs": 21, "valid_span": 25, "significant": false }, "geometry": { "type": "Point", "coordinates": [ 134.698086342408999, 8.042903059916092 ] } },
{ "type": "Feature", "properties": { "uid": "wcrvc0hq8d", "rate_time": -0.503, "sig_time": 0.044, "se_time": 0.233, "sce": 28.29, "nsm": 10.27, "valid_obs": 21, "valid_span": 25, "significant": true }, "geometry": { "type": "Point", "coordinates": [ 134.698248183985243, 8.043120847309137 ] } },
{ "type": "Feature", "properties": { "uid": "wcrv9purdv", "rate_time": -1.281, "sig_time": 0.0, "se_time": 0.246, "sce": 45.25, "nsm": -41.92, "valid_obs": 22, "valid_span": 25, "significant": true }, "geometry": { "type": "Point", "coordinates": [ 134.698341237149748, 8.041937073541618 ] } },
{ "type": "Feature", "properties": { "uid": "wcrvc0hrtj", "rate_time": -0.713, "sig_time": 0.004, "se_time": 0.219, "sce": 34.34, "nsm": 4.72, "valid_obs": 21, "valid_span": 25, "significant": true }, "geometry": { "type": "Point", "coordinates": [ 134.698443453262939, 8.043309420201156 ] } },
{ "type": "Feature", "properties": { "uid": "wcrv9pux9p", "rate_time": -0.897, "sig_time": 0.004, "se_time": 0.273, "sce": 44.76, "nsm": -18.21, "valid_obs": 22, "valid_span": 25, "significant": true }, "geometry": { "type": "Point", "coordinates": [ 134.698613277609098, 8.04194663773538 ] } },
{ "type": "Feature", "properties": { "uid": "wcrvc0k8dj", "rate_time": -0.943, "sig_time": 0.0, "se_time": 0.153, "sce": 32.02, "nsm": -4.83, "valid_obs": 20, "valid_span": 25, "significant": true }, "geometry": { "type": "Point", "coordinates": [ 134.698655399808274, 8.043479682730492 ] } },
{ "type": "Feature", "properties": { "uid": "wcrvc0k9xj", "rate_time": -1.272, "sig_time": 0.0, "se_time": 0.165, "sce": 38.74, "nsm": -12.88, "valid_obs": 20, "valid_span": 25, "significant": true }, "geometry": { "type": "Point", "coordinates": [ 134.698866046387678, 8.043651592270733 ] } },
{ "type": "Feature", "properties": { "uid": "wcrv9puxx7", "rate_time": -0.752, "sig_time": 0.017, "se_time": 0.29, "sce": 45.36, "nsm": -13.04, "valid_obs": 22, "valid_span": 25, "significant": true }, "geometry": { "type": "Point", "coordinates": [ 134.698883667947996, 8.041925049138818 ] } },
{ "type": "Feature", "properties": { "uid": "wcrvc0kfsh", "rate_time": -1.34, "sig_time": 0.0, "se_time": 0.163, "sce": 39.36, "nsm": -18.93, "valid_obs": 20, "valid_span": 25, "significant": true }, "geometry": { "type": "Point", "coordinates": [ 134.699080007864069, 8.043819053572443 ] } },
{ "type": "Feature", "properties": { "uid": "wcrv9puzj0", "rate_time": -0.22, "sig_time": 0.497, "se_time": 0.318, "sce": 43.88, "nsm": 4.01, "valid_obs": 22, "valid_span": 25, "significant": false }, "geometry": { "type": "Point", "coordinates": [ 134.699130818453028, 8.041821803541408 ] } },
{ "type": "Feature", "properties": { "uid": "wcrv9pvn40", "rate_time": 0.02, "sig_time": 0.951, "se_time": 0.317, "sce": 45.39, "nsm": 7.48, "valid_obs": 22, "valid_span": 25, "significant": false }, "geometry": { "type": "Point", "coordinates": [ 134.699337916211022, 8.041649899289167 ] } },
{ "type": "Feature", "properties": { "uid": "wcrv9pvhvb", "rate_time": 0.346, "sig_time": 0.347, "se_time": 0.359, "sce": 48.75, "nsm": 15.95, "valid_obs": 22, "valid_span": 25, "significant": false }, "geometry": { "type": "Point", "coordinates": [ 134.69950415330635, 8.041437048307426 ] } },
{ "type": "Feature", "properties": { "uid": "wcrv9pv73h", "rate_time": 0.201, "sig_time": 0.635, "se_time": 0.417, "sce": 56.09, "nsm": 14.79, "valid_obs": 22, "valid_span": 25, "significant": false }, "geometry": { "type": "Point", "coordinates": [ 134.699640726779791, 8.041202320078867 ] } },
{ "type": "Feature", "properties": { "uid": "wcrv9pv6h3", "rate_time": -0.075, "sig_time": 0.89, "se_time": 0.538, "sce": 73.29, "nsm": 16.26, "valid_obs": 22, "valid_span": 25, "significant": false }, "geometry": { "type": "Point", "coordinates": [ 134.699783745826466, 8.040971533395421 ] } },
{ "type": "Feature", "properties": { "uid": "wcrvc0m6uu", "rate_time": -0.55, "sig_time": 0.025, "se_time": 0.225, "sce": 32.83, "nsm": -11.27, "valid_obs": 20, "valid_span": 25, "significant": true }, "geometry": { "type": "Point", "coordinates": [ 134.699802202301214, 8.043861251977154 ] } },
{ "type": "Feature", "properties": { "uid": "wcrvc0m99r", "rate_time": -0.151, "sig_time": 0.49, "se_time": 0.214, "sce": 28.15, "nsm": 0.17, "valid_obs": 20, "valid_span": 25, "significant": false }, "geometry": { "type": "Point", "coordinates": [ 134.699989754234053, 8.043664547082013 ] } },
{ "type": "Feature", "properties": { "uid": "wcrv9pv96r", "rate_time": 0.018, "sig_time": 0.969, "se_time": 0.457, "sce": 61.83, "nsm": 3.2, "valid_obs": 22, "valid_span": 25, "significant": false }, "geometry": { "type": "Point", "coordinates": [ 134.700036669713512, 8.040872852398937 ] } },
{ "type": "Feature", "properties": { "uid": "wcrvc0m8pu", "rate_time": -0.223, "sig_time": 0.274, "se_time": 0.197, "sce": 23.69, "nsm": 2.16, "valid_obs": 20, "valid_span": 25, "significant": false }, "geometry": { "type": "Point", "coordinates": [ 134.700272735837075, 8.043388627017052 ] } },
{ "type": "Feature", "properties": { "uid": "wcrv9pvc8x", "rate_time": -0.408, "sig_time": 0.189, "se_time": 0.3, "sce": 32.88, "nsm": -6.04, "valid_obs": 21, "valid_span": 25, "significant": false }, "geometry": { "type": "Point", "coordinates": [ 134.7003013890413, 8.040917647168243 ] } },
{ "type": "Feature", "properties": { "uid": "wcrvc0jyun", "rate_time": -0.636, "sig_time": 0.037, "se_time": 0.284, "sce": 44.69, "nsm": -5.11, "valid_obs": 21, "valid_span": 25, "significant": true }, "geometry": { "type": "Point", "coordinates": [ 134.700454978544883, 8.043187146355987 ] } },
{ "type": "Feature", "properties": { "uid": "wcrv9pvfqp", "rate_time": -0.318, "sig_time": 0.199, "se_time": 0.239, "sce": 26.58, "nsm": -10.2, "valid_obs": 21, "valid_span": 25, "significant": false }, "geometry": { "type": "Point", "coordinates": [ 134.700540862551804, 8.041043070561656 ] } },
{ "type": "Feature", "properties": { "uid": "wcrvc0njbv", "rate_time": -0.679, "sig_time": 0.011, "se_time": 0.242, "sce": 33.73, "nsm": -9.29, "valid_obs": 21, "valid_span": 25, "significant": true }, "geometry": { "type": "Point", "coordinates": [ 134.700657350440366, 8.043007570645189 ] } },
{ "type": "Feature", "properties": { "uid": "wcrv9py578", "rate_time": -0.309, "sig_time": 0.122, "se_time": 0.191, "sce": 23.79, "nsm": -10.54, "valid_obs": 21, "valid_span": 25, "significant": false }, "geometry": { "type": "Point", "coordinates": [ 134.700775917920964, 8.041179977080255 ] } },
{ "type": "Feature", "properties": { "uid": "wcrvc0njn4", "rate_time": -0.483, "sig_time": 0.127, "se_time": 0.303, "sce": 39.08, "nsm": -6.41, "valid_obs": 21, "valid_span": 25, "significant": false }, "geometry": { "type": "Point", "coordinates": [ 134.700888408739075, 8.042864381682369 ] } },
{ "type": "Feature", "properties": { "uid": "wcrv9pyk0w", "rate_time": -0.345, "sig_time": 0.089, "se_time": 0.193, "sce": 27.09, "nsm": -11.98, "valid_obs": 21, "valid_span": 25, "significant": false }, "geometry": { "type": "Point", "coordinates": [ 134.700993445315277, 8.041341235217216 ] } },
{ "type": "Feature", "properties": { "uid": "wcrvc0nkkn", "rate_time": -0.14, "sig_time": 0.638, "se_time": 0.292, "sce": 36.38, "nsm": 1.63, "valid_obs": 21, "valid_span": 25, "significant": false }, "geometry": { "type": "Point", "coordinates": [ 134.701138897337046, 8.042758053629521 ] } },
{ "type": "Feature", "properties": { "uid": "wcrv9pymm3", "rate_time": -0.327, "sig_time": 0.152, "se_time": 0.219, "sce": 30.71, "nsm": -12.15, "valid_obs": 21, "valid_span": 25, "significant": false }, "geometry": { "type": "Point", "coordinates": [ 134.70119292848068, 8.041525564363491 ] } },
{ "type": "Feature", "properties": { "uid": "wcrv9pyw92", "rate_time": -0.381, "sig_time": 0.133, "se_time": 0.243, "sce": 34.36, "nsm": -12.96, "valid_obs": 21, "valid_span": 25, "significant": false }, "geometry": { "type": "Point", "coordinates": [ 134.701365435315552, 8.041735503624549 ] } },
{ "type": "Feature", "properties": { "uid": "wcrvc0necu", "rate_time": 0.1, "sig_time": 0.671, "se_time": 0.231, "sce": 26.64, "nsm": 7.73, "valid_obs": 21, "valid_span": 25, "significant": false }, "geometry": { "type": "Point", "coordinates": [ 134.701393026221808, 8.042660701713402 ] } },
{ "type": "Feature", "properties": { "uid": "wcrv9pyxuf", "rate_time": -0.595, "sig_time": 0.012, "se_time": 0.214, "sce": 33.51, "nsm": -12.69, "valid_obs": 21, "valid_span": 25, "significant": true }, "geometry": { "type": "Point", "coordinates": [ 134.701515409049591, 8.041961288416998 ] } },
{ "type": "Feature", "properties": { "uid": "wcrvc0ndtz", "rate_time": -0.3, "sig_time": 0.318, "se_time": 0.292, "sce": 37.87, "nsm": 18.79, "valid_obs": 21, "valid_span": 25, "significant": false }, "geometry": { "type": "Point", "coordinates": [ 134.701564732085302, 8.042462690511908 ] } },
{ "type": "Feature", "properties": { "uid": "wcrvc0n9qc", "rate_time": -0.468, "sig_time": 0.182, "se_time": 0.338, "sce": 45.44, "nsm": 19.55, "valid_obs": 21, "valid_span": 25, "significant": false }, "geometry": { "type": "Point", "coordinates": [ 134.70160901641276, 8.042212288603412 ] } },
{ "type": "Feature", "properties": { "uid": "wcrvc3u5x2", "rate_time": -0.371, "sig_time": 0.416, "se_time": 0.447, "sce": 46.85, "nsm": -17.4, "valid_obs": 22, "valid_span": 25, "significant": false }, "geometry": { "type": "Point", "coordinates": [ 134.709183820864524, 8.052209325257271 ] } },
{ "type": "Feature", "properties": { "uid": "wcrvc3gesg", "rate_time": 0.573, "sig_time": 0.178, "se_time": 0.41, "sce": 59.05, "nsm": 10.93, "valid_obs": 22, "valid_span": 25, "significant": false }, "geometry": { "type": "Point", "coordinates": [ 134.70838421506636, 8.052227063931246 ] } },
{ "type": "Feature", "properties": { "uid": "wcrvc3u7vd", "rate_time": -0.042, "sig_time": 0.946, "se_time": 0.611, "sce": 91.46, "nsm": -15.36, "valid_obs": 22, "valid_span": 25, "significant": false }, "geometry": { "type": "Point", "coordinates": [ 134.709451050222867, 8.052261277567061 ] } },
{ "type": "Feature", "properties": { "uid": "wcrvc3us5z", "rate_time": 0.163, "sig_time": 0.763, "se_time": 0.534, "sce": 77.71, "nsm": -10.0, "valid_obs": 22, "valid_span": 25, "significant": false }, "geometry": { "type": "Point", "coordinates": [ 134.709712440904411, 8.052334209613683 ] } },
{ "type": "Feature", "properties": { "uid": "wcrvc3gkrw", "rate_time": 0.828, "sig_time": 0.092, "se_time": 0.468, "sce": 71.48, "nsm": 21.53, "valid_obs": 22, "valid_span": 25, "significant": false }, "geometry": { "type": "Point", "coordinates": [ 134.708158386184465, 8.052368194822972 ] } },
{ "type": "Feature", "properties": { "uid": "wcrvc3gqnb", "rate_time": 0.741, "sig_time": 0.056, "se_time": 0.365, "sce": 56.89, "nsm": 22.74, "valid_obs": 22, "valid_span": 25, "significant": false }, "geometry": { "type": "Point", "coordinates": [ 134.708132261588872, 8.05263519556677 ] } },
{ "type": "Feature", "properties": { "uid": "wcrvc3gx3g", "rate_time": 0.76, "sig_time": 0.02, "se_time": 0.3, "sce": 48.62, "nsm": 24.11, "valid_obs": 22, "valid_span": 25, "significant": true }, "geometry": { "type": "Point", "coordinates": [ 134.708261107797853, 8.052871178763022 ] } },
{ "type": "Feature", "properties": { "uid": "wcrvc658tr", "rate_time": 0.888, "sig_time": 0.004, "se_time": 0.275, "sce": 39.61, "nsm": 31.89, "valid_obs": 22, "valid_span": 25, "significant": true }, "geometry": { "type": "Point", "coordinates": [ 134.708401115890211, 8.053103848768918 ] } },
{ "type": "Feature", "properties": { "uid": "wcrvc65f0d", "rate_time": 0.884, "sig_time": 0.005, "se_time": 0.283, "sce": 42.04, "nsm": 34.84, "valid_obs": 22, "valid_span": 25, "significant": true }, "geometry": { "type": "Point", "coordinates": [ 134.70854302352916, 8.053335390857523 ] } },
{ "type": "Feature", "properties": { "uid": "wcrvc65g7v", "rate_time": 0.844, "sig_time": 0.005, "se_time": 0.264, "sce": 39.82, "nsm": 33.21, "valid_obs": 22, "valid_span": 25, "significant": true }, "geometry": { "type": "Point", "coordinates": [ 134.708684855128865, 8.053566932680784 ] } },
{ "type": "Feature", "properties": { "uid": "wcrvc65uz1", "rate_time": 0.742, "sig_time": 0.011, "se_time": 0.263, "sce": 40.7, "nsm": 32.24, "valid_obs": 22, "valid_span": 25, "significant": true }, "geometry": { "type": "Point", "coordinates": [ 134.708821401855772, 8.053801560801594 ] } },
{ "type": "Feature", "properties": { "uid": "wcrvc6hn1y", "rate_time": 0.778, "sig_time": 0.009, "se_time": 0.267, "sce": 38.87, "nsm": 30.17, "valid_obs": 22, "valid_span": 25, "significant": true }, "geometry": { "type": "Point", "coordinates": [ 134.708947770656891, 8.054041660395251 ] } },
{ "type": "Feature", "properties": { "uid": "wcrvc6hpsm", "rate_time": 0.888, "sig_time": 0.022, "se_time": 0.357, "sce": 56.04, "nsm": 30.64, "valid_obs": 22, "valid_span": 25, "significant": true }, "geometry": { "type": "Point", "coordinates": [ 134.709048645183628, 8.054293680488705 ] } },
{ "type": "Feature", "properties": { "uid": "wcrvc6k1ns", "rate_time": 0.537, "sig_time": 0.073, "se_time": 0.283, "sce": 41.08, "nsm": 30.19, "valid_obs": 21, "valid_span": 25, "significant": false }, "geometry": { "type": "Point", "coordinates": [ 134.709145334686553, 8.054547354971017 ] } },
{ "type": "Feature", "properties": { "uid": "wcrvc6k68s", "rate_time": 0.444, "sig_time": 0.15, "se_time": 0.296, "sce": 40.43, "nsm": 29.41, "valid_obs": 21, "valid_span": 25, "significant": false }, "geometry": { "type": "Point", "coordinates": [ 134.709228967725096, 8.0548055920975 ] } },
{ "type": "Feature", "properties": { "uid": "wcrvc6kk4s", "rate_time": 0.355, "sig_time": 0.258, "se_time": 0.305, "sce": 39.24, "nsm": 27.46, "valid_obs": 21, "valid_span": 25, "significant": false }, "geometry": { "type": "Point", "coordinates": [ 134.709314315901281, 8.055063235413529 ] } },
{ "type": "Feature", "properties": { "uid": "wcrvc6kmss", "rate_time": 0.234, "sig_time": 0.459, "se_time": 0.31, "sce": 39.9, "nsm": 24.46, "valid_obs": 21, "valid_span": 25, "significant": false }, "geometry": { "type": "Point", "coordinates": [ 134.709407333987514, 8.0553182525114 ] } },
{ "type": "Feature", "properties": { "uid": "wcrvc6krnk", "rate_time": 0.204, "sig_time": 0.485, "se_time": 0.286, "sce": 38.76, "nsm": 21.65, "valid_obs": 21, "valid_span": 25, "significant": false }, "geometry": { "type": "Point", "coordinates": [ 134.709481374358148, 8.055579235426345 ] } },
{ "type": "Feature", "properties": { "uid": "wcrvc6s2xw", "rate_time": 0.136, "sig_time": 0.618, "se_time": 0.268, "sce": 36.96, "nsm": 19.13, "valid_obs": 21, "valid_span": 25, "significant": false }, "geometry": { "type": "Point", "coordinates": [ 134.709531582730534, 8.055845728776941 ] } },
{ "type": "Feature", "properties": { "uid": "wcrvc6sd22", "rate_time": 0.111, "sig_time": 0.676, "se_time": 0.263, "sce": 36.97, "nsm": 18.16, "valid_obs": 21, "valid_span": 25, "significant": false }, "geometry": { "type": "Point", "coordinates": [ 134.709563020476622, 8.056115176362972 ] } },
{ "type": "Feature", "properties": { "uid": "wcrvc6sebg", "rate_time": 0.103, "sig_time": 0.693, "se_time": 0.257, "sce": 37.51, "nsm": 17.74, "valid_obs": 21, "valid_span": 25, "significant": false }, "geometry": { "type": "Point", "coordinates": [ 134.709585599164456, 8.056385581963873 ] } },
{ "type": "Feature", "properties": { "uid": "wcrvc6st3t", "rate_time": 0.046, "sig_time": 0.859, "se_time": 0.256, "sce": 38.1, "nsm": 17.13, "valid_obs": 21, "valid_span": 25, "significant": false }, "geometry": { "type": "Point", "coordinates": [ 134.709615474412715, 8.056655284979815 ] } },
{ "type": "Feature", "properties": { "uid": "wcrvc6swfx", "rate_time": 0.049, "sig_time": 0.851, "se_time": 0.26, "sce": 40.74, "nsm": 17.99, "valid_obs": 21, "valid_span": 25, "significant": false }, "geometry": { "type": "Point", "coordinates": [ 134.709664904288388, 8.056921939370271 ] } },
{ "type": "Feature", "properties": { "uid": "wcrvc6u8s0", "rate_time": 0.113, "sig_time": 0.692, "se_time": 0.281, "sce": 46.19, "nsm": 20.88, "valid_obs": 21, "valid_span": 25, "significant": false }, "geometry": { "type": "Point", "coordinates": [ 134.709725678347752, 8.057186433343283 ] } },
{ "type": "Feature", "properties": { "uid": "wcrvc6udj3", "rate_time": 0.174, "sig_time": 0.584, "se_time": 0.311, "sce": 49.77, "nsm": 22.73, "valid_obs": 21, "valid_span": 25, "significant": false }, "geometry": { "type": "Point", "coordinates": [ 134.709783972479158, 8.057451485935548 ] } },
{ "type": "Feature", "properties": { "uid": "wcrvc6uewe", "rate_time": 0.118, "sig_time": 0.724, "se_time": 0.331, "sce": 47.34, "nsm": 20.1, "valid_obs": 21, "valid_span": 25, "significant": false }, "geometry": { "type": "Point", "coordinates": [ 134.709834327228407, 8.057718133960101 ] } },
{ "type": "Feature", "properties": { "uid": "wcrvc6utpt", "rate_time": -0.009, "sig_time": 0.98, "se_time": 0.346, "sce": 45.84, "nsm": 14.86, "valid_obs": 21, "valid_span": 25, "significant": false }, "geometry": { "type": "Point", "coordinates": [ 134.709879777947378, 8.057985673565655 ] } },
{ "type": "Feature", "properties": { "uid": "wcrvc6uy8x", "rate_time": -0.105, "sig_time": 0.752, "se_time": 0.327, "sce": 44.59, "nsm": 10.03, "valid_obs": 21, "valid_span": 25, "significant": false }, "geometry": { "type": "Point", "coordinates": [ 134.709920435076185, 8.058253982396462 ] } },
{ "type": "Feature", "properties": { "uid": "wcrvc7hb39", "rate_time": -0.207, "sig_time": 0.606, "se_time": 0.395, "sce": 60.89, "nsm": 6.83, "valid_obs": 21, "valid_span": 25, "significant": false }, "geometry": { "type": "Point", "coordinates": [ 134.709962508105377, 8.05852207443338 ] } },
{ "type": "Feature", "properties": { "uid": "wcrvc7hcfe", "rate_time": -0.105, "sig_time": 0.598, "se_time": 0.196, "sce": 26.19, "nsm": 7.36, "valid_obs": 20, "valid_span": 25, "significant": false }, "geometry": { "type": "Point", "coordinates": [ 134.710009159428125, 8.058789415023652 ] } },
{ "type": "Feature", "properties": { "uid": "wcrvc7hg7v", "rate_time": -0.134, "sig_time": 0.55, "se_time": 0.219, "sce": 30.19, "nsm": 10.45, "valid_obs": 20, "valid_span": 25, "significant": false }, "geometry": { "type": "Point", "coordinates": [ 134.710055538429486, 8.059056806890409 ] } },
{ "type": "Feature", "properties": { "uid": "wcrvc7huuz", "rate_time": -0.134, "sig_time": 0.576, "se_time": 0.236, "sce": 32.17, "nsm": 12.4, "valid_obs": 20, "valid_span": 25, "significant": false }, "geometry": { "type": "Point", "coordinates": [ 134.71009656494698, 8.059325049099607 ] } },
{ "type": "Feature", "properties": { "uid": "wcrvc7hyt9", "rate_time": -0.118, "sig_time": 0.646, "se_time": 0.253, "sce": 30.25, "nsm": 13.37, "valid_obs": 20, "valid_span": 25, "significant": false }, "geometry": { "type": "Point", "coordinates": [ 134.710134782682132, 8.059593713084531 ] } },
{ "type": "Feature", "properties": { "uid": "wcrvc7kbn7", "rate_time": -0.129, "sig_time": 0.631, "se_time": 0.263, "sce": 29.02, "nsm": 14.21, "valid_obs": 20, "valid_span": 25, "significant": false }, "geometry": { "type": "Point", "coordinates": [ 134.710171046640994, 8.059862628655756 ] } },
{ "type": "Feature", "properties": { "uid": "wcrvc7kcxj", "rate_time": -0.113, "sig_time": 0.64, "se_time": 0.238, "sce": 26.36, "nsm": 14.83, "valid_obs": 20, "valid_span": 25, "significant": false }, "geometry": { "type": "Point", "coordinates": [ 134.710200091600342, 8.060132421694901 ] } },
{ "type": "Feature", "properties": { "uid": "wcrvc3u530", "rate_time": -0.333, "sig_time": 0.362, "se_time": 0.357, "sce": 43.19, "nsm": -10.62, "valid_obs": 22, "valid_span": 25, "significant": false }, "geometry": { "type": "Point", "coordinates": [ 134.708915348959579, 8.052164994997289 ] } },
{ "type": "Feature", "properties": { "uid": "wcrvc3gg4z", "rate_time": -0.069, "sig_time": 0.84, "se_time": 0.337, "sce": 39.02, "nsm": -0.9, "valid_obs": 22, "valid_span": 25, "significant": false }, "geometry": { "type": "Point", "coordinates": [ 134.708645316216945, 8.052160469421393 ] } },
{ "type": "Feature", "properties": { "uid": "wcrvc3usxv", "rate_time": 0.219, "sig_time": 0.624, "se_time": 0.44, "sce": 57.67, "nsm": -7.91, "valid_obs": 22, "valid_span": 25, "significant": false }, "geometry": { "type": "Point", "coordinates": [ 134.709884212565669, 8.052404681957141 ] } },
{ "type": "Feature", "properties": { "uid": "wcrvc3uvmq", "rate_time": 0.468, "sig_time": 0.265, "se_time": 0.408, "sce": 55.89, "nsm": -7.71, "valid_obs": 22, "valid_span": 25, "significant": false }, "geometry": { "type": "Point", "coordinates": [ 134.710119125575829, 8.052541864486951 ] } },
{ "type": "Feature", "properties": { "uid": "wcrvc3vn6n", "rate_time": 0.05, "sig_time": 0.863, "se_time": 0.289, "sce": 37.06, "nsm": -12.01, "valid_obs": 21, "valid_span": 25, "significant": false }, "geometry": { "type": "Point", "coordinates": [ 134.710331355728243, 8.052711152270017 ] } },
{ "type": "Feature", "properties": { "uid": "wcrvc3vpw7", "rate_time": 0.038, "sig_time": 0.873, "se_time": 0.236, "sce": 33.28, "nsm": -13.53, "valid_obs": 21, "valid_span": 25, "significant": false }, "geometry": { "type": "Point", "coordinates": [ 134.710514320284148, 8.052911552022795 ] } },
{ "type": "Feature", "properties": { "uid": "wcrvc6j2fj", "rate_time": -0.027, "sig_time": 0.909, "se_time": 0.233, "sce": 31.07, "nsm": -14.45, "valid_obs": 21, "valid_span": 25, "significant": false }, "geometry": { "type": "Point", "coordinates": [ 134.710666161676926, 8.053136672677415 ] } },
{ "type": "Feature", "properties": { "uid": "wcrvc6j6m4", "rate_time": -0.111, "sig_time": 0.604, "se_time": 0.211, "sce": 28.87, "nsm": -15.73, "valid_obs": 21, "valid_span": 25, "significant": false }, "geometry": { "type": "Point", "coordinates": [ 134.710795085153933, 8.053375566257621 ] } },
{ "type": "Feature", "properties": { "uid": "wcrvc6je8j", "rate_time": -0.103, "sig_time": 0.634, "se_time": 0.214, "sce": 29.44, "nsm": -15.19, "valid_obs": 21, "valid_span": 25, "significant": false }, "geometry": { "type": "Point", "coordinates": [ 134.710930533477921, 8.053610787209898 ] } },
{ "type": "Feature", "properties": { "uid": "wcrvc6jt53", "rate_time": -0.039, "sig_time": 0.859, "se_time": 0.214, "sce": 28.51, "nsm": -13.44, "valid_obs": 21, "valid_span": 25, "significant": false }, "geometry": { "type": "Point", "coordinates": [ 134.711066415686702, 8.053845691701259 ] } },
{ "type": "Feature", "properties": { "uid": "wcrvc6jwqm", "rate_time": 0.033, "sig_time": 0.883, "se_time": 0.22, "sce": 29.5, "nsm": -13.25, "valid_obs": 21, "valid_span": 25, "significant": false }, "geometry": { "type": "Point", "coordinates": [ 134.711198133845187, 8.054082948099628 ] } },
{ "type": "Feature", "properties": { "uid": "wcrvc6jzcb", "rate_time": 0.125, "sig_time": 0.608, "se_time": 0.239, "sce": 34.72, "nsm": -10.99, "valid_obs": 21, "valid_span": 25, "significant": false }, "geometry": { "type": "Point", "coordinates": [ 134.711345624821888, 8.054311034850857 ] } },
{ "type": "Feature", "properties": { "uid": "wcrvc6mcj5", "rate_time": 0.13, "sig_time": 0.61, "se_time": 0.25, "sce": 34.71, "nsm": -11.53, "valid_obs": 21, "valid_span": 25, "significant": false }, "geometry": { "type": "Point", "coordinates": [ 134.711488721951923, 8.054541886673791 ] } },
{ "type": "Feature", "properties": { "uid": "wcrvc6mfxd", "rate_time": 0.088, "sig_time": 0.708, "se_time": 0.232, "sce": 33.66, "nsm": -11.87, "valid_obs": 21, "valid_span": 25, "significant": false }, "geometry": { "type": "Point", "coordinates": [ 134.71158751658561, 8.054794618174627 ] } },
{ "type": "Feature", "properties": { "uid": "wcrvc6qh1d", "rate_time": 0.089, "sig_time": 0.708, "se_time": 0.234, "sce": 30.34, "nsm": -7.27, "valid_obs": 21, "valid_span": 25, "significant": false }, "geometry": { "type": "Point", "coordinates": [ 134.711674007994304, 8.055051891595761 ] } },
{ "type": "Feature", "properties": { "uid": "wcrvc6qjec", "rate_time": 0.201, "sig_time": 0.427, "se_time": 0.248, "sce": 32.5, "nsm": -2.89, "valid_obs": 21, "valid_span": 25, "significant": false }, "geometry": { "type": "Point", "coordinates": [ 134.71177258806074, 8.055304745672222 ] } },
{ "type": "Feature", "properties": { "uid": "wcrvc6qpj6", "rate_time": 0.184, "sig_time": 0.482, "se_time": 0.257, "sce": 36.23, "nsm": -3.28, "valid_obs": 21, "valid_span": 25, "significant": false }, "geometry": { "type": "Point", "coordinates": [ 134.711844029995774, 8.055566187125269 ] } },
{ "type": "Feature", "properties": { "uid": "wcrvc6w0wg", "rate_time": 0.134, "sig_time": 0.606, "se_time": 0.255, "sce": 36.94, "nsm": -4.27, "valid_obs": 21, "valid_span": 25, "significant": false }, "geometry": { "type": "Point", "coordinates": [ 134.711900510939358, 8.055831611118544 ] } },
{ "type": "Feature", "properties": { "uid": "wcrvc6w60j", "rate_time": 0.164, "sig_time": 0.541, "se_time": 0.264, "sce": 35.6, "nsm": -2.95, "valid_obs": 21, "valid_span": 25, "significant": false }, "geometry": { "type": "Point", "coordinates": [ 134.711962355589975, 8.056095827689058 ] } },
{ "type": "Feature", "properties": { "uid": "wcrvc6w79y", "rate_time": 0.229, "sig_time": 0.394, "se_time": 0.262, "sce": 34.53, "nsm": 0.21, "valid_obs": 21, "valid_span": 25, "significant": false }, "geometry": { "type": "Point", "coordinates": [ 134.712031465842216, 8.056358285992381 ] } },
{ "type": "Feature", "properties": { "uid": "wcrvc6wm4z", "rate_time": 0.253, "sig_time": 0.281, "se_time": 0.228, "sce": 32.06, "nsm": 1.15, "valid_obs": 21, "valid_span": 25, "significant": false }, "geometry": { "type": "Point", "coordinates": [ 134.712080814580219, 8.056624817272645 ] } },
{ "type": "Feature", "properties": { "uid": "wcrvc6wqg9", "rate_time": 0.225, "sig_time": 0.271, "se_time": 0.199, "sce": 27.03, "nsm": 0.79, "valid_obs": 21, "valid_span": 25, "significant": false }, "geometry": { "type": "Point", "coordinates": [ 134.712110416045732, 8.05689446428886 ] } },
{ "type": "Feature", "properties": { "uid": "wcrvc6y2kk", "rate_time": 0.234, "sig_time": 0.252, "se_time": 0.198, "sce": 24.87, "nsm": 0.32, "valid_obs": 21, "valid_span": 25, "significant": false }, "geometry": { "type": "Point", "coordinates": [ 134.712136133361014, 8.057164609415606 ] } },
{ "type": "Feature", "properties": { "uid": "wcrvc6y3vn", "rate_time": 0.242, "sig_time": 0.296, "se_time": 0.225, "sce": 27.7, "nsm": -0.83, "valid_obs": 21, "valid_span": 25, "significant": false }, "geometry": { "type": "Point", "coordinates": [ 134.712177381245368, 8.057432600585781 ] } },
{ "type": "Feature", "properties": { "uid": "wcrvc6y7qx", "rate_time": 0.249, "sig_time": 0.374, "se_time": 0.273, "sce": 33.64, "nsm": -1.3, "valid_obs": 21, "valid_span": 25, "significant": false }, "geometry": { "type": "Point", "coordinates": [ 134.712240683805618, 8.0576962973107 ] } },
{ "type": "Feature", "properties": { "uid": "wcrvc6yt02", "rate_time": -0.173, "sig_time": 0.627, "se_time": 0.351, "sce": 55.71, "nsm": -3.64, "valid_obs": 22, "valid_span": 25, "significant": false }, "geometry": { "type": "Point", "coordinates": [ 134.712309093175293, 8.057958898016874 ] } },
{ "type": "Feature", "properties": { "uid": "wcrvc6yw99", "rate_time": -0.042, "sig_time": 0.84, "se_time": 0.207, "sce": 24.06, "nsm": -7.18, "valid_obs": 22, "valid_span": 25, "significant": false }, "geometry": { "type": "Point", "coordinates": [ 134.712366124730039, 8.058224240485899 ] } },
{ "type": "Feature", "properties": { "uid": "wcrvc7n855", "rate_time": -0.022, "sig_time": 0.896, "se_time": 0.164, "sce": 20.89, "nsm": -7.71, "valid_obs": 22, "valid_span": 25, "significant": false }, "geometry": { "type": "Point", "coordinates": [ 134.712427603631056, 8.058488559310812 ] } },
{ "type": "Feature", "properties": { "uid": "wcrvc7n9ss", "rate_time": 0.166, "sig_time": 0.441, "se_time": 0.211, "sce": 23.31, "nsm": -1.77, "valid_obs": 22, "valid_span": 25, "significant": false }, "geometry": { "type": "Point", "coordinates": [ 134.712493657333596, 8.058751814469471 ] } },
{ "type": "Feature", "properties": { "uid": "wcrvc7ny4g", "rate_time": 1.588, "sig_time": 0.001, "se_time": 0.394, "sce": 75.32, "nsm": 19.3, "valid_obs": 23, "valid_span": 25, "significant": true }, "geometry": { "type": "Point", "coordinates": [ 134.712757369068044, 8.059520727616228 ] } },
{ "type": "Feature", "properties": { "uid": "wcrvc7nzt8", "rate_time": 0.666, "sig_time": 0.069, "se_time": 0.347, "sce": 55.13, "nsm": 2.03, "valid_obs": 22, "valid_span": 25, "significant": false }, "geometry": { "type": "Point", "coordinates": [ 134.71288167616521, 8.059761731867004 ] } },
{ "type": "Feature", "properties": { "uid": "wcrvc7r0bn", "rate_time": 0.238, "sig_time": 0.581, "se_time": 0.424, "sce": 71.72, "nsm": -6.92, "valid_obs": 22, "valid_span": 25, "significant": false }, "geometry": { "type": "Point", "coordinates": [ 134.712991502553109, 8.060009716312086 ] } },
{ "type": "Feature", "properties": { "uid": "wcrvc7r46p", "rate_time": -0.008, "sig_time": 0.983, "se_time": 0.35, "sce": 59.46, "nsm": -11.14, "valid_obs": 22, "valid_span": 25, "significant": false }, "geometry": { "type": "Point", "coordinates": [ 134.713069642867907, 8.060269499961397 ] } },
{ "type": "Feature", "properties": { "uid": "wcrvc7kgpx", "rate_time": -0.081, "sig_time": 0.691, "se_time": 0.201, "sce": 24.04, "nsm": 14.0, "valid_obs": 20, "valid_span": 25, "significant": false }, "geometry": { "type": "Point", "coordinates": [ 134.710223463222292, 8.060402771633036 ] } },
{ "type": "Feature", "properties": { "uid": "wcrvc7r5um", "rate_time": -0.032, "sig_time": 0.913, "se_time": 0.292, "sce": 46.66, "nsm": -11.43, "valid_obs": 22, "valid_span": 25, "significant": false }, "geometry": { "type": "Point", "coordinates": [ 134.713172368260331, 8.060520712988637 ] } },
{ "type": "Feature", "properties": { "uid": "wcrvc7mhb4", "rate_time": -0.018, "sig_time": 0.928, "se_time": 0.191, "sce": 20.7, "nsm": 12.17, "valid_obs": 20, "valid_span": 25, "significant": false }, "geometry": { "type": "Point", "coordinates": [ 134.710243910475015, 8.060673366833379 ] } },
{ "type": "Feature", "properties": { "uid": "wcrvc7rjqt", "rate_time": -0.113, "sig_time": 0.676, "se_time": 0.268, "sce": 38.49, "nsm": -16.2, "valid_obs": 22, "valid_span": 25, "significant": false }, "geometry": { "type": "Point", "coordinates": [ 134.713269374006103, 8.060774268093528 ] } },
{ "type": "Feature", "properties": { "uid": "wcrvc7mn2s", "rate_time": 0.032, "sig_time": 0.864, "se_time": 0.182, "sce": 19.5, "nsm": 10.57, "valid_obs": 20, "valid_span": 25, "significant": false }, "geometry": { "type": "Point", "coordinates": [ 134.710264432905689, 8.060943956564541 ] } },
{ "type": "Feature", "properties": { "uid": "wcrvc7rqf0", "rate_time": -0.179, "sig_time": 0.483, "se_time": 0.25, "sce": 33.72, "nsm": -16.11, "valid_obs": 22, "valid_span": 25, "significant": false }, "geometry": { "type": "Point", "coordinates": [ 134.713411479676466, 8.061005212754974 ] } },
{ "type": "Feature", "properties": { "uid": "wcrvc7mpcp", "rate_time": 0.095, "sig_time": 0.579, "se_time": 0.167, "sce": 16.86, "nsm": 10.29, "valid_obs": 20, "valid_span": 25, "significant": false }, "geometry": { "type": "Point", "coordinates": [ 134.710285821571148, 8.061214480216728 ] } },
{ "type": "Feature", "properties": { "uid": "wcrvc7x2j5", "rate_time": -0.17, "sig_time": 0.485, "se_time": 0.239, "sce": 27.72, "nsm": -13.9, "valid_obs": 22, "valid_span": 25, "significant": false }, "geometry": { "type": "Point", "coordinates": [ 134.713550641081667, 8.061238267987886 ] } },
{ "type": "Feature", "properties": { "uid": "wcrvc7x980", "rate_time": -0.35, "sig_time": 0.211, "se_time": 0.271, "sce": 40.83, "nsm": -11.22, "valid_obs": 22, "valid_span": 25, "significant": false }, "geometry": { "type": "Point", "coordinates": [ 134.713674586071619, 8.061479671632764 ] } },
{ "type": "Feature", "properties": { "uid": "wcrvc7t193", "rate_time": 0.219, "sig_time": 0.195, "se_time": 0.162, "sce": 17.86, "nsm": 13.41, "valid_obs": 20, "valid_span": 25, "significant": false }, "geometry": { "type": "Point", "coordinates": [ 134.710297251645443, 8.061485446578862 ] } },
{ "type": "Feature", "properties": { "uid": "wcrvc7xdfr", "rate_time": 0.152, "sig_time": 0.671, "se_time": 0.352, "sce": 45.49, "nsm": -10.21, "valid_obs": 22, "valid_span": 25, "significant": false }, "geometry": { "type": "Point", "coordinates": [ 134.713771874390233, 8.061732488865003 ] } },
{ "type": "Feature", "properties": { "uid": "wcrvc7t51k", "rate_time": 0.425, "sig_time": 0.052, "se_time": 0.204, "sce": 24.16, "nsm": 19.46, "valid_obs": 20, "valid_span": 25, "significant": false }, "geometry": { "type": "Point", "coordinates": [ 134.710290863150334, 8.061756600070087 ] } },
{ "type": "Feature", "properties": { "uid": "wcrvc7xss0", "rate_time": -0.161, "sig_time": 0.423, "se_time": 0.197, "sce": 23.33, "nsm": -9.6, "valid_obs": 21, "valid_span": 25, "significant": false }, "geometry": { "type": "Point", "coordinates": [ 134.71384434355798, 8.061993924744248 ] } },
{ "type": "Feature", "properties": { "uid": "wcrvc7th9q", "rate_time": 0.55, "sig_time": 0.037, "se_time": 0.243, "sce": 28.27, "nsm": 22.41, "valid_obs": 20, "valid_span": 25, "significant": true }, "geometry": { "type": "Point", "coordinates": [ 134.710298653378175, 8.062027124875545 ] } },
{ "type": "Feature", "properties": { "uid": "wcrvc7xwj4", "rate_time": -0.083, "sig_time": 0.686, "se_time": 0.203, "sce": 22.91, "nsm": -6.05, "valid_obs": 21, "valid_span": 25, "significant": false }, "geometry": { "type": "Point", "coordinates": [ 134.713890519055866, 8.062260547803641 ] } },
{ "type": "Feature", "properties": { "uid": "wcrvc7tn62", "rate_time": 0.382, "sig_time": 0.145, "se_time": 0.251, "sce": 26.33, "nsm": 19.73, "valid_obs": 20, "valid_span": 25, "significant": false }, "geometry": { "type": "Point", "coordinates": [ 134.710340520986193, 8.06229485172668 ] } },
{ "type": "Feature", "properties": { "uid": "wcrvc7xxtk", "rate_time": -0.055, "sig_time": 0.801, "se_time": 0.216, "sce": 22.09, "nsm": -5.75, "valid_obs": 21, "valid_span": 25, "significant": false }, "geometry": { "type": "Point", "coordinates": [ 134.713898082268969, 8.062531310829691 ] } },
{ "type": "Feature", "properties": { "uid": "wcrvc7tpg6", "rate_time": 0.159, "sig_time": 0.53, "se_time": 0.249, "sce": 25.82, "nsm": 16.87, "valid_obs": 20, "valid_span": 25, "significant": false }, "geometry": { "type": "Point", "coordinates": [ 134.710384604454561, 8.062562413905134 ] } },
{ "type": "Feature", "properties": { "uid": "wcrvc7z9jp", "rate_time": -0.116, "sig_time": 0.631, "se_time": 0.238, "sce": 22.25, "nsm": -10.78, "valid_obs": 21, "valid_span": 25, "significant": false }, "geometry": { "type": "Point", "coordinates": [ 134.713885058053989, 8.062802362467226 ] } },
{ "type": "Feature", "properties": { "uid": "wcrvc7v1kh", "rate_time": 0.126, "sig_time": 0.623, "se_time": 0.251, "sce": 25.41, "nsm": 17.54, "valid_obs": 20, "valid_span": 25, "significant": false }, "geometry": { "type": "Point", "coordinates": [ 134.710414966807406, 8.062831988903074 ] } },
{ "type": "Feature", "properties": { "uid": "wcrvc7v4vn", "rate_time": 0.413, "sig_time": 0.196, "se_time": 0.307, "sce": 36.46, "nsm": 19.67, "valid_obs": 20, "valid_span": 25, "significant": false }, "geometry": { "type": "Point", "coordinates": [ 134.710452282628324, 8.063100452436542 ] } },
{ "type": "Feature", "properties": { "uid": "wcrvc7vhqx", "rate_time": 0.145, "sig_time": 0.607, "se_time": 0.277, "sce": 25.86, "nsm": 19.23, "valid_obs": 19, "valid_span": 25, "significant": false }, "geometry": { "type": "Point", "coordinates": [ 134.71052347049519, 8.063361469278709 ] } },
{ "type": "Feature", "properties": { "uid": "wcrvc7vmcm", "rate_time": 0.087, "sig_time": 0.764, "se_time": 0.285, "sce": 29.39, "nsm": 15.25, "valid_obs": 19, "valid_span": 25, "significant": false }, "geometry": { "type": "Point", "coordinates": [ 134.710638632713426, 8.063605656059718 ] } },
{ "type": "Feature", "properties": { "uid": "wcrvc7vrjd", "rate_time": 0.255, "sig_time": 0.632, "se_time": 0.524, "sce": 80.62, "nsm": 34.27, "valid_obs": 20, "valid_span": 25, "significant": false }, "geometry": { "type": "Point", "coordinates": [ 134.710820864562265, 8.063805726770847 ] } },
{ "type": "Feature", "properties": { "uid": "wcrvc7vxfz", "rate_time": 0.912, "sig_time": 0.091, "se_time": 0.511, "sce": 80.87, "nsm": 60.56, "valid_obs": 20, "valid_span": 25, "significant": false }, "geometry": { "type": "Point", "coordinates": [ 134.711042634414696, 8.063961973250308 ] } },
{ "type": "Feature", "properties": { "uid": "wcrvckjb8m", "rate_time": 0.046, "sig_time": 0.902, "se_time": 0.365, "sce": 35.61, "nsm": null, "valid_obs": 19, "valid_span": 22, "significant": false }, "geometry": { "type": "Point", "coordinates": [ 134.711285645357634, 8.064078888762012 ] } },
{ "type": "Feature", "properties": { "uid": "wcrvckjbyd", "rate_time": -0.118, "sig_time": 0.739, "se_time": 0.349, "sce": 30.36, "nsm": null, "valid_obs": 19, "valid_span": 22, "significant": false }, "geometry": { "type": "Point", "coordinates": [ 134.711548380657746, 8.06410450063821 ] } },
{ "type": "Feature", "properties": { "uid": "wcrvckn0k9", "rate_time": 0.336, "sig_time": 0.479, "se_time": 0.465, "sce": 53.71, "nsm": 34.64, "valid_obs": 20, "valid_span": 25, "significant": false }, "geometry": { "type": "Point", "coordinates": [ 134.711804677481751, 8.064013756052384 ] } },
{ "type": "Feature", "properties": { "uid": "wcrvc7yrdm", "rate_time": -0.364, "sig_time": 0.368, "se_time": 0.394, "sce": 37.86, "nsm": 13.88, "valid_obs": 20, "valid_span": 25, "significant": false }, "geometry": { "type": "Point", "coordinates": [ 134.712055141019647, 8.063909958595806 ] } },
{ "type": "Feature", "properties": { "uid": "wcrvc7yx2w", "rate_time": -0.057, "sig_time": 0.894, "se_time": 0.426, "sce": 41.98, "nsm": 15.69, "valid_obs": 20, "valid_span": 25, "significant": false }, "geometry": { "type": "Point", "coordinates": [ 134.712324308969499, 8.06387355219827 ] } },
{ "type": "Feature", "properties": { "uid": "wcrvc7yxx4", "rate_time": 0.158, "sig_time": 0.683, "se_time": 0.381, "sce": 37.19, "nsm": 15.99, "valid_obs": 20, "valid_span": 25, "significant": false }, "geometry": { "type": "Point", "coordinates": [ 134.712596058840802, 8.063890317575126 ] } },
{ "type": "Feature", "properties": { "uid": "wcrvc7yzt6", "rate_time": 0.623, "sig_time": 0.126, "se_time": 0.39, "sce": 57.17, "nsm": 13.4, "valid_obs": 21, "valid_span": 25, "significant": false }, "geometry": { "type": "Point", "coordinates": [ 134.712867060105538, 8.063894330867848 ] } },
{ "type": "Feature", "properties": { "uid": "wcrvc7zp5k", "rate_time": 0.267, "sig_time": 0.334, "se_time": 0.269, "sce": 29.64, "nsm": 7.67, "valid_obs": 21, "valid_span": 25, "significant": false }, "geometry": { "type": "Point", "coordinates": [ 134.713127360331498, 8.063817571131354 ] } },
{ "type": "Feature", "properties": { "uid": "wcrvc7zq28", "rate_time": -0.017, "sig_time": 0.952, "se_time": 0.283, "sce": 29.87, "nsm": 3.05, "valid_obs": 21, "valid_span": 25, "significant": false }, "geometry": { "type": "Point", "coordinates": [ 134.713352527580895, 8.063665033081795 ] } },
{ "type": "Feature", "properties": { "uid": "wcrvc7zmqj", "rate_time": -0.02, "sig_time": 0.954, "se_time": 0.332, "sce": 34.59, "nsm": 4.99, "valid_obs": 21, "valid_span": 25, "significant": false }, "geometry": { "type": "Point", "coordinates": [ 134.713583289780331, 8.063521093739345 ] } },
{ "type": "Feature", "properties": { "uid": "wcrvc7zs4p", "rate_time": -0.028, "sig_time": 0.932, "se_time": 0.317, "sce": 38.28, "nsm": -1.96, "valid_obs": 21, "valid_span": 25, "significant": false }, "geometry": { "type": "Point", "coordinates": [ 134.713762503207676, 8.063318790225132 ] } },
{ "type": "Feature", "properties": { "uid": "wcrvc7zdu3", "rate_time": -0.175, "sig_time": 0.53, "se_time": 0.274, "sce": 28.73, "nsm": -12.74, "valid_obs": 21, "valid_span": 25, "significant": false }, "geometry": { "type": "Point", "coordinates": [ 134.713856818735309, 8.063071625656869 ] } },
{ "type": "Feature", "properties": { "uid": "wcrvct25st", "rate_time": 1.128, "sig_time": 0.017, "se_time": 0.427, "sce": 61.83, "nsm": 32.09, "valid_obs": 20, "valid_span": 25, "significant": true }, "geometry": { "type": "Point", "coordinates": [ 134.714549112197204, 8.071461937422512 ] } },
{ "type": "Feature", "properties": { "uid": "wcrvct2688", "rate_time": 1.161, "sig_time": 0.021, "se_time": 0.46, "sce": 54.52, "nsm": 20.22, "valid_obs": 20, "valid_span": 25, "significant": true }, "geometry": { "type": "Point", "coordinates": [ 134.714720267433989, 8.071261390471804 ] } },
{ "type": "Feature", "properties": { "uid": "wcrvct23mj", "rate_time": 1.197, "sig_time": 0.061, "se_time": 0.598, "sce": 77.19, "nsm": 12.53, "valid_obs": 20, "valid_span": 25, "significant": false }, "geometry": { "type": "Point", "coordinates": [ 134.714920352348969, 8.071077499325147 ] } },
{ "type": "Feature", "properties": { "uid": "wcrvct28d6", "rate_time": 1.042, "sig_time": 0.131, "se_time": 0.659, "sce": 82.94, "nsm": 9.24, "valid_obs": 20, "valid_span": 25, "significant": false }, "geometry": { "type": "Point", "coordinates": [ 134.715148367891089, 8.070932756608101 ] } },
{ "type": "Feature", "properties": { "uid": "wcrvct8eu8", "rate_time": -0.544, "sig_time": 0.014, "se_time": 0.199, "sce": 32.05, "nsm": -8.79, "valid_obs": 20, "valid_span": 25, "significant": true }, "geometry": { "type": "Point", "coordinates": [ 134.715245863485478, 8.072850003395295 ] } },
{ "type": "Feature", "properties": { "uid": "wcrvct2b03", "rate_time": 0.578, "sig_time": 0.364, "se_time": 0.621, "sce": 75.16, "nsm": 5.73, "valid_obs": 20, "valid_span": 25, "significant": false }, "geometry": { "type": "Point", "coordinates": [ 134.715402396059744, 8.070841633230033 ] } },
{ "type": "Feature", "properties": { "uid": "wcrvct0zye", "rate_time": 0.202, "sig_time": 0.751, "se_time": 0.628, "sce": 77.77, "nsm": 2.2, "valid_obs": 20, "valid_span": 25, "significant": false }, "geometry": { "type": "Point", "coordinates": [ 134.715672160272391, 8.070805912568998 ] } },
{ "type": "Feature", "properties": { "uid": "wcrvct1psu", "rate_time": 0.065, "sig_time": 0.919, "se_time": 0.633, "sce": 76.89, "nsm": 0.42, "valid_obs": 20, "valid_span": 25, "significant": false }, "geometry": { "type": "Point", "coordinates": [ 134.715942031450879, 8.070771320049229 ] } },
{ "type": "Feature", "properties": { "uid": "wcrvct1r74", "rate_time": 0.053, "sig_time": 0.935, "se_time": 0.638, "sce": 77.31, "nsm": -1.75, "valid_obs": 20, "valid_span": 25, "significant": false }, "geometry": { "type": "Point", "coordinates": [ 134.716208405478994, 8.070716206791184 ] } },
{ "type": "Feature", "properties": { "uid": "wcrvct1wcm", "rate_time": 0.072, "sig_time": 0.916, "se_time": 0.668, "sce": 79.46, "nsm": -1.93, "valid_obs": 20, "valid_span": 25, "significant": false }, "geometry": { "type": "Point", "coordinates": [ 134.716471854598581, 8.070647664793055 ] } },
{ "type": "Feature", "properties": { "uid": "wcrvct1wx3", "rate_time": 0.031, "sig_time": 0.964, "se_time": 0.692, "sce": 81.96, "nsm": -0.52, "valid_obs": 20, "valid_span": 25, "significant": false }, "geometry": { "type": "Point", "coordinates": [ 134.716736458399481, 8.070584207814944 ] } },
{ "type": "Feature", "properties": { "uid": "wcrvct1ym9", "rate_time": -0.081, "sig_time": 0.912, "se_time": 0.725, "sce": 86.92, "nsm": 3.63, "valid_obs": 20, "valid_span": 25, "significant": false }, "geometry": { "type": "Point", "coordinates": [ 134.717004854032353, 8.070539362168319 ] } },
{ "type": "Feature", "properties": { "uid": "wcrvct4nhp", "rate_time": -0.275, "sig_time": 0.726, "se_time": 0.773, "sce": 91.69, "nsm": 7.17, "valid_obs": 20, "valid_span": 25, "significant": false }, "geometry": { "type": "Point", "coordinates": [ 134.717275138287363, 8.070527185841197 ] } },
{ "type": "Feature", "properties": { "uid": "wcrvct4qd5", "rate_time": -0.736, "sig_time": 0.341, "se_time": 0.752, "sce": 82.27, "nsm": 8.34, "valid_obs": 20, "valid_span": 25, "significant": false }, "geometry": { "type": "Point", "coordinates": [ 134.717534900634604, 8.070591236603098 ] } },
{ "type": "Feature", "properties": { "uid": "wcrvct8d89", "rate_time": -0.472, "sig_time": 0.049, "se_time": 0.224, "sce": 35.05, "nsm": -4.53, "valid_obs": 20, "valid_span": 25, "significant": true }, "geometry": { "type": "Point", "coordinates": [ 134.715073353925391, 8.072640114838901 ] } },
{ "type": "Feature", "properties": { "uid": "wcrvct83kc", "rate_time": -0.473, "sig_time": 0.091, "se_time": 0.265, "sce": 38.27, "nsm": -0.5, "valid_obs": 20, "valid_span": 25, "significant": false }, "geometry": { "type": "Point", "coordinates": [ 134.714907955147936, 8.072425374933882 ] } },
{ "type": "Feature", "properties": { "uid": "wcrvctg6um", "rate_time": 1.57, "sig_time": 0.065, "se_time": 0.778, "sce": 56.44, "nsm": null, "valid_obs": 15, "valid_span": 16, "significant": false }, "geometry": { "type": "Point", "coordinates": [ 134.719007005831429, 8.074078039306187 ] } },
{ "type": "Feature", "properties": { "uid": "wcrvctgkpz", "rate_time": 1.761, "sig_time": 0.086, "se_time": 0.946, "sce": 74.52, "nsm": null, "valid_obs": 15, "valid_span": 16, "significant": false }, "geometry": { "type": "Point", "coordinates": [ 134.719157016081141, 8.074303708293087 ] } },
{ "type": "Feature", "properties": { "uid": "wcrvctgt7x", "rate_time": 2.496, "sig_time": 0.095, "se_time": 1.388, "sce": 116.14, "nsm": null, "valid_obs": 15, "valid_span": 16, "significant": false }, "geometry": { "type": "Point", "coordinates": [ 134.719319426684535, 8.07452150724975 ] } },
{ "type": "Feature", "properties": { "uid": "wcrvcw3ytn", "rate_time": -0.058, "sig_time": 0.803, "se_time": 0.229, "sce": 25.39, "nsm": null, "valid_obs": 19, "valid_span": 23, "significant": false }, "geometry": { "type": "Point", "coordinates": [ 134.716981645296329, 8.077477252120465 ] } },
{ "type": "Feature", "properties": { "uid": "wcrvcw3vhs", "rate_time": -0.272, "sig_time": 0.237, "se_time": 0.222, "sce": 23.85, "nsm": null, "valid_obs": 19, "valid_span": 23, "significant": false }, "geometry": { "type": "Point", "coordinates": [ 134.716959970699378, 8.077206767739622 ] } },
{ "type": "Feature", "properties": { "uid": "wcrvcxhzc0", "rate_time": 1.175, "sig_time": 0.33, "se_time": 1.161, "sce": 91.13, "nsm": null, "valid_obs": 15, "valid_span": 16, "significant": false }, "geometry": { "type": "Point", "coordinates": [ 134.720923535734215, 8.081774923879046 ] } },
{ "type": "Feature", "properties": { "uid": "wcrvcxsc1p", "rate_time": 2.224, "sig_time": 0.024, "se_time": 0.872, "sce": 61.21, "nsm": null, "valid_obs": 15, "valid_span": 16, "significant": true }, "geometry": { "type": "Point", "coordinates": [ 134.720928738595262, 8.083402468354937 ] } },
{ "type": "Feature", "properties": { "uid": "wcrvcxkz9k", "rate_time": 1.646, "sig_time": 0.032, "se_time": 0.684, "sce": 40.74, "nsm": null, "valid_obs": 15, "valid_span": 16, "significant": true }, "geometry": { "type": "Point", "coordinates": [ 134.720933315013667, 8.083131173735758 ] } },
{ "type": "Feature", "properties": { "uid": "wcrvcxsfc3", "rate_time": 2.468, "sig_time": 0.048, "se_time": 1.131, "sce": 91.08, "nsm": null, "valid_obs": 15, "valid_span": 16, "significant": true }, "geometry": { "type": "Point", "coordinates": [ 134.72093547938286, 8.083673633306548 ] } },
{ "type": "Feature", "properties": { "uid": "wcrvcxkc36", "rate_time": 0.509, "sig_time": 0.5, "se_time": 0.733, "sce": 51.75, "nsm": null, "valid_obs": 15, "valid_span": 16, "significant": false }, "geometry": { "type": "Point", "coordinates": [ 134.720935269047089, 8.082046034180827 ] } },
{ "type": "Feature", "properties": { "uid": "wcrvcxky16", "rate_time": -0.419, "sig_time": 0.256, "se_time": 0.353, "sce": 24.59, "nsm": null, "valid_obs": 15, "valid_span": 16, "significant": false }, "geometry": { "type": "Point", "coordinates": [ 134.720939346549983, 8.082859878870533 ] } },
{ "type": "Feature", "properties": { "uid": "wcrvcxkfct", "rate_time": -0.279, "sig_time": 0.46, "se_time": 0.366, "sce": 22.18, "nsm": null, "valid_obs": 15, "valid_span": 16, "significant": false }, "geometry": { "type": "Point", "coordinates": [ 134.720944185770236, 8.082317215114415 ] } },
{ "type": "Feature", "properties": { "uid": "wcrvcxku3x", "rate_time": -0.503, "sig_time": 0.088, "se_time": 0.272, "sce": 19.19, "nsm": null, "valid_obs": 15, "valid_span": 16, "significant": false }, "geometry": { "type": "Point", "coordinates": [ 134.720944255291016, 8.082588560954342 ] } },
{ "type": "Feature", "properties": { "uid": "wcrvcx4n26", "rate_time": 0.101, "sig_time": 0.78, "se_time": 0.358, "sce": 48.83, "nsm": 0.6, "valid_obs": 21, "valid_span": 25, "significant": false }, "geometry": { "type": "Point", "coordinates": [ 134.717112792827947, 8.081530255084882 ] } },
{ "type": "Feature", "properties": { "uid": "wcrvcx1zzk", "rate_time": -0.326, "sig_time": 0.41, "se_time": 0.387, "sce": 46.69, "nsm": 0.93, "valid_obs": 21, "valid_span": 25, "significant": false }, "geometry": { "type": "Point", "coordinates": [ 134.717075211106874, 8.081798914737233 ] } },
{ "type": "Feature", "properties": { "uid": "wcrvcx9dxh", "rate_time": 0.008, "sig_time": 0.982, "se_time": 0.344, "sce": 41.52, "nsm": -11.49, "valid_obs": 20, "valid_span": 25, "significant": false }, "geometry": { "type": "Point", "coordinates": [ 134.716722661221638, 8.083646670608349 ] } },
{ "type": "Feature", "properties": { "uid": "wcrvcx9sjw", "rate_time": -0.445, "sig_time": 0.122, "se_time": 0.274, "sce": 35.24, "nsm": -10.25, "valid_obs": 20, "valid_span": 25, "significant": false }, "geometry": { "type": "Point", "coordinates": [ 134.716658670597923, 8.083910400024577 ] } },
{ "type": "Feature", "properties": { "uid": "wcrvcx9tsr", "rate_time": -0.491, "sig_time": 0.247, "se_time": 0.411, "sce": 55.99, "nsm": -7.98, "valid_obs": 20, "valid_span": 25, "significant": false }, "geometry": { "type": "Point", "coordinates": [ 134.716604953076455, 8.084176426517063 ] } },
{ "type": "Feature", "properties": { "uid": "wcrvcx9x71", "rate_time": -1.009, "sig_time": 0.046, "se_time": 0.47, "sce": 62.96, "nsm": -13.79, "valid_obs": 20, "valid_span": 25, "significant": true }, "geometry": { "type": "Point", "coordinates": [ 134.716549758901579, 8.084442086737839 ] } },
{ "type": "Feature", "properties": { "uid": "wcrvcxc8c6", "rate_time": -1.124, "sig_time": 0.01, "se_time": 0.392, "sce": 59.6, "nsm": -19.45, "valid_obs": 20, "valid_span": 25, "significant": true }, "geometry": { "type": "Point", "coordinates": [ 134.71647881870453, 8.084704063481855 ] } },
{ "type": "Feature", "properties": { "uid": "wcrvcxc6rd", "rate_time": -0.921, "sig_time": 0.015, "se_time": 0.344, "sce": 52.2, "nsm": -19.11, "valid_obs": 20, "valid_span": 25, "significant": true }, "geometry": { "type": "Point", "coordinates": [ 134.716399310200586, 8.084963576175259 ] } },
{ "type": "Feature", "properties": { "uid": "wcrvcxc7vd", "rate_time": -0.73, "sig_time": 0.074, "se_time": 0.384, "sce": 61.66, "nsm": -17.24, "valid_obs": 20, "valid_span": 25, "significant": false }, "geometry": { "type": "Point", "coordinates": [ 134.716314388339356, 8.085221321410652 ] } },
{ "type": "Feature", "properties": { "uid": "wcrvcxcm7d", "rate_time": -0.567, "sig_time": 0.15, "se_time": 0.377, "sce": 61.82, "nsm": -14.98, "valid_obs": 20, "valid_span": 25, "significant": false }, "geometry": { "type": "Point", "coordinates": [ 134.716229450976954, 8.085479143186104 ] } },
{ "type": "Feature", "properties": { "uid": "wcrvcxcqcd", "rate_time": -0.668, "sig_time": 0.233, "se_time": 0.542, "sce": 80.18, "nsm": -30.05, "valid_obs": 21, "valid_span": 25, "significant": false }, "geometry": { "type": "Point", "coordinates": [ 134.716141597093866, 8.085735991518172 ] } },
{ "type": "Feature", "properties": { "uid": "wcry1810r3", "rate_time": -1.071, "sig_time": 0.061, "se_time": 0.539, "sce": 88.93, "nsm": -57.88, "valid_obs": 21, "valid_span": 25, "significant": false }, "geometry": { "type": "Point", "coordinates": [ 134.716046568336679, 8.08599025913187 ] } },
{ "type": "Feature", "properties": { "uid": "wcry1811v3", "rate_time": -0.484, "sig_time": 0.374, "se_time": 0.531, "sce": 62.94, "nsm": null, "valid_obs": 20, "valid_span": 23, "significant": false }, "geometry": { "type": "Point", "coordinates": [ 134.715956950063799, 8.086246497061373 ] } },
{ "type": "Feature", "properties": { "uid": "wcry181570", "rate_time": -0.444, "sig_time": 0.411, "se_time": 0.528, "sce": 62.57, "nsm": null, "valid_obs": 20, "valid_span": 23, "significant": false }, "geometry": { "type": "Point", "coordinates": [ 134.715858170836071, 8.086499308043781 ] } },
{ "type": "Feature", "properties": { "uid": "wcry181h8x", "rate_time": -0.366, "sig_time": 0.488, "se_time": 0.517, "sce": 63.09, "nsm": null, "valid_obs": 20, "valid_span": 23, "significant": false }, "geometry": { "type": "Point", "coordinates": [ 134.715752360691511, 8.086749319365742 ] } },
{ "type": "Feature", "properties": { "uid": "wcry180ynn", "rate_time": -0.317, "sig_time": 0.539, "se_time": 0.505, "sce": 61.68, "nsm": null, "valid_obs": 20, "valid_span": 23, "significant": false }, "geometry": { "type": "Point", "coordinates": [ 134.71565262704965, 8.087001745477032 ] } },
{ "type": "Feature", "properties": { "uid": "wcry180zes", "rate_time": -0.3, "sig_time": 0.563, "se_time": 0.508, "sce": 58.68, "nsm": null, "valid_obs": 20, "valid_span": 23, "significant": false }, "geometry": { "type": "Point", "coordinates": [ 134.715542817740754, 8.087249612379789 ] } },
{ "type": "Feature", "properties": { "uid": "wcry182c0f", "rate_time": -0.252, "sig_time": 0.652, "se_time": 0.548, "sce": 64.04, "nsm": null, "valid_obs": 20, "valid_span": 23, "significant": false }, "geometry": { "type": "Point", "coordinates": [ 134.715425024651665, 8.087494186600969 ] } },
{ "type": "Feature", "properties": { "uid": "wcry182dw2", "rate_time": -0.324, "sig_time": 0.573, "se_time": 0.565, "sce": 62.01, "nsm": null, "valid_obs": 20, "valid_span": 23, "significant": false }, "geometry": { "type": "Point", "coordinates": [ 134.715311892471817, 8.087740994887273 ] } },
{ "type": "Feature", "properties": { "uid": "wcrvcx4hbb", "rate_time": 0.139, "sig_time": 0.702, "se_time": 0.357, "sce": 57.5, "nsm": 3.03, "valid_obs": 21, "valid_span": 25, "significant": false }, "geometry": { "type": "Point", "coordinates": [ 134.717137325208597, 8.081260057649029 ] } },
{ "type": "Feature", "properties": { "uid": "wcrvcx451j", "rate_time": 0.506, "sig_time": 0.207, "se_time": 0.387, "sce": 60.84, "nsm": 17.8, "valid_obs": 21, "valid_span": 25, "significant": false }, "geometry": { "type": "Point", "coordinates": [ 134.717153194832349, 8.080989176183591 ] } },
{ "type": "Feature", "properties": { "uid": "wcrvcx419e", "rate_time": 0.848, "sig_time": 0.092, "se_time": 0.478, "sce": 81.52, "nsm": 47.42, "valid_obs": 21, "valid_span": 25, "significant": false }, "geometry": { "type": "Point", "coordinates": [ 134.717171815030355, 8.080718486341773 ] } },
{ "type": "Feature", "properties": { "uid": "wcrvcx4040", "rate_time": 0.111, "sig_time": 0.825, "se_time": 0.493, "sce": 57.86, "nsm": null, "valid_obs": 20, "valid_span": 23, "significant": false }, "geometry": { "type": "Point", "coordinates": [ 134.717194648187302, 8.080448080222451 ] } },
{ "type": "Feature", "properties": { "uid": "wcrvcwfn6q", "rate_time": -0.003, "sig_time": 0.996, "se_time": 0.691, "sce": 95.41, "nsm": null, "valid_obs": 20, "valid_span": 23, "significant": false }, "geometry": { "type": "Point", "coordinates": [ 134.717208716196865, 8.080177184559611 ] } },
{ "type": "Feature", "properties": { "uid": "wcrvcw9cye", "rate_time": 0.081, "sig_time": 0.744, "se_time": 0.244, "sce": 29.22, "nsm": null, "valid_obs": 19, "valid_span": 23, "significant": false }, "geometry": { "type": "Point", "coordinates": [ 134.717047114561723, 8.078015610307963 ] } },
{ "type": "Feature", "properties": { "uid": "wcrvcw9bmc", "rate_time": 0.178, "sig_time": 0.457, "se_time": 0.234, "sce": 26.3, "nsm": null, "valid_obs": 19, "valid_span": 23, "significant": false }, "geometry": { "type": "Point", "coordinates": [ 134.717006837173159, 8.077747352270908 ] } },
{ "type": "Feature", "properties": { "uid": "wcry13p01u", "rate_time": -1.173, "sig_time": 0.116, "se_time": 0.696, "sce": 50.4, "nsm": null, "valid_obs": 15, "valid_span": 16, "significant": false }, "geometry": { "type": "Point", "coordinates": [ 134.713067349496697, 8.091453453849415 ] } },
{ "type": "Feature", "properties": { "uid": "wcry13p54p", "rate_time": 0.725, "sig_time": 0.187, "se_time": 0.52, "sce": 38.29, "nsm": null, "valid_obs": 15, "valid_span": 16, "significant": false }, "geometry": { "type": "Point", "coordinates": [ 134.713076265076211, 8.091986953477555 ] } },
{ "type": "Feature", "properties": { "uid": "wcry13phth", "rate_time": 1.182, "sig_time": 0.049, "se_time": 0.545, "sce": 43.68, "nsm": null, "valid_obs": 15, "valid_span": 16, "significant": true }, "geometry": { "type": "Point", "coordinates": [ 134.713201695147262, 8.092227017008176 ] } },
{ "type": "Feature", "properties": { "uid": "wcry12zm25", "rate_time": -1.142, "sig_time": 0.192, "se_time": 0.833, "sce": 60.14, "nsm": null, "valid_obs": 16, "valid_span": 16, "significant": false }, "geometry": { "type": "Point", "coordinates": [ 134.713326622569809, 8.090977118502291 ] } },
{ "type": "Feature", "properties": { "uid": "wcry13pmbu", "rate_time": 1.111, "sig_time": 0.047, "se_time": 0.507, "sce": 41.05, "nsm": null, "valid_obs": 15, "valid_span": 16, "significant": true }, "geometry": { "type": "Point", "coordinates": [ 134.713366688997269, 8.092441938007774 ] } },
{ "type": "Feature", "properties": { "uid": "wcry13pqvu", "rate_time": 0.449, "sig_time": 0.315, "se_time": 0.43, "sce": 30.61, "nsm": null, "valid_obs": 15, "valid_span": 16, "significant": false }, "geometry": { "type": "Point", "coordinates": [ 134.713576551364667, 8.092614155864556 ] } },
{ "type": "Feature", "properties": { "uid": "wcry13pxeq", "rate_time": -0.275, "sig_time": 0.532, "se_time": 0.428, "sce": 31.52, "nsm": null, "valid_obs": 15, "valid_span": 16, "significant": false }, "geometry": { "type": "Point", "coordinates": [ 134.713810518272822, 8.092752180791686 ] } },
{ "type": "Feature", "properties": { "uid": "wcry13rb35", "rate_time": -0.545, "sig_time": 0.301, "se_time": 0.506, "sce": 38.79, "nsm": null, "valid_obs": 15, "valid_span": 16, "significant": false }, "geometry": { "type": "Point", "coordinates": [ 134.714056355407308, 8.092868023078873 ] } },
{ "type": "Feature", "properties": { "uid": "wcry13rbxn", "rate_time": -0.387, "sig_time": 0.468, "se_time": 0.517, "sce": 40.73, "nsm": null, "valid_obs": 15, "valid_span": 16, "significant": false }, "geometry": { "type": "Point", "coordinates": [ 134.714318335575967, 8.092923702793669 ] } },
{ "type": "Feature", "properties": { "uid": "wcry1920tm", "rate_time": -0.201, "sig_time": 0.734, "se_time": 0.578, "sce": 45.69, "nsm": null, "valid_obs": 15, "valid_span": 16, "significant": false }, "geometry": { "type": "Point", "coordinates": [ 134.714590288883358, 8.092919333911141 ] } },
{ "type": "Feature", "properties": { "uid": "wcry1881rj", "rate_time": 0.545, "sig_time": 0.512, "se_time": 0.811, "sce": 71.0, "nsm": null, "valid_obs": 18, "valid_span": 21, "significant": false }, "geometry": { "type": "Point", "coordinates": [ 134.714661591576601, 8.088929897940025 ] } },
{ "type": "Feature", "properties": { "uid": "wcry18824e", "rate_time": -0.987, "sig_time": 0.267, "se_time": 0.861, "sce": 102.98, "nsm": null, "valid_obs": 20, "valid_span": 23, "significant": false }, "geometry": { "type": "Point", "coordinates": [ 134.714813229406332, 8.088704793068185 ] } },
{ "type": "Feature", "properties": { "uid": "wcry1922ef", "rate_time": -0.127, "sig_time": 0.833, "se_time": 0.588, "sce": 46.21, "nsm": null, "valid_obs": 15, "valid_span": 16, "significant": false }, "geometry": { "type": "Point", "coordinates": [ 134.714861952529674, 8.092900942201226 ] } },
{ "type": "Feature", "properties": { "uid": "wcry182qtx", "rate_time": -0.272, "sig_time": 0.707, "se_time": 0.714, "sce": 77.82, "nsm": null, "valid_obs": 20, "valid_span": 23, "significant": false }, "geometry": { "type": "Point", "coordinates": [ 134.714944758211715, 8.088467195062758 ] } },
{ "type": "Feature", "properties": { "uid": "wcry182t2g", "rate_time": -0.035, "sig_time": 0.957, "se_time": 0.641, "sce": 67.21, "nsm": null, "valid_obs": 20, "valid_span": 23, "significant": false }, "geometry": { "type": "Point", "coordinates": [ 134.715081980595414, 8.088232815215889 ] } },
{ "type": "Feature", "properties": { "uid": "wcry19286j", "rate_time": -0.251, "sig_time": 0.648, "se_time": 0.536, "sce": 41.48, "nsm": null, "valid_obs": 15, "valid_span": 16, "significant": false }, "geometry": { "type": "Point", "coordinates": [ 134.715132793465784, 8.092873934696506 ] } },
{ "type": "Feature", "properties": { "uid": "wcry182egw", "rate_time": -0.1, "sig_time": 0.868, "se_time": 0.592, "sce": 62.36, "nsm": null, "valid_obs": 20, "valid_span": 23, "significant": false }, "geometry": { "type": "Point", "coordinates": [ 134.715197387098272, 8.087987184998797 ] } },
{ "type": "Feature", "properties": { "uid": "wcry190zyt", "rate_time": 0.607, "sig_time": 0.109, "se_time": 0.359, "sce": 41.96, "nsm": null, "valid_obs": 19, "valid_span": 23, "significant": false }, "geometry": { "type": "Point", "coordinates": [ 134.715670959272472, 8.092791655679152 ] } },
{ "type": "Feature", "properties": { "uid": "wcry191pub", "rate_time": 0.184, "sig_time": 0.584, "se_time": 0.33, "sce": 39.19, "nsm": null, "valid_obs": 19, "valid_span": 23, "significant": false }, "geometry": { "type": "Point", "coordinates": [ 134.715941697738003, 8.092766159821215 ] } },
{ "type": "Feature", "properties": { "uid": "wcry191rg3", "rate_time": 0.207, "sig_time": 0.558, "se_time": 0.347, "sce": 38.99, "nsm": null, "valid_obs": 19, "valid_span": 23, "significant": false }, "geometry": { "type": "Point", "coordinates": [ 134.716213683605957, 8.092767258820166 ] } },
{ "type": "Feature", "properties": { "uid": "wcry191xct", "rate_time": 0.02, "sig_time": 0.965, "se_time": 0.45, "sce": 55.31, "nsm": null, "valid_obs": 19, "valid_span": 23, "significant": false }, "geometry": { "type": "Point", "coordinates": [ 134.716484510738184, 8.092792865956941 ] } },
{ "type": "Feature", "properties": { "uid": "wcry1938py", "rate_time": 0.353, "sig_time": 0.593, "se_time": 0.648, "sce": 75.34, "nsm": null, "valid_obs": 19, "valid_span": 23, "significant": false }, "geometry": { "type": "Point", "coordinates": [ 134.716752519579558, 8.092839729559334 ] } },
{ "type": "Feature", "properties": { "uid": "wcry193btg", "rate_time": -0.122, "sig_time": 0.807, "se_time": 0.491, "sce": 47.21, "nsm": null, "valid_obs": 18, "valid_span": 23, "significant": false }, "geometry": { "type": "Point", "coordinates": [ 134.717015545609968, 8.092908285816097 ] } },
{ "type": "Feature", "properties": { "uid": "wcry19615y", "rate_time": -0.326, "sig_time": 0.454, "se_time": 0.424, "sce": 42.88, "nsm": null, "valid_obs": 18, "valid_span": 23, "significant": false }, "geometry": { "type": "Point", "coordinates": [ 134.717266095664257, 8.093011517722411 ] } },
{ "type": "Feature", "properties": { "uid": "wcry196614", "rate_time": -0.194, "sig_time": 0.598, "se_time": 0.361, "sce": 34.31, "nsm": null, "valid_obs": 18, "valid_span": 23, "significant": false }, "geometry": { "type": "Point", "coordinates": [ 134.71749034152154, 8.093162540634074 ] } },
{ "type": "Feature", "properties": { "uid": "wcry1967jw", "rate_time": -0.435, "sig_time": 0.291, "se_time": 0.398, "sce": 47.8, "nsm": null, "valid_obs": 18, "valid_span": 23, "significant": false }, "geometry": { "type": "Point", "coordinates": [ 134.717684044040681, 8.093353257495457 ] } },
{ "type": "Feature", "properties": { "uid": "wcry197tfn", "rate_time": 4.625, "sig_time": 0.001, "se_time": 1.174, "sce": 128.84, "nsm": null, "valid_obs": 17, "valid_span": 23, "significant": true }, "geometry": { "type": "Point", "coordinates": [ 134.719256740216593, 8.093828531393266 ] } },
{ "type": "Feature", "properties": { "uid": "wcry197c8z", "rate_time": 5.572, "sig_time": 0.028, "se_time": 2.314, "sce": 236.31, "nsm": null, "valid_obs": 18, "valid_span": 23, "significant": true }, "geometry": { "type": "Point", "coordinates": [ 134.719537556895745, 8.093101141448624 ] } },
{ "type": "Feature", "properties": { "uid": "wcry192b0m", "rate_time": 2.001, "sig_time": 0.002, "se_time": 0.541, "sce": 66.12, "nsm": null, "valid_obs": 19, "valid_span": 23, "significant": true }, "geometry": { "type": "Point", "coordinates": [ 134.715402176005057, 8.092834691243256 ] } }
]
}
