{
"type": "FeatureCollection",
"name": "transects_carteret",
"crs": { "type": "name", "properties": { "name": "urn:ogc:def:crs:OGC:1.3:CRS84" } },
"features": [
{ "type": "Feature", "properties": { "uid": "rrnt0y784v", "rate_time": -0.055, "sig_time": 0.9, "se_time": 0.431, "sce": 71.26, "nsm": 4.99, "valid_obs": 22, "valid_span": 25, "significant": false }, "geometry": { "type": "Point", "coordinates": [ 155.428511881874698, -4.711733071468525 ] } },
{ "type": "Feature", "properties": { "uid": "rrnt0yk29g", "rate_time": 0.286, "sig_time": 0.522, "se_time": 0.44, "sce": 67.73, "nsm": -11.98, "valid_obs": 22, "valid_span": 25, "significant": false }, "geometry": { "type": "Point", "coordinates": [ 155.429498889886901, -4.711658165140608 ] } },
{ "type": "Feature", "properties": { "uid": "rrnt0y799q", "rate_time": -0.091, "sig_time": 0.841, "se_time": 0.446, "sce": 68.85, "nsm": 4.53, "valid_obs": 22, "valid_span": 25, "significant": false }, "geometry": { "type": "Point", "coordinates": [ 155.428453645116548, -4.711468293180667 ] } },
{ "type": "Feature", "properties": { "uid": "rrnt0yk60v", "rate_time": 0.041, "sig_time": 0.907, "se_time": 0.346, "sce": 44.42, "nsm": -12.22, "valid_obs": 22, "valid_span": 25, "significant": false }, "geometry": { "type": "Point", "coordinates": [ 155.429456766816656, -4.711390428259899 ] } },
{ "type": "Feature", "properties": { "uid": "rrnt0y77pz", "rate_time": -0.331, "sig_time": 0.545, "se_time": 0.538, "sce": 103.55, "nsm": 4.75, "valid_obs": 22, "valid_span": 25, "significant": false }, "geometry": { "type": "Point", "coordinates": [ 155.428382477399282, -4.711207141611403 ] } },
{ "type": "Feature", "properties": { "uid": "rrnt0yk5xz", "rate_time": 0.059, "sig_time": 0.853, "se_time": 0.312, "sce": 36.87, "nsm": -12.54, "valid_obs": 22, "valid_span": 25, "significant": false }, "geometry": { "type": "Point", "coordinates": [ 155.429415885331593, -4.711122451320102 ] } },
{ "type": "Feature", "properties": { "uid": "rrnt0y7ktw", "rate_time": -0.129, "sig_time": 0.734, "se_time": 0.375, "sce": 56.79, "nsm": 8.17, "valid_obs": 21, "valid_span": 25, "significant": false }, "geometry": { "type": "Point", "coordinates": [ 155.428291482627259, -4.710951820726756 ] } },
{ "type": "Feature", "properties": { "uid": "rrnt0ykjr3", "rate_time": 0.169, "sig_time": 0.59, "se_time": 0.308, "sce": 40.24, "nsm": -11.67, "valid_obs": 22, "valid_span": 25, "significant": false }, "geometry": { "type": "Point", "coordinates": [ 155.429394699100243, -4.710852416796515 ] } },
{ "type": "Feature", "properties": { "uid": "rrnt0y7qhp", "rate_time": -0.155, "sig_time": 0.641, "se_time": 0.328, "sce": 41.96, "nsm": 6.77, "valid_obs": 21, "valid_span": 25, "significant": false }, "geometry": { "type": "Point", "coordinates": [ 155.428223462667944, -4.710689621102196 ] } },
{ "type": "Feature", "properties": { "uid": "rrnt0yknze", "rate_time": 0.548, "sig_time": 0.097, "se_time": 0.315, "sce": 45.43, "nsm": 7.91, "valid_obs": 22, "valid_span": 25, "significant": false }, "geometry": { "type": "Point", "coordinates": [ 155.429404145693098, -4.710581946822269 ] } },
{ "type": "Feature", "properties": { "uid": "rrnt0y7rfc", "rate_time": -0.32, "sig_time": 0.389, "se_time": 0.363, "sce": 47.42, "nsm": 4.29, "valid_obs": 21, "valid_span": 25, "significant": false }, "geometry": { "type": "Point", "coordinates": [ 155.428167692697258, -4.710424376347628 ] } },
{ "type": "Feature", "properties": { "uid": "rrnt0ys22m", "rate_time": 0.582, "sig_time": 0.101, "se_time": 0.339, "sce": 48.24, "nsm": 2.48, "valid_obs": 22, "valid_span": 25, "significant": false }, "geometry": { "type": "Point", "coordinates": [ 155.429438792924969, -4.710313198410169 ] } },
{ "type": "Feature", "properties": { "uid": "rrnt0ye331", "rate_time": -0.36, "sig_time": 0.382, "se_time": 0.403, "sce": 59.73, "nsm": 3.74, "valid_obs": 21, "valid_span": 25, "significant": false }, "geometry": { "type": "Point", "coordinates": [ 155.428094523267134, -4.710163614492156 ] } },
{ "type": "Feature", "properties": { "uid": "rrnt0ys3cz", "rate_time": 0.457, "sig_time": 0.221, "se_time": 0.362, "sce": 47.16, "nsm": 3.41, "valid_obs": 22, "valid_span": 25, "significant": false }, "geometry": { "type": "Point", "coordinates": [ 155.429497860606403, -4.710048988354356 ] } },
{ "type": "Feature", "properties": { "uid": "rrnt0ye4yb", "rate_time": -0.221, "sig_time": 0.451, "se_time": 0.286, "sce": 36.61, "nsm": 4.16, "valid_obs": 20, "valid_span": 25, "significant": false }, "geometry": { "type": "Point", "coordinates": [ 155.427996379127393, -4.709910970017939 ] } },
{ "type": "Feature", "properties": { "uid": "rrnt0ys7kk", "rate_time": 0.507, "sig_time": 0.112, "se_time": 0.305, "sce": 39.58, "nsm": 6.83, "valid_obs": 22, "valid_span": 25, "significant": false }, "geometry": { "type": "Point", "coordinates": [ 155.429606763517512, -4.709803711528848 ] } },
{ "type": "Feature", "properties": { "uid": "rrnt0yehhx", "rate_time": -0.223, "sig_time": 0.413, "se_time": 0.266, "sce": 34.5, "nsm": 5.23, "valid_obs": 20, "valid_span": 25, "significant": false }, "geometry": { "type": "Point", "coordinates": [ 155.427897343844194, -4.709658729960636 ] } },
{ "type": "Feature", "properties": { "uid": "rrnt0yss89", "rate_time": 0.337, "sig_time": 0.302, "se_time": 0.318, "sce": 39.77, "nsm": -5.89, "valid_obs": 22, "valid_span": 25, "significant": false }, "geometry": { "type": "Point", "coordinates": [ 155.429790088769835, -4.709605923223661 ] } },
{ "type": "Feature", "properties": { "uid": "rrnt0yej9s", "rate_time": -0.238, "sig_time": 0.499, "se_time": 0.345, "sce": 53.38, "nsm": 7.65, "valid_obs": 21, "valid_span": 25, "significant": false }, "geometry": { "type": "Point", "coordinates": [ 155.427768699333456, -4.709420260461496 ] } },
{ "type": "Feature", "properties": { "uid": "rrnt0ystsy", "rate_time": 0.608, "sig_time": 0.027, "se_time": 0.254, "sce": 40.73, "nsm": 1.05, "valid_obs": 21, "valid_span": 25, "significant": true }, "geometry": { "type": "Point", "coordinates": [ 155.429978099782829, -4.709411745695457 ] } },
{ "type": "Feature", "properties": { "uid": "rrnt0ysw90", "rate_time": 0.104, "sig_time": 0.709, "se_time": 0.275, "sce": 32.74, "nsm": -20.06, "valid_obs": 21, "valid_span": 25, "significant": false }, "geometry": { "type": "Point", "coordinates": [ 155.429807861668024, -4.709271305663475 ] } },
{ "type": "Feature", "properties": { "uid": "rrnt0ydyvv", "rate_time": -0.089, "sig_time": 0.725, "se_time": 0.249, "sce": 32.58, "nsm": 7.18, "valid_obs": 21, "valid_span": 25, "significant": false }, "geometry": { "type": "Point", "coordinates": [ 155.427612569277699, -4.709199222645973 ] } },
{ "type": "Feature", "properties": { "uid": "rrnt0ysr54", "rate_time": -0.62, "sig_time": 0.073, "se_time": 0.328, "sce": 60.66, "nsm": -18.05, "valid_obs": 22, "valid_span": 25, "significant": false }, "geometry": { "type": "Point", "coordinates": [ 155.429555805629917, -4.709175557821566 ] } },
{ "type": "Feature", "properties": { "uid": "rrnt0yspv8", "rate_time": -0.251, "sig_time": 0.196, "se_time": 0.187, "sce": 28.76, "nsm": -11.76, "valid_obs": 22, "valid_span": 25, "significant": false }, "geometry": { "type": "Point", "coordinates": [ 155.42931474092677, -4.7090547504638 ] } },
{ "type": "Feature", "properties": { "uid": "rrnt0yfb4n", "rate_time": -0.118, "sig_time": 0.66, "se_time": 0.264, "sce": 32.88, "nsm": 11.31, "valid_obs": 22, "valid_span": 25, "significant": false }, "geometry": { "type": "Point", "coordinates": [ 155.427455477976736, -4.708978587999385 ] } },
{ "type": "Feature", "properties": { "uid": "rrnt0yu08m", "rate_time": 0.196, "sig_time": 0.297, "se_time": 0.183, "sce": 24.02, "nsm": -10.52, "valid_obs": 22, "valid_span": 25, "significant": false }, "geometry": { "type": "Point", "coordinates": [ 155.429091326600798, -4.708902163851118 ] } },
{ "type": "Feature", "properties": { "uid": "rrnt0ygce4", "rate_time": 0.714, "sig_time": 0.024, "se_time": 0.293, "sce": 55.9, "nsm": -9.91, "valid_obs": 22, "valid_span": 25, "significant": true }, "geometry": { "type": "Point", "coordinates": [ 155.428870831779818, -4.708745596983316 ] } },
{ "type": "Feature", "properties": { "uid": "rrnt0yf9xe", "rate_time": 0.138, "sig_time": 0.653, "se_time": 0.302, "sce": 37.86, "nsm": 14.47, "valid_obs": 22, "valid_span": 25, "significant": false }, "geometry": { "type": "Point", "coordinates": [ 155.427348891712739, -4.70873668501423 ] } },
{ "type": "Feature", "properties": { "uid": "rrnt0ygdqn", "rate_time": 0.391, "sig_time": 0.104, "se_time": 0.229, "sce": 22.0, "nsm": -11.77, "valid_obs": 21, "valid_span": 25, "significant": false }, "geometry": { "type": "Point", "coordinates": [ 155.428648464659432, -4.70859148526326 ] } },
{ "type": "Feature", "properties": { "uid": "rrnt0yfept", "rate_time": 0.2, "sig_time": 0.592, "se_time": 0.367, "sce": 46.12, "nsm": 13.14, "valid_obs": 22, "valid_span": 25, "significant": false }, "geometry": { "type": "Point", "coordinates": [ 155.427341392688845, -4.708468991924608 ] } },
{ "type": "Feature", "properties": { "uid": "rrnt0yge2u", "rate_time": 0.162, "sig_time": 0.58, "se_time": 0.289, "sce": 31.1, "nsm": -15.6, "valid_obs": 21, "valid_span": 25, "significant": false }, "geometry": { "type": "Point", "coordinates": [ 155.42842759388904, -4.708435455617307 ] } },
{ "type": "Feature", "properties": { "uid": "rrnt0ygk5w", "rate_time": 0.078, "sig_time": 0.811, "se_time": 0.322, "sce": 35.75, "nsm": -16.73, "valid_obs": 21, "valid_span": 25, "significant": false }, "geometry": { "type": "Point", "coordinates": [ 155.428199084123492, -4.708291107494412 ] } },
{ "type": "Feature", "properties": { "uid": "rrnt0yfu9f", "rate_time": 0.105, "sig_time": 0.855, "se_time": 0.567, "sce": 79.25, "nsm": 11.08, "valid_obs": 22, "valid_span": 25, "significant": false }, "geometry": { "type": "Point", "coordinates": [ 155.427438988644582, -4.708227132305427 ] } },
{ "type": "Feature", "properties": { "uid": "rrnt0yghvg", "rate_time": 0.352, "sig_time": 0.413, "se_time": 0.42, "sce": 52.26, "nsm": -10.85, "valid_obs": 21, "valid_span": 25, "significant": false }, "geometry": { "type": "Point", "coordinates": [ 155.427953382656995, -4.708180825689226 ] } },
{ "type": "Feature", "properties": { "uid": "rrnt0yfvpe", "rate_time": 0.826, "sig_time": 0.213, "se_time": 0.641, "sce": 86.79, "nsm": -0.4, "valid_obs": 21, "valid_span": 25, "significant": false }, "geometry": { "type": "Point", "coordinates": [ 155.427690289009178, -4.70814021963618 ] } },
{ "type": "Feature", "properties": { "uid": "rrnt0vnw28", "rate_time": 0.844, "sig_time": 0.038, "se_time": 0.379, "sce": 49.19, "nsm": null, "valid_obs": 21, "valid_span": 24, "significant": true }, "geometry": { "type": "Point", "coordinates": [ 155.432536596137709, -4.717552881940779 ] } },
{ "type": "Feature", "properties": { "uid": "rrnt0vnsg7", "rate_time": 1.595, "sig_time": 0.01, "se_time": 0.561, "sce": 83.29, "nsm": 66.61, "valid_obs": 22, "valid_span": 25, "significant": true }, "geometry": { "type": "Point", "coordinates": [ 155.432655459774566, -4.717796195056913 ] } },
{ "type": "Feature", "properties": { "uid": "rrnt0vnem4", "rate_time": 1.267, "sig_time": 0.004, "se_time": 0.396, "sce": 57.73, "nsm": 48.55, "valid_obs": 22, "valid_span": 25, "significant": true }, "geometry": { "type": "Point", "coordinates": [ 155.432734472242288, -4.718055469633438 ] } },
{ "type": "Feature", "properties": { "uid": "rrnt0vncbn", "rate_time": 1.118, "sig_time": 0.005, "se_time": 0.357, "sce": 52.96, "nsm": 39.75, "valid_obs": 22, "valid_span": 25, "significant": true }, "geometry": { "type": "Point", "coordinates": [ 155.432862466621486, -4.718294290683251 ] } },
{ "type": "Feature", "properties": { "uid": "rrnt0vqg12", "rate_time": 0.513, "sig_time": 0.625, "se_time": 1.034, "sce": 102.77, "nsm": 29.12, "valid_obs": 22, "valid_span": 25, "significant": false }, "geometry": { "type": "Point", "coordinates": [ 155.432913469690277, -4.716735068510191 ] } },
{ "type": "Feature", "properties": { "uid": "rrnt0vnf78", "rate_time": 0.775, "sig_time": 0.028, "se_time": 0.327, "sce": 52.85, "nsm": 22.85, "valid_obs": 22, "valid_span": 25, "significant": true }, "geometry": { "type": "Point", "coordinates": [ 155.433010983109313, -4.718240835004258 ] } },
{ "type": "Feature", "properties": { "uid": "rrnt0vqfrh", "rate_time": 0.196, "sig_time": 0.303, "se_time": 0.184, "sce": 20.79, "nsm": -3.62, "valid_obs": 17, "valid_span": 25, "significant": false }, "geometry": { "type": "Point", "coordinates": [ 155.433159812967659, -4.71684660975344 ] } },
{ "type": "Feature", "properties": { "uid": "rrnt0vngrv", "rate_time": 0.218, "sig_time": 0.441, "se_time": 0.277, "sce": 42.38, "nsm": -3.66, "valid_obs": 21, "valid_span": 25, "significant": false }, "geometry": { "type": "Point", "coordinates": [ 155.433187815973469, -4.718041657479981 ] } },
{ "type": "Feature", "properties": { "uid": "rrnt0vphf7", "rate_time": 0.228, "sig_time": 0.556, "se_time": 0.381, "sce": 57.96, "nsm": -3.73, "valid_obs": 21, "valid_span": 25, "significant": false }, "geometry": { "type": "Point", "coordinates": [ 155.433298682374016, -4.717794365056536 ] } },
{ "type": "Feature", "properties": { "uid": "rrnt0vr179", "rate_time": -0.422, "sig_time": 0.516, "se_time": 0.636, "sce": 81.07, "nsm": -13.13, "valid_obs": 19, "valid_span": 25, "significant": false }, "geometry": { "type": "Point", "coordinates": [ 155.433348264818562, -4.717033469140857 ] } },
{ "type": "Feature", "properties": { "uid": "rrnt1j25x2", "rate_time": 1.298, "sig_time": 0.004, "se_time": 0.395, "sce": 47.52, "nsm": 30.01, "valid_obs": 19, "valid_span": 25, "significant": true }, "geometry": { "type": "Point", "coordinates": [ 155.434889398350009, -4.71665260194954 ] } },
{ "type": "Feature", "properties": { "uid": "rrnt1j2dfw", "rate_time": 0.295, "sig_time": 0.215, "se_time": 0.229, "sce": 38.64, "nsm": 0.74, "valid_obs": 19, "valid_span": 25, "significant": false }, "geometry": { "type": "Point", "coordinates": [ 155.435367252095034, -4.716748112875003 ] } },
{ "type": "Feature", "properties": { "uid": "rrnt1j3p0c", "rate_time": 0.8, "sig_time": 0.518, "se_time": 1.213, "sce": 179.81, "nsm": 2.81, "valid_obs": 19, "valid_span": 25, "significant": false }, "geometry": { "type": "Point", "coordinates": [ 155.435986314504675, -4.716043839510877 ] } },
{ "type": "Feature", "properties": { "uid": "rrnt0y5fyu", "rate_time": 0.997, "sig_time": 0.005, "se_time": 0.313, "sce": 48.75, "nsm": null, "valid_obs": 21, "valid_span": 24, "significant": true }, "geometry": { "type": "Point", "coordinates": [ 155.429029524211387, -4.712639562025042 ] } },
{ "type": "Feature", "properties": { "uid": "rrnt0yh552", "rate_time": 1.447, "sig_time": 0.0, "se_time": 0.342, "sce": 53.64, "nsm": null, "valid_obs": 21, "valid_span": 24, "significant": true }, "geometry": { "type": "Point", "coordinates": [ 155.429217222124947, -4.712618859306724 ] } },
{ "type": "Feature", "properties": { "uid": "rrnt0y5gcc", "rate_time": -0.161, "sig_time": 0.652, "se_time": 0.351, "sce": 49.18, "nsm": null, "valid_obs": 21, "valid_span": 24, "significant": false }, "geometry": { "type": "Point", "coordinates": [ 155.428810506499985, -4.712483443358485 ] } },
{ "type": "Feature", "properties": { "uid": "rrnt0yh5zz", "rate_time": 0.451, "sig_time": 0.372, "se_time": 0.493, "sce": 58.08, "nsm": null, "valid_obs": 21, "valid_span": 24, "significant": false }, "geometry": { "type": "Point", "coordinates": [ 155.429414839923027, -4.71245341898989 ] } },
{ "type": "Feature", "properties": { "uid": "rrnt0y5tnv", "rate_time": -0.117, "sig_time": 0.747, "se_time": 0.356, "sce": 60.19, "nsm": 18.09, "valid_obs": 22, "valid_span": 25, "significant": false }, "geometry": { "type": "Point", "coordinates": [ 155.428682757319933, -4.712246485054922 ] } },
{ "type": "Feature", "properties": { "uid": "rrnt0yhm3w", "rate_time": 1.142, "sig_time": 0.037, "se_time": 0.513, "sce": 84.82, "nsm": 43.16, "valid_obs": 22, "valid_span": 25, "significant": true }, "geometry": { "type": "Point", "coordinates": [ 155.429495436999986, -4.712196993163706 ] } },
{ "type": "Feature", "properties": { "uid": "rrnt0y5wss", "rate_time": -0.209, "sig_time": 0.593, "se_time": 0.385, "sce": 60.85, "nsm": -1.13, "valid_obs": 22, "valid_span": 25, "significant": false }, "geometry": { "type": "Point", "coordinates": [ 155.428585840730193, -4.711993413250526 ] } },
{ "type": "Feature", "properties": { "uid": "rrnt0yhr42", "rate_time": 0.555, "sig_time": 0.346, "se_time": 0.575, "sce": 100.86, "nsm": -15.96, "valid_obs": 22, "valid_span": 25, "significant": false }, "geometry": { "type": "Point", "coordinates": [ 155.429518289467438, -4.711928070925783 ] } },
{ "type": "Feature", "properties": { "uid": "rrns9dvvsu", "rate_time": 0.259, "sig_time": 0.411, "se_time": 0.308, "sce": 40.54, "nsm": 3.88, "valid_obs": 21, "valid_span": 25, "significant": false }, "geometry": { "type": "Point", "coordinates": [ 155.464653931994604, -4.817910305138446 ] } },
{ "type": "Feature", "properties": { "uid": "rrns9dyn6s", "rate_time": 0.537, "sig_time": 0.079, "se_time": 0.289, "sce": 38.87, "nsm": 7.99, "valid_obs": 21, "valid_span": 25, "significant": false }, "geometry": { "type": "Point", "coordinates": [ 155.464890442019197, -4.817779933070798 ] } },
{ "type": "Feature", "properties": { "uid": "rrns9ew16d", "rate_time": 0.604, "sig_time": 0.006, "se_time": 0.194, "sce": 29.35, "nsm": 25.41, "valid_obs": 20, "valid_span": 25, "significant": true }, "geometry": { "type": "Point", "coordinates": [ 155.464893991776165, -4.814529851015662 ] } },
{ "type": "Feature", "properties": { "uid": "rrns9ew4qz", "rate_time": 0.855, "sig_time": 0.088, "se_time": 0.474, "sce": 82.03, "nsm": 22.13, "valid_obs": 20, "valid_span": 25, "significant": false }, "geometry": { "type": "Point", "coordinates": [ 155.465077265041486, -4.814330849537562 ] } },
{ "type": "Feature", "properties": { "uid": "rrns9dypwb", "rate_time": 0.536, "sig_time": 0.076, "se_time": 0.286, "sce": 38.22, "nsm": 7.37, "valid_obs": 21, "valid_span": 25, "significant": false }, "geometry": { "type": "Point", "coordinates": [ 155.465079892692927, -4.81758722016488 ] } },
{ "type": "Feature", "properties": { "uid": "rrns9en2ej", "rate_time": 0.439, "sig_time": 0.116, "se_time": 0.267, "sce": 35.31, "nsm": 7.1, "valid_obs": 21, "valid_span": 25, "significant": false }, "geometry": { "type": "Point", "coordinates": [ 155.465265069061587, -4.817389787857474 ] } },
{ "type": "Feature", "properties": { "uid": "rrns9ew7e6", "rate_time": 0.497, "sig_time": 0.118, "se_time": 0.302, "sce": 35.98, "nsm": 14.53, "valid_obs": 19, "valid_span": 25, "significant": false }, "geometry": { "type": "Point", "coordinates": [ 155.465273242373286, -4.814145773139683 ] } },
{ "type": "Feature", "properties": { "uid": "rrns9en3z8", "rate_time": 0.293, "sig_time": 0.294, "se_time": 0.271, "sce": 32.93, "nsm": 8.7, "valid_obs": 21, "valid_span": 25, "significant": false }, "geometry": { "type": "Point", "coordinates": [ 155.465458313228908, -4.817200261650524 ] } },
{ "type": "Feature", "properties": { "uid": "rrns9ews2t", "rate_time": -0.049, "sig_time": 0.921, "se_time": 0.493, "sce": 83.39, "nsm": 10.09, "valid_obs": 20, "valid_span": 25, "significant": false }, "geometry": { "type": "Point", "coordinates": [ 155.465498861258169, -4.813997144198878 ] } },
{ "type": "Feature", "properties": { "uid": "rrns9endsx", "rate_time": 0.336, "sig_time": 0.233, "se_time": 0.273, "sce": 33.8, "nsm": 11.02, "valid_obs": 21, "valid_span": 25, "significant": false }, "geometry": { "type": "Point", "coordinates": [ 155.465673121261943, -4.817035896768674 ] } },
{ "type": "Feature", "properties": { "uid": "rrns9ewtn3", "rate_time": -0.125, "sig_time": 0.706, "se_time": 0.326, "sce": 48.95, "nsm": 5.15, "valid_obs": 20, "valid_span": 25, "significant": false }, "geometry": { "type": "Point", "coordinates": [ 155.465744706176764, -4.813889837588621 ] } },
{ "type": "Feature", "properties": { "uid": "rrns9eng9v", "rate_time": 0.436, "sig_time": 0.119, "se_time": 0.267, "sce": 34.87, "nsm": 12.08, "valid_obs": 21, "valid_span": 25, "significant": false }, "geometry": { "type": "Point", "coordinates": [ 155.465889103118968, -4.816872870213947 ] } },
{ "type": "Feature", "properties": { "uid": "rrns9ewvke", "rate_time": 0.105, "sig_time": 0.615, "se_time": 0.206, "sce": 30.47, "nsm": 1.56, "valid_obs": 20, "valid_span": 25, "significant": false }, "geometry": { "type": "Point", "coordinates": [ 155.466009959857473, -4.813840706125462 ] } },
{ "type": "Feature", "properties": { "uid": "rrns9enuwt", "rate_time": 0.461, "sig_time": 0.115, "se_time": 0.279, "sce": 35.84, "nsm": 9.1, "valid_obs": 21, "valid_span": 25, "significant": false }, "geometry": { "type": "Point", "coordinates": [ 155.466097792233484, -4.816700630250051 ] } },
{ "type": "Feature", "properties": { "uid": "rrns9exj6u", "rate_time": 0.175, "sig_time": 0.622, "se_time": 0.348, "sce": 46.88, "nsm": -0.72, "valid_obs": 20, "valid_span": 25, "significant": false }, "geometry": { "type": "Point", "coordinates": [ 155.466279478307371, -4.813832271587247 ] } },
{ "type": "Feature", "properties": { "uid": "rrns9epjet", "rate_time": 0.352, "sig_time": 0.256, "se_time": 0.301, "sce": 38.51, "nsm": 5.82, "valid_obs": 21, "valid_span": 25, "significant": false }, "geometry": { "type": "Point", "coordinates": [ 155.466309698396401, -4.816532765036996 ] } },
{ "type": "Feature", "properties": { "uid": "rrns9epq8b", "rate_time": 0.145, "sig_time": 0.741, "se_time": 0.431, "sce": 72.51, "nsm": 6.08, "valid_obs": 22, "valid_span": 25, "significant": false }, "geometry": { "type": "Point", "coordinates": [ 155.466535017955096, -4.816383968739924 ] } },
{ "type": "Feature", "properties": { "uid": "rrns9exm1h", "rate_time": 0.537, "sig_time": 0.336, "se_time": 0.544, "sce": 95.03, "nsm": -0.01, "valid_obs": 21, "valid_span": 25, "significant": false }, "geometry": { "type": "Point", "coordinates": [ 155.466543560947059, -4.81387682274141 ] } },
{ "type": "Feature", "properties": { "uid": "rrns9exkqe", "rate_time": 0.626, "sig_time": 0.169, "se_time": 0.438, "sce": 57.23, "nsm": 1.51, "valid_obs": 21, "valid_span": 25, "significant": false }, "geometry": { "type": "Point", "coordinates": [ 155.466778468738653, -4.81400790622881 ] } },
{ "type": "Feature", "properties": { "uid": "rrns9eprne", "rate_time": 0.011, "sig_time": 0.974, "se_time": 0.34, "sce": 44.51, "nsm": 7.25, "valid_obs": 22, "valid_span": 25, "significant": false }, "geometry": { "type": "Point", "coordinates": [ 155.466784940948344, -4.816282843478016 ] } },
{ "type": "Feature", "properties": { "uid": "rrns9exe71", "rate_time": 0.652, "sig_time": 0.066, "se_time": 0.334, "sce": 39.36, "nsm": 4.8, "valid_obs": 21, "valid_span": 25, "significant": false }, "geometry": { "type": "Point", "coordinates": [ 155.466978823440627, -4.814189914813347 ] } },
{ "type": "Feature", "properties": { "uid": "rrns9epxkf", "rate_time": 0.08, "sig_time": 0.798, "se_time": 0.309, "sce": 34.12, "nsm": 10.12, "valid_obs": 22, "valid_span": 25, "significant": false }, "geometry": { "type": "Point", "coordinates": [ 155.467052897571875, -4.816248193749834 ] } },
{ "type": "Feature", "properties": { "uid": "rrns9exdnc", "rate_time": 0.599, "sig_time": 0.025, "se_time": 0.245, "sce": 29.64, "nsm": 6.95, "valid_obs": 21, "valid_span": 25, "significant": true }, "geometry": { "type": "Point", "coordinates": [ 155.467141387988022, -4.814406062705869 ] } },
{ "type": "Feature", "properties": { "uid": "rrns9exbdj", "rate_time": 0.471, "sig_time": 0.062, "se_time": 0.237, "sce": 28.78, "nsm": 8.4, "valid_obs": 21, "valid_span": 25, "significant": false }, "geometry": { "type": "Point", "coordinates": [ 155.467274499366312, -4.814641527776738 ] } },
{ "type": "Feature", "properties": { "uid": "rrns9epz74", "rate_time": 0.209, "sig_time": 0.488, "se_time": 0.296, "sce": 34.81, "nsm": 12.12, "valid_obs": 22, "valid_span": 25, "significant": false }, "geometry": { "type": "Point", "coordinates": [ 155.467323074009357, -4.816244363001962 ] } },
{ "type": "Feature", "properties": { "uid": "rrns9erzkb", "rate_time": 0.467, "sig_time": 0.093, "se_time": 0.264, "sce": 33.97, "nsm": 7.48, "valid_obs": 21, "valid_span": 25, "significant": false }, "geometry": { "type": "Point", "coordinates": [ 155.467399116629167, -4.814882109611459 ] } },
{ "type": "Feature", "properties": { "uid": "rrns9g2jbj", "rate_time": 0.362, "sig_time": 0.192, "se_time": 0.267, "sce": 35.1, "nsm": 7.21, "valid_obs": 21, "valid_span": 25, "significant": false }, "geometry": { "type": "Point", "coordinates": [ 155.467534702808706, -4.81511644014708 ] } },
{ "type": "Feature", "properties": { "uid": "rrns9g0p1q", "rate_time": 0.233, "sig_time": 0.458, "se_time": 0.309, "sce": 35.72, "nsm": 11.2, "valid_obs": 22, "valid_span": 25, "significant": false }, "geometry": { "type": "Point", "coordinates": [ 155.467591990856704, -4.816269060684112 ] } },
{ "type": "Feature", "properties": { "uid": "rrns9g2hee", "rate_time": 0.357, "sig_time": 0.153, "se_time": 0.24, "sce": 32.55, "nsm": 6.74, "valid_obs": 21, "valid_span": 25, "significant": false }, "geometry": { "type": "Point", "coordinates": [ 155.467687447824972, -4.815339950634679 ] } },
{ "type": "Feature", "properties": { "uid": "rrns9g0nz9", "rate_time": 0.111, "sig_time": 0.783, "se_time": 0.399, "sce": 61.86, "nsm": 8.08, "valid_obs": 22, "valid_span": 25, "significant": false }, "geometry": { "type": "Point", "coordinates": [ 155.467853107568885, -4.816337929764049 ] } },
{ "type": "Feature", "properties": { "uid": "rrns9g25re", "rate_time": 0.325, "sig_time": 0.295, "se_time": 0.303, "sce": 50.42, "nsm": 4.86, "valid_obs": 22, "valid_span": 25, "significant": false }, "geometry": { "type": "Point", "coordinates": [ 155.46785411018638, -4.815552890334927 ] } },
{ "type": "Feature", "properties": { "uid": "rrns9etbnk", "rate_time": 0.656, "sig_time": 0.015, "se_time": 0.245, "sce": 39.42, "nsm": 27.19, "valid_obs": 20, "valid_span": 25, "significant": true }, "geometry": { "type": "Point", "coordinates": [ 155.464713629163555, -4.814731712867737 ] } },
{ "type": "Feature", "properties": { "uid": "rrns9emyfs", "rate_time": 0.804, "sig_time": 0.042, "se_time": 0.368, "sce": 58.32, "nsm": 25.36, "valid_obs": 21, "valid_span": 25, "significant": true }, "geometry": { "type": "Point", "coordinates": [ 155.464555003615288, -4.81495077095924 ] } },
{ "type": "Feature", "properties": { "uid": "rrns9emtry", "rate_time": 0.538, "sig_time": 0.158, "se_time": 0.366, "sce": 63.55, "nsm": 17.81, "valid_obs": 21, "valid_span": 25, "significant": false }, "geometry": { "type": "Point", "coordinates": [ 155.464435740704459, -4.815193644883745 ] } },
{ "type": "Feature", "properties": { "uid": "rrns9emsj1", "rate_time": 0.507, "sig_time": 0.436, "se_time": 0.637, "sce": 113.72, "nsm": 10.45, "valid_obs": 21, "valid_span": 25, "significant": false }, "geometry": { "type": "Point", "coordinates": [ 155.464320735206684, -4.815438978206283 ] } },
{ "type": "Feature", "properties": { "uid": "rrns9emd9y", "rate_time": 0.561, "sig_time": 0.443, "se_time": 0.716, "sce": 101.65, "nsm": 3.62, "valid_obs": 21, "valid_span": 25, "significant": false }, "geometry": { "type": "Point", "coordinates": [ 155.464177661476072, -4.815668712245467 ] } },
{ "type": "Feature", "properties": { "uid": "rrns9em3qn", "rate_time": 0.175, "sig_time": 0.751, "se_time": 0.544, "sce": 76.07, "nsm": -0.82, "valid_obs": 21, "valid_span": 25, "significant": false }, "geometry": { "type": "Point", "coordinates": [ 155.464014563002308, -4.815883971046285 ] } },
{ "type": "Feature", "properties": { "uid": "rrns9em23d", "rate_time": 0.187, "sig_time": 0.716, "se_time": 0.507, "sce": 72.05, "nsm": 2.85, "valid_obs": 21, "valid_span": 25, "significant": false }, "geometry": { "type": "Point", "coordinates": [ 155.463825006457824, -4.816077269928814 ] } },
{ "type": "Feature", "properties": { "uid": "rrns9ejpm0", "rate_time": 0.165, "sig_time": 0.559, "se_time": 0.276, "sce": 33.12, "nsm": 8.47, "valid_obs": 19, "valid_span": 25, "significant": false }, "geometry": { "type": "Point", "coordinates": [ 155.463624845272477, -4.816259096415942 ] } },
{ "type": "Feature", "properties": { "uid": "rrns9ejn0t", "rate_time": 0.716, "sig_time": 0.236, "se_time": 0.585, "sce": 73.67, "nsm": 16.9, "valid_obs": 21, "valid_span": 25, "significant": false }, "geometry": { "type": "Point", "coordinates": [ 155.46343195460986, -4.816445713057692 ] } },
{ "type": "Feature", "properties": { "uid": "rrns9ehuv5", "rate_time": 0.604, "sig_time": 0.207, "se_time": 0.462, "sce": 61.54, "nsm": 24.06, "valid_obs": 21, "valid_span": 25, "significant": false }, "geometry": { "type": "Point", "coordinates": [ 155.463280906855175, -4.816668619018153 ] } },
{ "type": "Feature", "properties": { "uid": "rrns9ehg7d", "rate_time": 0.543, "sig_time": 0.262, "se_time": 0.47, "sce": 61.34, "nsm": 24.24, "valid_obs": 21, "valid_span": 25, "significant": false }, "geometry": { "type": "Point", "coordinates": [ 155.463226439847972, -4.816933725778036 ] } },
{ "type": "Feature", "properties": { "uid": "rrns9ehcgb", "rate_time": 0.69, "sig_time": 0.204, "se_time": 0.525, "sce": 73.18, "nsm": 22.51, "valid_obs": 21, "valid_span": 25, "significant": false }, "geometry": { "type": "Point", "coordinates": [ 155.463230225463406, -4.817204450939636 ] } },
{ "type": "Feature", "properties": { "uid": "rrns9ehbjn", "rate_time": 0.806, "sig_time": 0.176, "se_time": 0.573, "sce": 83.69, "nsm": 17.56, "valid_obs": 21, "valid_span": 25, "significant": false }, "geometry": { "type": "Point", "coordinates": [ 155.463283147657307, -4.817470274285403 ] } },
{ "type": "Feature", "properties": { "uid": "rrns9duytu", "rate_time": 0.577, "sig_time": 0.296, "se_time": 0.537, "sce": 74.82, "nsm": 15.34, "valid_obs": 21, "valid_span": 25, "significant": false }, "geometry": { "type": "Point", "coordinates": [ 155.463321064941226, -4.817736948319241 ] } },
{ "type": "Feature", "properties": { "uid": "rrns9dvj6p", "rate_time": 0.149, "sig_time": 0.719, "se_time": 0.407, "sce": 50.57, "nsm": 7.35, "valid_obs": 21, "valid_span": 25, "significant": false }, "geometry": { "type": "Point", "coordinates": [ 155.46350449657163, -4.817936105478224 ] } },
{ "type": "Feature", "properties": { "uid": "rrns9dvhzu", "rate_time": -0.079, "sig_time": 0.843, "se_time": 0.393, "sce": 53.63, "nsm": 0.55, "valid_obs": 21, "valid_span": 25, "significant": false }, "geometry": { "type": "Point", "coordinates": [ 155.463749844273053, -4.818038912694548 ] } },
{ "type": "Feature", "properties": { "uid": "rrns9dvky1", "rate_time": -0.237, "sig_time": 0.498, "se_time": 0.344, "sce": 40.94, "nsm": -3.09, "valid_obs": 21, "valid_span": 25, "significant": false }, "geometry": { "type": "Point", "coordinates": [ 155.464018535581232, -4.818054981923965 ] } },
{ "type": "Feature", "properties": { "uid": "rrns9dvsuq", "rate_time": -0.194, "sig_time": 0.588, "se_time": 0.353, "sce": 42.47, "nsm": -2.81, "valid_obs": 21, "valid_span": 25, "significant": false }, "geometry": { "type": "Point", "coordinates": [ 155.464286937161376, -4.818026700989594 ] } },
{ "type": "Feature", "properties": { "uid": "rrnsc8tvgn", "rate_time": 0.272, "sig_time": 0.607, "se_time": 0.521, "sce": 62.71, "nsm": 10.2, "valid_obs": 21, "valid_span": 25, "significant": false }, "geometry": { "type": "Point", "coordinates": [ 155.464573307851708, -4.786271923929696 ] } },
{ "type": "Feature", "properties": { "uid": "rrnsc8twtu", "rate_time": 0.214, "sig_time": 0.632, "se_time": 0.439, "sce": 55.7, "nsm": 7.41, "valid_obs": 21, "valid_span": 25, "significant": false }, "geometry": { "type": "Point", "coordinates": [ 155.464345184171094, -4.786153753001306 ] } },
{ "type": "Feature", "properties": { "uid": "rrnsc8tx9r", "rate_time": 0.11, "sig_time": 0.812, "se_time": 0.456, "sce": 58.55, "nsm": 6.22, "valid_obs": 21, "valid_span": 25, "significant": false }, "geometry": { "type": "Point", "coordinates": [ 155.464156596211211, -4.785964243832765 ] } },
{ "type": "Feature", "properties": { "uid": "rrnsc8v3nt", "rate_time": 0.078, "sig_time": 0.863, "se_time": 0.448, "sce": 56.38, "nsm": 5.5, "valid_obs": 21, "valid_span": 25, "significant": false }, "geometry": { "type": "Point", "coordinates": [ 155.464042087817774, -4.785718631243586 ] } },
{ "type": "Feature", "properties": { "uid": "rrnsc8v6s5", "rate_time": -0.067, "sig_time": 0.912, "se_time": 0.595, "sce": 75.57, "nsm": 2.34, "valid_obs": 21, "valid_span": 25, "significant": false }, "geometry": { "type": "Point", "coordinates": [ 155.463931106756547, -4.78547139308794 ] } },
{ "type": "Feature", "properties": { "uid": "rrnsc8v7b4", "rate_time": 0.334, "sig_time": 0.519, "se_time": 0.508, "sce": 92.4, "nsm": 6.3, "valid_obs": 20, "valid_span": 25, "significant": false }, "geometry": { "type": "Point", "coordinates": [ 155.463761559425194, -4.785260750290634 ] } },
{ "type": "Feature", "properties": { "uid": "rrnsc8vjhv", "rate_time": 0.33, "sig_time": 0.445, "se_time": 0.423, "sce": 60.29, "nsm": 8.99, "valid_obs": 20, "valid_span": 25, "significant": false }, "geometry": { "type": "Point", "coordinates": [ 155.46361720591122, -4.785033682046834 ] } },
{ "type": "Feature", "properties": { "uid": "rrnsc9j04x", "rate_time": -0.038, "sig_time": 0.926, "se_time": 0.401, "sce": 48.48, "nsm": 4.63, "valid_obs": 20, "valid_span": 25, "significant": false }, "geometry": { "type": "Point", "coordinates": [ 155.463518096724073, -4.784508096648614 ] } },
{ "type": "Feature", "properties": { "uid": "rrnsc9jhgy", "rate_time": -0.316, "sig_time": 0.47, "se_time": 0.429, "sce": 60.11, "nsm": 0.77, "valid_obs": 21, "valid_span": 25, "significant": false }, "geometry": { "type": "Point", "coordinates": [ 155.46357132161333, -4.783697046961109 ] } },
{ "type": "Feature", "properties": { "uid": "rrnsc9jneb", "rate_time": -0.104, "sig_time": 0.766, "se_time": 0.346, "sce": 49.7, "nsm": 3.21, "valid_obs": 21, "valid_span": 25, "significant": false }, "geometry": { "type": "Point", "coordinates": [ 155.463578276509594, -4.783426030077583 ] } },
{ "type": "Feature", "properties": { "uid": "rrnsc9m0hd", "rate_time": -0.063, "sig_time": 0.848, "se_time": 0.324, "sce": 53.24, "nsm": 4.17, "valid_obs": 21, "valid_span": 25, "significant": false }, "geometry": { "type": "Point", "coordinates": [ 155.463608944115322, -4.783157293652986 ] } },
{ "type": "Feature", "properties": { "uid": "rrnsc9m1tu", "rate_time": -0.22, "sig_time": 0.53, "se_time": 0.343, "sce": 38.34, "nsm": 3.82, "valid_obs": 21, "valid_span": 25, "significant": false }, "geometry": { "type": "Point", "coordinates": [ 155.463657673540098, -4.782890587264208 ] } },
{ "type": "Feature", "properties": { "uid": "rrnsc9m5nq", "rate_time": -0.173, "sig_time": 0.68, "se_time": 0.414, "sce": 42.2, "nsm": 4.85, "valid_obs": 21, "valid_span": 25, "significant": false }, "geometry": { "type": "Point", "coordinates": [ 155.46368210654262, -4.782623755242575 ] } },
{ "type": "Feature", "properties": { "uid": "rrnsc9mhy0", "rate_time": -0.091, "sig_time": 0.865, "se_time": 0.529, "sce": 71.48, "nsm": 7.77, "valid_obs": 21, "valid_span": 25, "significant": false }, "geometry": { "type": "Point", "coordinates": [ 155.463670243732622, -4.782352965361683 ] } },
{ "type": "Feature", "properties": { "uid": "rrnsc9mnq7", "rate_time": -0.319, "sig_time": 0.454, "se_time": 0.417, "sce": 46.24, "nsm": 7.65, "valid_obs": 20, "valid_span": 25, "significant": false }, "geometry": { "type": "Point", "coordinates": [ 155.463681494202717, -4.782082553863446 ] } },
{ "type": "Feature", "properties": { "uid": "rrnsc9mpym", "rate_time": -0.421, "sig_time": 0.335, "se_time": 0.426, "sce": 46.01, "nsm": 6.87, "valid_obs": 20, "valid_span": 25, "significant": false }, "geometry": { "type": "Point", "coordinates": [ 155.463685673992359, -4.781812782203576 ] } },
{ "type": "Feature", "properties": { "uid": "rrnsc9t1mx", "rate_time": -0.383, "sig_time": 0.347, "se_time": 0.397, "sce": 39.44, "nsm": 6.22, "valid_obs": 20, "valid_span": 25, "significant": false }, "geometry": { "type": "Point", "coordinates": [ 155.463646304914562, -4.781545074299908 ] } },
{ "type": "Feature", "properties": { "uid": "rrnsc9uw88", "rate_time": 0.723, "sig_time": 0.183, "se_time": 0.521, "sce": 74.95, "nsm": 35.78, "valid_obs": 20, "valid_span": 25, "significant": false }, "geometry": { "type": "Point", "coordinates": [ 155.462753334072033, -4.779307840072578 ] } },
{ "type": "Feature", "properties": { "uid": "rrnsc9uscq", "rate_time": 0.734, "sig_time": 0.123, "se_time": 0.454, "sce": 64.42, "nsm": 44.6, "valid_obs": 20, "valid_span": 25, "significant": false }, "geometry": { "type": "Point", "coordinates": [ 155.462777966507787, -4.779577280662639 ] } },
{ "type": "Feature", "properties": { "uid": "rrnsc9ue6v", "rate_time": 0.935, "sig_time": 0.109, "se_time": 0.554, "sce": 71.14, "nsm": 60.98, "valid_obs": 20, "valid_span": 25, "significant": false }, "geometry": { "type": "Point", "coordinates": [ 155.462845342560087, -4.779838530523443 ] } },
{ "type": "Feature", "properties": { "uid": "rrnsc9udjc", "rate_time": 1.464, "sig_time": 0.063, "se_time": 0.739, "sce": 89.84, "nsm": 81.02, "valid_obs": 20, "valid_span": 25, "significant": false }, "geometry": { "type": "Point", "coordinates": [ 155.462973850311101, -4.780076943918252 ] } },
{ "type": "Feature", "properties": { "uid": "rrnsc9th3w", "rate_time": -0.217, "sig_time": 0.573, "se_time": 0.378, "sce": 44.2, "nsm": 10.06, "valid_obs": 20, "valid_span": 25, "significant": false }, "geometry": { "type": "Point", "coordinates": [ 155.463479236947649, -4.781033142922929 ] } },
{ "type": "Feature", "properties": { "uid": "rrnsc9t5h0", "rate_time": -0.362, "sig_time": 0.347, "se_time": 0.375, "sce": 34.03, "nsm": 5.85, "valid_obs": 20, "valid_span": 25, "significant": false }, "geometry": { "type": "Point", "coordinates": [ 155.46358195921843, -4.781282156887591 ] } },
{ "type": "Feature", "properties": { "uid": "rrnscdjd8m", "rate_time": -0.001, "sig_time": 0.998, "se_time": 0.452, "sce": 69.01, "nsm": -10.98, "valid_obs": 21, "valid_span": 25, "significant": false }, "geometry": { "type": "Point", "coordinates": [ 155.464108103363998, -4.778593304146738 ] } },
{ "type": "Feature", "properties": { "uid": "rrnscdjdn1", "rate_time": -0.043, "sig_time": 0.911, "se_time": 0.382, "sce": 56.46, "nsm": -9.99, "valid_obs": 21, "valid_span": 25, "significant": false }, "geometry": { "type": "Point", "coordinates": [ 155.464355143273195, -4.778702785011729 ] } },
{ "type": "Feature", "properties": { "uid": "rrnscdjc7e", "rate_time": 0.001, "sig_time": 0.998, "se_time": 0.32, "sce": 43.37, "nsm": -7.38, "valid_obs": 21, "valid_span": 25, "significant": false }, "geometry": { "type": "Point", "coordinates": [ 155.464597863830903, -4.778821990190036 ] } },
{ "type": "Feature", "properties": { "uid": "rrnscdn09m", "rate_time": 0.066, "sig_time": 0.819, "se_time": 0.285, "sce": 36.97, "nsm": -5.18, "valid_obs": 21, "valid_span": 25, "significant": false }, "geometry": { "type": "Point", "coordinates": [ 155.464842611395653, -4.778937044073663 ] } },
{ "type": "Feature", "properties": { "uid": "rrnscdn0p0", "rate_time": 0.123, "sig_time": 0.638, "se_time": 0.258, "sce": 33.64, "nsm": -3.73, "valid_obs": 21, "valid_span": 25, "significant": false }, "geometry": { "type": "Point", "coordinates": [ 155.465088595565334, -4.779049405553536 ] } },
{ "type": "Feature", "properties": { "uid": "rrnsc9yrkf", "rate_time": 0.196, "sig_time": 0.45, "se_time": 0.255, "sce": 31.17, "nsm": -3.03, "valid_obs": 21, "valid_span": 25, "significant": false }, "geometry": { "type": "Point", "coordinates": [ 155.465331860843008, -4.779166835693891 ] } },
{ "type": "Feature", "properties": { "uid": "rrnsc9ywd3", "rate_time": 0.139, "sig_time": 0.612, "se_time": 0.268, "sce": 33.19, "nsm": -3.4, "valid_obs": 21, "valid_span": 25, "significant": false }, "geometry": { "type": "Point", "coordinates": [ 155.465566085688152, -4.779301945800658 ] } },
{ "type": "Feature", "properties": { "uid": "rrnsc9ytzu", "rate_time": 0.193, "sig_time": 0.5, "se_time": 0.28, "sce": 36.92, "nsm": 0.44, "valid_obs": 21, "valid_span": 25, "significant": false }, "geometry": { "type": "Point", "coordinates": [ 155.465812120924653, -4.779414202174316 ] } },
{ "type": "Feature", "properties": { "uid": "rrnsc9yvmc", "rate_time": 0.163, "sig_time": 0.607, "se_time": 0.312, "sce": 42.99, "nsm": -1.14, "valid_obs": 21, "valid_span": 25, "significant": false }, "geometry": { "type": "Point", "coordinates": [ 155.466062883587085, -4.779515309945507 ] } },
{ "type": "Feature", "properties": { "uid": "rrnsc9zjk4", "rate_time": 0.289, "sig_time": 0.458, "se_time": 0.382, "sce": 52.51, "nsm": -1.06, "valid_obs": 21, "valid_span": 25, "significant": false }, "geometry": { "type": "Point", "coordinates": [ 155.466330447777608, -4.779512094208282 ] } },
{ "type": "Feature", "properties": { "uid": "rrnsc9zmf1", "rate_time": 0.544, "sig_time": 0.263, "se_time": 0.471, "sce": 62.26, "nsm": 2.09, "valid_obs": 21, "valid_span": 25, "significant": false }, "geometry": { "type": "Point", "coordinates": [ 155.466587755507703, -4.779432571492075 ] } },
{ "type": "Feature", "properties": { "uid": "rrnsc9zw05", "rate_time": 0.545, "sig_time": 0.221, "se_time": 0.431, "sce": 58.96, "nsm": 3.31, "valid_obs": 21, "valid_span": 25, "significant": false }, "geometry": { "type": "Point", "coordinates": [ 155.466852179807745, -4.779377826676588 ] } },
{ "type": "Feature", "properties": { "uid": "rrnsc9zww3", "rate_time": 0.537, "sig_time": 0.191, "se_time": 0.396, "sce": 55.28, "nsm": 4.03, "valid_obs": 21, "valid_span": 25, "significant": false }, "geometry": { "type": "Point", "coordinates": [ 155.467111599124081, -4.779302724505877 ] } },
{ "type": "Feature", "properties": { "uid": "rrnsc9zz5z", "rate_time": 0.732, "sig_time": 0.104, "se_time": 0.429, "sce": 55.26, "nsm": 5.38, "valid_obs": 21, "valid_span": 25, "significant": false }, "geometry": { "type": "Point", "coordinates": [ 155.467352684377801, -4.779182368401834 ] } },
{ "type": "Feature", "properties": { "uid": "rrnsccbpcd", "rate_time": 0.811, "sig_time": 0.099, "se_time": 0.467, "sce": 58.77, "nsm": 5.58, "valid_obs": 21, "valid_span": 25, "significant": false }, "geometry": { "type": "Point", "coordinates": [ 155.467602476244309, -4.779081624203515 ] } },
{ "type": "Feature", "properties": { "uid": "rrnscf00r9", "rate_time": 0.825, "sig_time": 0.082, "se_time": 0.45, "sce": 56.76, "nsm": 6.97, "valid_obs": 21, "valid_span": 25, "significant": false }, "geometry": { "type": "Point", "coordinates": [ 155.46786147147526, -4.779004296560796 ] } },
{ "type": "Feature", "properties": { "uid": "rrnscf02tz", "rate_time": 0.776, "sig_time": 0.045, "se_time": 0.361, "sce": 45.72, "nsm": 10.56, "valid_obs": 21, "valid_span": 25, "significant": true }, "geometry": { "type": "Point", "coordinates": [ 155.468120515194045, -4.778927099126989 ] } },
{ "type": "Feature", "properties": { "uid": "rrnscf0979", "rate_time": 0.745, "sig_time": 0.027, "se_time": 0.312, "sce": 36.94, "nsm": 11.24, "valid_obs": 21, "valid_span": 25, "significant": true }, "geometry": { "type": "Point", "coordinates": [ 155.468372995036162, -4.778832693782754 ] } },
{ "type": "Feature", "properties": { "uid": "rrnscf0f14", "rate_time": 0.495, "sig_time": 0.158, "se_time": 0.337, "sce": 39.54, "nsm": 6.73, "valid_obs": 21, "valid_span": 25, "significant": false }, "geometry": { "type": "Point", "coordinates": [ 155.468605583653925, -4.778697748588779 ] } },
{ "type": "Feature", "properties": { "uid": "rrnscf0gn1", "rate_time": 0.447, "sig_time": 0.292, "se_time": 0.413, "sce": 49.54, "nsm": 3.85, "valid_obs": 21, "valid_span": 25, "significant": false }, "geometry": { "type": "Point", "coordinates": [ 155.468818404984745, -4.778530661168667 ] } },
{ "type": "Feature", "properties": { "uid": "rrnscf15gn", "rate_time": 0.473, "sig_time": 0.369, "se_time": 0.514, "sce": 62.2, "nsm": 0.74, "valid_obs": 21, "valid_span": 25, "significant": false }, "geometry": { "type": "Point", "coordinates": [ 155.469037853591914, -4.778372376100436 ] } },
{ "type": "Feature", "properties": { "uid": "rrnscf1k8u", "rate_time": 0.648, "sig_time": 0.25, "se_time": 0.545, "sce": 95.81, "nsm": 2.89, "valid_obs": 20, "valid_span": 25, "significant": false }, "geometry": { "type": "Point", "coordinates": [ 155.469282205213119, -4.778257445528053 ] } },
{ "type": "Feature", "properties": { "uid": "rrnscf1s8x", "rate_time": 0.643, "sig_time": 0.265, "se_time": 0.559, "sce": 79.02, "nsm": 4.71, "valid_obs": 20, "valid_span": 25, "significant": false }, "geometry": { "type": "Point", "coordinates": [ 155.469618782827354, -4.778241911531446 ] } },
{ "type": "Feature", "properties": { "uid": "rrnscf1kf2", "rate_time": 0.501, "sig_time": 0.365, "se_time": 0.539, "sce": 61.67, "nsm": 3.63, "valid_obs": 20, "valid_span": 25, "significant": false }, "geometry": { "type": "Point", "coordinates": [ 155.469348842383994, -4.778236893100487 ] } },
{ "type": "Feature", "properties": { "uid": "rrnscdj74t", "rate_time": 0.011, "sig_time": 0.976, "se_time": 0.343, "sce": 45.63, "nsm": -12.08, "valid_obs": 20, "valid_span": 25, "significant": false }, "geometry": { "type": "Point", "coordinates": [ 155.463866792586003, -4.778508440757815 ] } },
{ "type": "Feature", "properties": { "uid": "rrnscdj5kw", "rate_time": 0.065, "sig_time": 0.858, "se_time": 0.359, "sce": 49.56, "nsm": -10.31, "valid_obs": 20, "valid_span": 25, "significant": false }, "geometry": { "type": "Point", "coordinates": [ 155.463603226987914, -4.778460611036709 ] } },
{ "type": "Feature", "properties": { "uid": "rrnscdhgnq", "rate_time": -0.059, "sig_time": 0.909, "se_time": 0.506, "sce": 74.81, "nsm": -11.56, "valid_obs": 21, "valid_span": 25, "significant": false }, "geometry": { "type": "Point", "coordinates": [ 155.463338518042775, -4.778504051602507 ] } },
{ "type": "Feature", "properties": { "uid": "rrnscdhf88", "rate_time": 0.306, "sig_time": 0.585, "se_time": 0.551, "sce": 92.12, "nsm": -5.44, "valid_obs": 21, "valid_span": 25, "significant": false }, "geometry": { "type": "Point", "coordinates": [ 155.463094895100625, -4.778620418994184 ] } },
{ "type": "Feature", "properties": { "uid": "rrnscdh9kk", "rate_time": 0.312, "sig_time": 0.42, "se_time": 0.377, "sce": 49.36, "nsm": 8.6, "valid_obs": 20, "valid_span": 25, "significant": false }, "geometry": { "type": "Point", "coordinates": [ 155.462907198645553, -4.778812426918594 ] } },
{ "type": "Feature", "properties": { "uid": "rrnscdh812", "rate_time": 0.585, "sig_time": 0.161, "se_time": 0.4, "sce": 62.91, "nsm": 23.81, "valid_obs": 20, "valid_span": 25, "significant": false }, "geometry": { "type": "Point", "coordinates": [ 155.462786825036687, -4.779049096918543 ] } },
{ "type": "Feature", "properties": { "uid": "rrnsc8tvyw", "rate_time": 0.257, "sig_time": 0.572, "se_time": 0.447, "sce": 51.45, "nsm": 8.84, "valid_obs": 21, "valid_span": 25, "significant": false }, "geometry": { "type": "Point", "coordinates": [ 155.464728675389551, -4.78626949288698 ] } },
{ "type": "Feature", "properties": { "uid": "rrnsc8wnsk", "rate_time": 0.047, "sig_time": 0.904, "se_time": 0.382, "sce": 47.55, "nsm": 3.97, "valid_obs": 21, "valid_span": 25, "significant": false }, "geometry": { "type": "Point", "coordinates": [ 155.464967641060042, -4.786150857841838 ] } },
{ "type": "Feature", "properties": { "uid": "rrnsc8wr3v", "rate_time": 0.194, "sig_time": 0.383, "se_time": 0.217, "sce": 29.82, "nsm": 4.6, "valid_obs": 21, "valid_span": 25, "significant": false }, "geometry": { "type": "Point", "coordinates": [ 155.465203302329229, -4.786018080593785 ] } },
{ "type": "Feature", "properties": { "uid": "rrnsc8y2qt", "rate_time": 0.332, "sig_time": 0.22, "se_time": 0.262, "sce": 36.92, "nsm": 6.0, "valid_obs": 21, "valid_span": 25, "significant": false }, "geometry": { "type": "Point", "coordinates": [ 155.465408843014615, -4.785844877444289 ] } },
{ "type": "Feature", "properties": { "uid": "rrnsc8y9ds", "rate_time": 0.498, "sig_time": 0.191, "se_time": 0.367, "sce": 52.91, "nsm": 5.92, "valid_obs": 21, "valid_span": 25, "significant": false }, "geometry": { "type": "Point", "coordinates": [ 155.465582193928611, -4.78563855010171 ] } },
{ "type": "Feature", "properties": { "uid": "rrnsc8yejb", "rate_time": -0.08, "sig_time": 0.889, "se_time": 0.565, "sce": 70.86, "nsm": 2.95, "valid_obs": 21, "valid_span": 25, "significant": false }, "geometry": { "type": "Point", "coordinates": [ 155.465716286774978, -4.785403882899244 ] } },
{ "type": "Feature", "properties": { "uid": "rrnsc8yu1y", "rate_time": -0.082, "sig_time": 0.892, "se_time": 0.595, "sce": 83.23, "nsm": 4.48, "valid_obs": 21, "valid_span": 25, "significant": false }, "geometry": { "type": "Point", "coordinates": [ 155.465889225906011, -4.785196893268605 ] } },
{ "type": "Feature", "properties": { "uid": "rrnsc8yvq3", "rate_time": 0.276, "sig_time": 0.541, "se_time": 0.443, "sce": 70.24, "nsm": 8.66, "valid_obs": 21, "valid_span": 25, "significant": false }, "geometry": { "type": "Point", "coordinates": [ 155.466087442134409, -4.785012569207804 ] } },
{ "type": "Feature", "properties": { "uid": "rrnsc8znd2", "rate_time": 0.432, "sig_time": 0.194, "se_time": 0.321, "sce": 56.57, "nsm": 9.04, "valid_obs": 21, "valid_span": 25, "significant": false }, "geometry": { "type": "Point", "coordinates": [ 155.466254187624003, -4.784800422075051 ] } },
{ "type": "Feature", "properties": { "uid": "rrnsc8zpvf", "rate_time": 0.365, "sig_time": 0.306, "se_time": 0.346, "sce": 59.78, "nsm": 7.47, "valid_obs": 21, "valid_span": 25, "significant": false }, "geometry": { "type": "Point", "coordinates": [ 155.466408460742258, -4.784578011078667 ] } },
{ "type": "Feature", "properties": { "uid": "rrnsc9p31c", "rate_time": 0.21, "sig_time": 0.603, "se_time": 0.397, "sce": 68.09, "nsm": 5.26, "valid_obs": 21, "valid_span": 25, "significant": false }, "geometry": { "type": "Point", "coordinates": [ 155.466574599280108, -4.784364157422375 ] } },
{ "type": "Feature", "properties": { "uid": "rrnsc9p6jz", "rate_time": 0.113, "sig_time": 0.807, "se_time": 0.456, "sce": 76.6, "nsm": 3.78, "valid_obs": 21, "valid_span": 25, "significant": false }, "geometry": { "type": "Point", "coordinates": [ 155.466755899669522, -4.784163192662774 ] } },
{ "type": "Feature", "properties": { "uid": "rrnsc9pe66", "rate_time": 0.195, "sig_time": 0.655, "se_time": 0.431, "sce": 71.8, "nsm": 3.26, "valid_obs": 21, "valid_span": 25, "significant": false }, "geometry": { "type": "Point", "coordinates": [ 155.466949273661982, -4.783974761965654 ] } },
{ "type": "Feature", "properties": { "uid": "rrnsc9psr8", "rate_time": 0.531, "sig_time": 0.099, "se_time": 0.306, "sce": 47.97, "nsm": 5.86, "valid_obs": 21, "valid_span": 25, "significant": false }, "geometry": { "type": "Point", "coordinates": [ 155.467166147773071, -4.783812941973665 ] } },
{ "type": "Feature", "properties": { "uid": "rrnsc9pvk5", "rate_time": 0.669, "sig_time": 0.016, "se_time": 0.253, "sce": 43.09, "nsm": 6.98, "valid_obs": 21, "valid_span": 25, "significant": true }, "geometry": { "type": "Point", "coordinates": [ 155.467359171557774, -4.783623582994668 ] } },
{ "type": "Feature", "properties": { "uid": "rrnsc9pyxt", "rate_time": 0.586, "sig_time": 0.046, "se_time": 0.274, "sce": 47.52, "nsm": 6.68, "valid_obs": 21, "valid_span": 25, "significant": true }, "geometry": { "type": "Point", "coordinates": [ 155.467510430047639, -4.783402318101369 ] } },
{ "type": "Feature", "properties": { "uid": "rrnscc2046", "rate_time": 0.223, "sig_time": 0.435, "se_time": 0.279, "sce": 42.43, "nsm": 4.59, "valid_obs": 21, "valid_span": 25, "significant": false }, "geometry": { "type": "Point", "coordinates": [ 155.467627628938772, -4.78315803557948 ] } },
{ "type": "Feature", "properties": { "uid": "rrnscc21sb", "rate_time": -0.119, "sig_time": 0.686, "se_time": 0.291, "sce": 33.5, "nsm": 0.7, "valid_obs": 21, "valid_span": 25, "significant": false }, "geometry": { "type": "Point", "coordinates": [ 155.467742805367891, -4.782912766042217 ] } },
{ "type": "Feature", "properties": { "uid": "rrnscc24zu", "rate_time": -0.351, "sig_time": 0.274, "se_time": 0.311, "sce": 37.48, "nsm": -7.41, "valid_obs": 21, "valid_span": 25, "significant": false }, "geometry": { "type": "Point", "coordinates": [ 155.46786941111543, -4.782673878815914 ] } },
{ "type": "Feature", "properties": { "uid": "rrnscc2k5t", "rate_time": -0.246, "sig_time": 0.494, "se_time": 0.353, "sce": 44.95, "nsm": -6.38, "valid_obs": 21, "valid_span": 25, "significant": false }, "geometry": { "type": "Point", "coordinates": [ 155.468028661027461, -4.782455718016031 ] } },
{ "type": "Feature", "properties": { "uid": "rrnscc2t0q", "rate_time": 0.135, "sig_time": 0.715, "se_time": 0.363, "sce": 49.28, "nsm": 2.28, "valid_obs": 21, "valid_span": 25, "significant": false }, "geometry": { "type": "Point", "coordinates": [ 155.468233981894144, -4.78227937804093 ] } },
{ "type": "Feature", "properties": { "uid": "rrnscc2wje", "rate_time": 0.471, "sig_time": 0.223, "se_time": 0.373, "sce": 54.04, "nsm": 10.78, "valid_obs": 21, "valid_span": 25, "significant": false }, "geometry": { "type": "Point", "coordinates": [ 155.46845620250545, -4.782125457665956 ] } },
{ "type": "Feature", "properties": { "uid": "rrnscc2z4d", "rate_time": 0.593, "sig_time": 0.13, "se_time": 0.375, "sce": 54.42, "nsm": 14.1, "valid_obs": 21, "valid_span": 25, "significant": false }, "geometry": { "type": "Point", "coordinates": [ 155.4686682102097, -4.781958161293979 ] } },
{ "type": "Feature", "properties": { "uid": "rrnscc90ux", "rate_time": 0.392, "sig_time": 0.374, "se_time": 0.431, "sce": 54.8, "nsm": 10.87, "valid_obs": 21, "valid_span": 25, "significant": false }, "geometry": { "type": "Point", "coordinates": [ 155.469097071814872, -4.781631311911456 ] } },
{ "type": "Feature", "properties": { "uid": "rrnscc998c", "rate_time": 0.652, "sig_time": 0.079, "se_time": 0.351, "sce": 52.65, "nsm": 18.64, "valid_obs": 21, "valid_span": 25, "significant": false }, "geometry": { "type": "Point", "coordinates": [ 155.469624291028794, -4.781533916146621 ] } },
{ "type": "Feature", "properties": { "uid": "rrnscc8bp6", "rate_time": 0.531, "sig_time": 0.207, "se_time": 0.406, "sce": 52.49, "nsm": 11.99, "valid_obs": 21, "valid_span": 25, "significant": false }, "geometry": { "type": "Point", "coordinates": [ 155.468876232547615, -4.781785326689338 ] } },
{ "type": "Feature", "properties": { "uid": "rrnscc936w", "rate_time": 0.465, "sig_time": 0.27, "se_time": 0.408, "sce": 58.61, "nsm": 13.8, "valid_obs": 21, "valid_span": 25, "significant": false }, "geometry": { "type": "Point", "coordinates": [ 155.469354585867023, -4.781550501466167 ] } },
{ "type": "Feature", "properties": { "uid": "rrns9g26kk", "rate_time": 0.382, "sig_time": 0.063, "se_time": 0.194, "sce": 24.76, "nsm": 6.7, "valid_obs": 22, "valid_span": 25, "significant": false }, "geometry": { "type": "Point", "coordinates": [ 155.468064957514855, -4.815722553151265 ] } },
{ "type": "Feature", "properties": { "uid": "rrns9g0qj0", "rate_time": -0.026, "sig_time": 0.962, "se_time": 0.539, "sce": 92.07, "nsm": 3.96, "valid_obs": 22, "valid_span": 25, "significant": false }, "geometry": { "type": "Point", "coordinates": [ 155.468087598329703, -4.816472753015696 ] } },
{ "type": "Feature", "properties": { "uid": "rrns9g2998", "rate_time": 0.388, "sig_time": 0.045, "se_time": 0.181, "sce": 24.8, "nsm": 6.11, "valid_obs": 22, "valid_span": 25, "significant": true }, "geometry": { "type": "Point", "coordinates": [ 155.468291042275013, -4.815870447530422 ] } },
{ "type": "Feature", "properties": { "uid": "rrns9g0t1b", "rate_time": -0.115, "sig_time": 0.732, "se_time": 0.33, "sce": 36.85, "nsm": -1.66, "valid_obs": 21, "valid_span": 25, "significant": false }, "geometry": { "type": "Point", "coordinates": [ 155.468294309729799, -4.81664644992333 ] } },
{ "type": "Feature", "properties": { "uid": "rrns9g0ey4", "rate_time": -0.112, "sig_time": 0.727, "se_time": 0.316, "sce": 34.11, "nsm": 2.46, "valid_obs": 21, "valid_span": 25, "significant": false }, "geometry": { "type": "Point", "coordinates": [ 155.468474757027678, -4.816848241159233 ] } },
{ "type": "Feature", "properties": { "uid": "rrns9g28z7", "rate_time": 0.398, "sig_time": 0.172, "se_time": 0.281, "sce": 54.04, "nsm": 5.01, "valid_obs": 23, "valid_span": 25, "significant": false }, "geometry": { "type": "Point", "coordinates": [ 155.46853447666453, -4.81598656978468 ] } },
{ "type": "Feature", "properties": { "uid": "rrns9g0fdm", "rate_time": -0.028, "sig_time": 0.923, "se_time": 0.281, "sce": 37.22, "nsm": 3.55, "valid_obs": 21, "valid_span": 25, "significant": false }, "geometry": { "type": "Point", "coordinates": [ 155.468657920017648, -4.817047568880374 ] } },
{ "type": "Feature", "properties": { "uid": "rrns9g2bmk", "rate_time": 0.383, "sig_time": 0.164, "se_time": 0.266, "sce": 42.88, "nsm": 4.8, "valid_obs": 23, "valid_span": 25, "significant": false }, "geometry": { "type": "Point", "coordinates": [ 155.468792291455344, -4.816064591153329 ] } },
{ "type": "Feature", "properties": { "uid": "rrns9g0cxh", "rate_time": 0.079, "sig_time": 0.737, "se_time": 0.23, "sce": 32.08, "nsm": 4.85, "valid_obs": 21, "valid_span": 25, "significant": false }, "geometry": { "type": "Point", "coordinates": [ 155.468862514698884, -4.817224080994544 ] } },
{ "type": "Feature", "properties": { "uid": "rrns9g3079", "rate_time": 0.413, "sig_time": 0.268, "se_time": 0.363, "sce": 53.24, "nsm": 5.45, "valid_obs": 23, "valid_span": 25, "significant": false }, "geometry": { "type": "Point", "coordinates": [ 155.469058832336742, -4.816079891966501 ] } },
{ "type": "Feature", "properties": { "uid": "rrns9g10u6", "rate_time": 0.138, "sig_time": 0.574, "se_time": 0.24, "sce": 34.31, "nsm": 7.08, "valid_obs": 21, "valid_span": 25, "significant": false }, "geometry": { "type": "Point", "coordinates": [ 155.469094455458361, -4.817362266545319 ] } },
{ "type": "Feature", "properties": { "uid": "rrns9g329b", "rate_time": 0.225, "sig_time": 0.187, "se_time": 0.164, "sce": 28.57, "nsm": 5.17, "valid_obs": 21, "valid_span": 25, "significant": false }, "geometry": { "type": "Point", "coordinates": [ 155.469326462526652, -4.816044110925213 ] } },
{ "type": "Feature", "properties": { "uid": "rrns9g1263", "rate_time": 0.282, "sig_time": 0.307, "se_time": 0.268, "sce": 38.51, "nsm": 6.17, "valid_obs": 21, "valid_span": 25, "significant": false }, "geometry": { "type": "Point", "coordinates": [ 155.469346595932791, -4.817453096125709 ] } },
{ "type": "Feature", "properties": { "uid": "rrns9g388p", "rate_time": 0.442, "sig_time": 0.085, "se_time": 0.243, "sce": 34.79, "nsm": 5.98, "valid_obs": 21, "valid_span": 25, "significant": false }, "geometry": { "type": "Point", "coordinates": [ 155.469593954060116, -4.816007005664821 ] } },
{ "type": "Feature", "properties": { "uid": "rrns9g1827", "rate_time": 0.507, "sig_time": 0.004, "se_time": 0.157, "sce": 21.36, "nsm": 6.04, "valid_obs": 21, "valid_span": 25, "significant": true }, "geometry": { "type": "Point", "coordinates": [ 155.469609860413215, -4.817443954295762 ] } },
{ "type": "Feature", "properties": { "uid": "rrns9g19jr", "rate_time": 0.734, "sig_time": 0.001, "se_time": 0.185, "sce": 24.78, "nsm": 4.05, "valid_obs": 21, "valid_span": 25, "significant": true }, "geometry": { "type": "Point", "coordinates": [ 155.469817998806292, -4.817290869504236 ] } },
{ "type": "Feature", "properties": { "uid": "rrns9g38qn", "rate_time": 0.761, "sig_time": 0.018, "se_time": 0.295, "sce": 45.69, "nsm": 7.76, "valid_obs": 21, "valid_span": 25, "significant": true }, "geometry": { "type": "Point", "coordinates": [ 155.469848335840567, -4.816055342001611 ] } },
{ "type": "Feature", "properties": { "uid": "rrns9g1f87", "rate_time": 0.552, "sig_time": 0.042, "se_time": 0.253, "sce": 28.66, "nsm": 4.51, "valid_obs": 21, "valid_span": 25, "significant": true }, "geometry": { "type": "Point", "coordinates": [ 155.469946236304679, -4.81705597416937 ] } },
{ "type": "Feature", "properties": { "uid": "rrns9g1z1z", "rate_time": 0.9, "sig_time": 0.017, "se_time": 0.343, "sce": 48.82, "nsm": 8.76, "valid_obs": 21, "valid_span": 25, "significant": true }, "geometry": { "type": "Point", "coordinates": [ 155.470015841575872, -4.816260482485385 ] } },
{ "type": "Feature", "properties": { "uid": "rrns9g1u1u", "rate_time": 0.745, "sig_time": 0.09, "se_time": 0.418, "sce": 67.79, "nsm": 4.81, "valid_obs": 22, "valid_span": 25, "significant": false }, "geometry": { "type": "Point", "coordinates": [ 155.470018111229336, -4.816795151540198 ] } },
{ "type": "Feature", "properties": { "uid": "rrns9g1vdw", "rate_time": 0.93, "sig_time": 0.072, "se_time": 0.491, "sce": 80.84, "nsm": 5.7, "valid_obs": 23, "valid_span": 25, "significant": false }, "geometry": { "type": "Point", "coordinates": [ 155.470047026063639, -4.816526435545055 ] } },
{ "type": "Feature", "properties": { "uid": "rrnmqwrcrm", "rate_time": 1.686, "sig_time": 0.003, "se_time": 0.494, "sce": 74.99, "nsm": 60.24, "valid_obs": 21, "valid_span": 25, "significant": true }, "geometry": { "type": "Point", "coordinates": [ 155.335667253216997, -4.667573687892391 ] } },
{ "type": "Feature", "properties": { "uid": "rrnmqy21mt", "rate_time": 2.021, "sig_time": 0.005, "se_time": 0.644, "sce": 91.77, "nsm": 81.4, "valid_obs": 22, "valid_span": 25, "significant": true }, "geometry": { "type": "Point", "coordinates": [ 155.335935834840797, -4.667570985472039 ] } },
{ "type": "Feature", "properties": { "uid": "rrnmqy23gd", "rate_time": 1.771, "sig_time": 0.006, "se_time": 0.567, "sce": 91.83, "nsm": null, "valid_obs": 20, "valid_span": 23, "significant": true }, "geometry": { "type": "Point", "coordinates": [ 155.336195863135202, -4.667500354828293 ] } },
{ "type": "Feature", "properties": { "uid": "rrnmqy2d2h", "rate_time": 1.325, "sig_time": 0.001, "se_time": 0.337, "sce": 37.86, "nsm": null, "valid_obs": 19, "valid_span": 22, "significant": true }, "geometry": { "type": "Point", "coordinates": [ 155.336386343286705, -4.667403740862593 ] } },
{ "type": "Feature", "properties": { "uid": "rrnmqy2eky", "rate_time": 1.654, "sig_time": 0.0, "se_time": 0.229, "sce": 38.07, "nsm": null, "valid_obs": 19, "valid_span": 22, "significant": true }, "geometry": { "type": "Point", "coordinates": [ 155.336585016944383, -4.667223429839526 ] } },
{ "type": "Feature", "properties": { "uid": "rrnmqy2ub0", "rate_time": 1.783, "sig_time": 0.0, "se_time": 0.225, "sce": 35.86, "nsm": null, "valid_obs": 19, "valid_span": 22, "significant": true }, "geometry": { "type": "Point", "coordinates": [ 155.336732649454518, -4.666997672896854 ] } },
{ "type": "Feature", "properties": { "uid": "rrnmqwrsuc", "rate_time": -0.494, "sig_time": 0.404, "se_time": 0.579, "sce": 96.15, "nsm": -4.2, "valid_obs": 22, "valid_span": 25, "significant": false }, "geometry": { "type": "Point", "coordinates": [ 155.335216614878703, -4.666991009782018 ] } },
{ "type": "Feature", "properties": { "uid": "rrnmqwrw6c", "rate_time": -0.414, "sig_time": 0.425, "se_time": 0.509, "sce": 80.18, "nsm": -1.96, "valid_obs": 22, "valid_span": 25, "significant": false }, "geometry": { "type": "Point", "coordinates": [ 155.335129816964923, -4.666736244436985 ] } },
{ "type": "Feature", "properties": { "uid": "rrnmqwrrxv", "rate_time": -0.3, "sig_time": 0.506, "se_time": 0.444, "sce": 69.15, "nsm": -3.08, "valid_obs": 22, "valid_span": 25, "significant": false }, "geometry": { "type": "Point", "coordinates": [ 155.334996397168482, -4.666500674594008 ] } },
{ "type": "Feature", "properties": { "uid": "rrnmqwx66s", "rate_time": 0.08, "sig_time": 0.838, "se_time": 0.384, "sce": 51.89, "nsm": -1.68, "valid_obs": 22, "valid_span": 25, "significant": false }, "geometry": { "type": "Point", "coordinates": [ 155.334777988857581, -4.666030653977335 ] } },
{ "type": "Feature", "properties": { "uid": "rrnmqy8f8n", "rate_time": -0.203, "sig_time": 0.516, "se_time": 0.306, "sce": 34.53, "nsm": null, "valid_obs": 19, "valid_span": 22, "significant": false }, "geometry": { "type": "Point", "coordinates": [ 155.336723501285832, -4.665979383204889 ] } },
{ "type": "Feature", "properties": { "uid": "rrnmqy8egv", "rate_time": -0.265, "sig_time": 0.367, "se_time": 0.286, "sce": 31.63, "nsm": null, "valid_obs": 19, "valid_span": 22, "significant": false }, "geometry": { "type": "Point", "coordinates": [ 155.336549303037685, -4.665772075670589 ] } },
{ "type": "Feature", "properties": { "uid": "rrnmqwx7cw", "rate_time": 0.283, "sig_time": 0.446, "se_time": 0.364, "sce": 54.94, "nsm": 0.01, "valid_obs": 22, "valid_span": 25, "significant": false }, "geometry": { "type": "Point", "coordinates": [ 155.334727946360545, -4.665764873763346 ] } },
{ "type": "Feature", "properties": { "uid": "rrnmqy8mpu", "rate_time": 0.968, "sig_time": 0.026, "se_time": 0.404, "sce": 58.69, "nsm": 36.37, "valid_obs": 22, "valid_span": 25, "significant": true }, "geometry": { "type": "Point", "coordinates": [ 155.336377742624677, -4.665563014166072 ] } },
{ "type": "Feature", "properties": { "uid": "rrnmqwxmd0", "rate_time": 0.519, "sig_time": 0.205, "se_time": 0.397, "sce": 55.67, "nsm": -0.88, "valid_obs": 22, "valid_span": 25, "significant": false }, "geometry": { "type": "Point", "coordinates": [ 155.334758570364158, -4.665497015888397 ] } },
{ "type": "Feature", "properties": { "uid": "rrnmqwxqvd", "rate_time": 0.512, "sig_time": 0.207, "se_time": 0.392, "sce": 53.51, "nsm": -2.75, "valid_obs": 22, "valid_span": 25, "significant": false }, "geometry": { "type": "Point", "coordinates": [ 155.334902771903813, -4.665268180987868 ] } },
{ "type": "Feature", "properties": { "uid": "rrnmqy8qun", "rate_time": -0.193, "sig_time": 0.627, "se_time": 0.391, "sce": 52.61, "nsm": -15.08, "valid_obs": 22, "valid_span": 25, "significant": false }, "geometry": { "type": "Point", "coordinates": [ 155.3362149973199, -4.665249293578125 ] } },
{ "type": "Feature", "properties": { "uid": "rrnmqwxxf8", "rate_time": 0.491, "sig_time": 0.205, "se_time": 0.374, "sce": 54.5, "nsm": -6.16, "valid_obs": 22, "valid_span": 25, "significant": false }, "geometry": { "type": "Point", "coordinates": [ 155.335118989170212, -4.665107201929369 ] } },
{ "type": "Feature", "properties": { "uid": "rrnmqyb23k", "rate_time": 0.459, "sig_time": 0.282, "se_time": 0.415, "sce": 52.17, "nsm": -8.43, "valid_obs": 22, "valid_span": 25, "significant": false }, "geometry": { "type": "Point", "coordinates": [ 155.336097463801451, -4.66500512365684 ] } },
{ "type": "Feature", "properties": { "uid": "rrnmqwzb80", "rate_time": 0.486, "sig_time": 0.205, "se_time": 0.371, "sce": 56.17, "nsm": -6.91, "valid_obs": 22, "valid_span": 25, "significant": false }, "geometry": { "type": "Point", "coordinates": [ 155.335358140397432, -4.664981589713072 ] } },
{ "type": "Feature", "properties": { "uid": "rrnmqwzcn0", "rate_time": 0.464, "sig_time": 0.05, "se_time": 0.221, "sce": 25.99, "nsm": -5.57, "valid_obs": 21, "valid_span": 25, "significant": false }, "geometry": { "type": "Point", "coordinates": [ 155.335613182891166, -4.664893968012126 ] } },
{ "type": "Feature", "properties": { "uid": "rrnmqyb1h7", "rate_time": 0.708, "sig_time": 0.088, "se_time": 0.394, "sce": 61.58, "nsm": -5.62, "valid_obs": 22, "valid_span": 25, "significant": false }, "geometry": { "type": "Point", "coordinates": [ 155.335880017324939, -4.664877041639578 ] } },
{ "type": "Feature", "properties": { "uid": "rrnmqwx2uv", "rate_time": -0.175, "sig_time": 0.684, "se_time": 0.424, "sce": 53.59, "nsm": -2.74, "valid_obs": 22, "valid_span": 25, "significant": false }, "geometry": { "type": "Point", "coordinates": [ 155.33487006866784, -4.666285334432123 ] } },
{ "type": "Feature", "properties": { "uid": "rrnscc99zv", "rate_time": 0.495, "sig_time": 0.243, "se_time": 0.41, "sce": 74.39, "nsm": 17.64, "valid_obs": 21, "valid_span": 25, "significant": false }, "geometry": { "type": "Point", "coordinates": [ 155.469925832863623, -4.781471226076431 ] } },
{ "type": "Feature", "properties": { "uid": "rrnscc9fkx", "rate_time": 0.19, "sig_time": 0.726, "se_time": 0.534, "sce": 98.78, "nsm": 13.02, "valid_obs": 21, "valid_span": 25, "significant": false }, "geometry": { "type": "Point", "coordinates": [ 155.470135950746908, -4.781374863702273 ] } },
{ "type": "Feature", "properties": { "uid": "rrnsccd560", "rate_time": 0.556, "sig_time": 0.115, "se_time": 0.336, "sce": 51.75, "nsm": 10.27, "valid_obs": 20, "valid_span": 25, "significant": false }, "geometry": { "type": "Point", "coordinates": [ 155.470369660061806, -4.781238762887495 ] } },
{ "type": "Feature", "properties": { "uid": "rrnsccdhqk", "rate_time": 0.532, "sig_time": 0.304, "se_time": 0.503, "sce": 77.12, "nsm": 8.97, "valid_obs": 20, "valid_span": 25, "significant": false }, "geometry": { "type": "Point", "coordinates": [ 155.470550160642063, -4.781045171877392 ] } },
{ "type": "Feature", "properties": { "uid": "rrnsccdr75", "rate_time": 0.6, "sig_time": 0.04, "se_time": 0.267, "sce": 31.09, "nsm": 7.02, "valid_obs": 17, "valid_span": 25, "significant": true }, "geometry": { "type": "Point", "coordinates": [ 155.470753613586396, -4.780533525864746 ] } },
{ "type": "Feature", "properties": { "uid": "rrnscf4rsj", "rate_time": 0.191, "sig_time": 0.669, "se_time": 0.439, "sce": 47.42, "nsm": -0.16, "valid_obs": 19, "valid_span": 25, "significant": false }, "geometry": { "type": "Point", "coordinates": [ 155.470801015949235, -4.777737547455787 ] } },
{ "type": "Feature", "properties": { "uid": "rrnsccf2yc", "rate_time": 0.55, "sig_time": 0.04, "se_time": 0.244, "sce": 29.82, "nsm": 7.65, "valid_obs": 17, "valid_span": 25, "significant": true }, "geometry": { "type": "Point", "coordinates": [ 155.470910772527617, -4.780289434949648 ] } },
{ "type": "Feature", "properties": { "uid": "rrnscf683p", "rate_time": 0.577, "sig_time": 0.348, "se_time": 0.598, "sce": 85.26, "nsm": 4.25, "valid_obs": 19, "valid_span": 25, "significant": false }, "geometry": { "type": "Point", "coordinates": [ 155.471013016282853, -4.777593668440518 ] } },
{ "type": "Feature", "properties": { "uid": "rrnsccfdkk", "rate_time": 0.183, "sig_time": 0.72, "se_time": 0.503, "sce": 63.81, "nsm": 8.41, "valid_obs": 19, "valid_span": 25, "significant": false }, "geometry": { "type": "Point", "coordinates": [ 155.471148385282731, -4.780017182858354 ] } },
{ "type": "Feature", "properties": { "uid": "rrnscf68r0", "rate_time": 0.662, "sig_time": 0.301, "se_time": 0.62, "sce": 82.35, "nsm": 3.85, "valid_obs": 19, "valid_span": 25, "significant": false }, "geometry": { "type": "Point", "coordinates": [ 155.471267856806918, -4.777635098106683 ] } },
{ "type": "Feature", "properties": { "uid": "rrnsccfg1f", "rate_time": 0.166, "sig_time": 0.714, "se_time": 0.446, "sce": 54.19, "nsm": 10.13, "valid_obs": 19, "valid_span": 25, "significant": false }, "geometry": { "type": "Point", "coordinates": [ 155.471385077567334, -4.779895958382272 ] } },
{ "type": "Feature", "properties": { "uid": "rrnscf4z5z", "rate_time": 0.636, "sig_time": 0.28, "se_time": 0.57, "sce": 67.87, "nsm": 3.37, "valid_obs": 19, "valid_span": 25, "significant": false }, "geometry": { "type": "Point", "coordinates": [ 155.471474315975399, -4.777810092774319 ] } },
{ "type": "Feature", "properties": { "uid": "rrnscf4vzm", "rate_time": 0.708, "sig_time": 0.152, "se_time": 0.472, "sce": 58.34, "nsm": 5.72, "valid_obs": 19, "valid_span": 25, "significant": false }, "geometry": { "type": "Point", "coordinates": [ 155.471622843719246, -4.778035264254367 ] } },
{ "type": "Feature", "properties": { "uid": "rrnscf5h3z", "rate_time": 0.44, "sig_time": 0.345, "se_time": 0.454, "sce": 57.26, "nsm": 8.02, "valid_obs": 20, "valid_span": 25, "significant": false }, "geometry": { "type": "Point", "coordinates": [ 155.471726974641939, -4.778283878962585 ] } },
{ "type": "Feature", "properties": { "uid": "rrnscf54gq", "rate_time": 0.721, "sig_time": 0.052, "se_time": 0.346, "sce": 57.71, "nsm": 8.84, "valid_obs": 20, "valid_span": 25, "significant": false }, "geometry": { "type": "Point", "coordinates": [ 155.471791141260752, -4.778546657133983 ] } },
{ "type": "Feature", "properties": { "uid": "rrnscf51kk", "rate_time": 0.665, "sig_time": 0.028, "se_time": 0.279, "sce": 33.35, "nsm": 8.54, "valid_obs": 20, "valid_span": 25, "significant": true }, "geometry": { "type": "Point", "coordinates": [ 155.471831646271198, -4.778814615774555 ] } },
{ "type": "Feature", "properties": { "uid": "rrnsccgpv4", "rate_time": 0.79, "sig_time": 0.012, "se_time": 0.284, "sce": 35.73, "nsm": 8.38, "valid_obs": 20, "valid_span": 25, "significant": true }, "geometry": { "type": "Point", "coordinates": [ 155.471871582674339, -4.779082738664525 ] } },
{ "type": "Feature", "properties": { "uid": "rrnsccgnm8", "rate_time": 0.482, "sig_time": 0.206, "se_time": 0.368, "sce": 40.38, "nsm": 9.81, "valid_obs": 20, "valid_span": 25, "significant": false }, "geometry": { "type": "Point", "coordinates": [ 155.471890819950403, -4.779352352234224 ] } },
{ "type": "Feature", "properties": { "uid": "rrnscf4nxb", "rate_time": -0.06, "sig_time": 0.85, "se_time": 0.312, "sce": 39.51, "nsm": -3.51, "valid_obs": 19, "valid_span": 25, "significant": false }, "geometry": { "type": "Point", "coordinates": [ 155.47061712044777, -4.777935714369215 ] } },
{ "type": "Feature", "properties": { "uid": "rrnscf4j7f", "rate_time": -0.145, "sig_time": 0.592, "se_time": 0.266, "sce": 34.52, "nsm": -5.06, "valid_obs": 19, "valid_span": 25, "significant": false }, "geometry": { "type": "Point", "coordinates": [ 155.470440371901304, -4.778140326093647 ] } },
{ "type": "Feature", "properties": { "uid": "rrnscf1uwh", "rate_time": -0.02, "sig_time": 0.944, "se_time": 0.286, "sce": 33.17, "nsm": -2.09, "valid_obs": 19, "valid_span": 25, "significant": false }, "geometry": { "type": "Point", "coordinates": [ 155.470198447445625, -4.778257136302775 ] } },
{ "type": "Feature", "properties": { "uid": "rrnscf1u2n", "rate_time": 0.412, "sig_time": 0.452, "se_time": 0.536, "sce": 91.87, "nsm": 1.9, "valid_obs": 20, "valid_span": 25, "significant": false }, "geometry": { "type": "Point", "coordinates": [ 155.469933280032507, -4.778286752886628 ] } }
]
}
